{"type" : "FeatureCollection", "features" : [{"type" : "Feature", "geometry" : {"type":"Point","coordinates":[121.51666356,25.10334003]}, "properties" : {"site_name" : "士林", "county" : "臺北市", "aqi" : 54, "status" : "普通", "pollutant" : "臭氧八小時", "pm_2point5_ug_m3" : 16, "data_time" : "2026-05-01T00:00:00+00:00"}}, {"type" : "Feature", "geometry" : {"type":"Point","coordinates":[121.526528,25.062361]}, "properties" : {"site_name" : "中山", "county" : "臺北市", "aqi" : 53, "status" : "普通", "pollutant" : "細懸浮微粒", "pm_2point5_ug_m3" : 17, "data_time" : "2026-05-01T00:00:00+00:00"}}, {"type" : "Feature", "geometry" : {"type":"Point","coordinates":[121.507972,25.046503]}, "properties" : {"site_name" : "萬華", "county" : "臺北市", "aqi" : 48, "status" : "良好", "pollutant" : "", "pm_2point5_ug_m3" : 16, "data_time" : "2026-05-01T00:00:00+00:00"}}, {"type" : "Feature", "geometry" : {"type":"Point","coordinates":[121.529556,25.020608]}, "properties" : {"site_name" : "古亭", "county" : "臺北市", "aqi" : 50, "status" : "良好", "pollutant" : "", "pm_2point5_ug_m3" : 14, "data_time" : "2026-05-01T00:00:00+00:00"}}, {"type" : "Feature", "geometry" : {"type":"Point","coordinates":[121.578611,25.05]}, "properties" : {"site_name" : "松山", "county" : "臺北市", "aqi" : 45, "status" : "良好", "pollutant" : "", "pm_2point5_ug_m3" : 11, "data_time" : "2026-05-01T00:00:00+00:00"}}, {"type" : "Feature", "geometry" : {"type":"Point","coordinates":[121.51342074,25.06331455]}, "properties" : {"site_name" : "大同", "county" : "臺北市", "aqi" : 57, "status" : "普通", "pollutant" : "細懸浮微粒", "pm_2point5_ug_m3" : 20, "data_time" : "2026-05-01T00:00:00+00:00"}}, {"type" : "Feature", "geometry" : {"type":"Point","coordinates":[121.529583,25.182722]}, "properties" : {"site_name" : "陽明", "county" : "臺北市", "aqi" : 74, "status" : "普通", "pollutant" : "臭氧八小時", "pm_2point5_ug_m3" : 18, "data_time" : "2026-05-01T00:00:00+00:00"}}]}
