{"type" : "FeatureCollection", "features" : [{"type" : "Feature", "geometry" : {"type":"Point","coordinates":[121.64081,25.06624]}, "properties" : {"site_name" : "汐止", "county" : "新北市", "aqi" : 39, "status" : "良好", "pollutant" : "", "pm_2point5_ug_m3" : 17, "data_time" : "2026-05-01T00:00:00+00:00"}}, {"type" : "Feature", "geometry" : {"type":"Point","coordinates":[121.537778,24.977222]}, "properties" : {"site_name" : "新店", "county" : "新北市", "aqi" : 51, "status" : "普通", "pollutant" : "臭氧八小時", "pm_2point5_ug_m3" : 14, "data_time" : "2026-05-01T00:00:00+00:00"}}, {"type" : "Feature", "geometry" : {"type":"Point","coordinates":[121.451861,24.982528]}, "properties" : {"site_name" : "土城", "county" : "新北市", "aqi" : 47, "status" : "良好", "pollutant" : "", "pm_2point5_ug_m3" : 13, "data_time" : "2026-05-01T00:00:00+00:00"}}, {"type" : "Feature", "geometry" : {"type":"Point","coordinates":[121.458667,25.012972]}, "properties" : {"site_name" : "板橋", "county" : "新北市", "aqi" : 49, "status" : "良好", "pollutant" : "", "pm_2point5_ug_m3" : 15, "data_time" : "2026-05-01T00:00:00+00:00"}}, {"type" : "Feature", "geometry" : {"type":"Point","coordinates":[121.4325,25.037972]}, "properties" : {"site_name" : "新莊", "county" : "新北市", "aqi" : 51, "status" : "普通", "pollutant" : "臭氧八小時", "pm_2point5_ug_m3" : 15, "data_time" : "2026-05-01T00:00:00+00:00"}}, {"type" : "Feature", "geometry" : {"type":"Point","coordinates":[121.481028,25.06895]}, "properties" : {"site_name" : "菜寮", "county" : "新北市", "aqi" : 50, "status" : "良好", "pollutant" : "", "pm_2point5_ug_m3" : 16, "data_time" : "2026-05-01T00:00:00+00:00"}}, {"type" : "Feature", "geometry" : {"type":"Point","coordinates":[121.36548982,25.07798949]}, "properties" : {"site_name" : "林口", "county" : "新北市", "aqi" : 42, "status" : "良好", "pollutant" : "", "pm_2point5_ug_m3" : 13, "data_time" : "2026-05-01T00:00:00+00:00"}}, {"type" : "Feature", "geometry" : {"type":"Point","coordinates":[121.449239,25.1645]}, "properties" : {"site_name" : "淡水", "county" : "新北市", "aqi" : 43, "status" : "良好", "pollutant" : "", "pm_2point5_ug_m3" : 18, "data_time" : "2026-05-01T00:00:00+00:00"}}, {"type" : "Feature", "geometry" : {"type":"Point","coordinates":[121.51666356,25.10334003]}, "properties" : {"site_name" : "士林", "county" : "臺北市", "aqi" : 54, "status" : "普通", "pollutant" : "臭氧八小時", "pm_2point5_ug_m3" : 16, "data_time" : "2026-05-01T00:00:00+00:00"}}, {"type" : "Feature", "geometry" : {"type":"Point","coordinates":[121.526528,25.062361]}, "properties" : {"site_name" : "中山", "county" : "臺北市", "aqi" : 53, "status" : "普通", "pollutant" : "細懸浮微粒", "pm_2point5_ug_m3" : 17, "data_time" : "2026-05-01T00:00:00+00:00"}}, {"type" : "Feature", "geometry" : {"type":"Point","coordinates":[121.507972,25.046503]}, "properties" : {"site_name" : "萬華", "county" : "臺北市", "aqi" : 48, "status" : "良好", "pollutant" : "", "pm_2point5_ug_m3" : 16, "data_time" : "2026-05-01T00:00:00+00:00"}}, {"type" : "Feature", "geometry" : {"type":"Point","coordinates":[121.529556,25.020608]}, "properties" : {"site_name" : "古亭", "county" : "臺北市", "aqi" : 50, "status" : "良好", "pollutant" : "", "pm_2point5_ug_m3" : 14, "data_time" : "2026-05-01T00:00:00+00:00"}}, {"type" : "Feature", "geometry" : {"type":"Point","coordinates":[121.578611,25.05]}, "properties" : {"site_name" : "松山", "county" : "臺北市", "aqi" : 45, "status" : "良好", "pollutant" : "", "pm_2point5_ug_m3" : 11, "data_time" : "2026-05-01T00:00:00+00:00"}}, {"type" : "Feature", "geometry" : {"type":"Point","coordinates":[121.51342074,25.06331455]}, "properties" : {"site_name" : "大同", "county" : "臺北市", "aqi" : 57, "status" : "普通", "pollutant" : "細懸浮微粒", "pm_2point5_ug_m3" : 20, "data_time" : "2026-05-01T00:00:00+00:00"}}, {"type" : "Feature", "geometry" : {"type":"Point","coordinates":[121.529583,25.182722]}, "properties" : {"site_name" : "陽明", "county" : "臺北市", "aqi" : 74, "status" : "普通", "pollutant" : "臭氧八小時", "pm_2point5_ug_m3" : 18, "data_time" : "2026-05-01T00:00:00+00:00"}}, {"type" : "Feature", "geometry" : {"type":"Point","coordinates":[121.493806,25.072611]}, "properties" : {"site_name" : "三重", "county" : "新北市", "aqi" : 59, "status" : "普通", "pollutant" : "二氧化氮", "pm_2point5_ug_m3" : 24, "data_time" : "2026-05-01T00:00:00+00:00"}}, {"type" : "Feature", "geometry" : {"type":"Point","coordinates":[121.516306,25.017]}, "properties" : {"site_name" : "永和", "county" : "新北市", "aqi" : 49, "status" : "良好", "pollutant" : "", "pm_2point5_ug_m3" : 15, "data_time" : "2026-05-01T00:00:00+00:00"}}, {"type" : "Feature", "geometry" : {"type":"Point","coordinates":[121.53656894,25.29681695]}, "properties" : {"site_name" : "富貴角", "county" : "新北市", "aqi" : 97, "status" : "普通", "pollutant" : "臭氧八小時", "pm_2point5_ug_m3" : 15, "data_time" : "2026-05-01T00:00:00+00:00"}}, {"type" : "Feature", "geometry" : {"type":"Point","coordinates":[121.38352778,24.94902778]}, "properties" : {"site_name" : "新北（樹林）", "county" : "新北市", "aqi" : 47, "status" : "良好", "pollutant" : "", "pm_2point5_ug_m3" : 15, "data_time" : "2026-05-01T00:00:00+00:00"}}]}
