{"type": "FeatureCollection", "features": [{"type": "Feature", "properties": {"name": "ENJOY臺北餐廳", "type": "庇護工場", "category": "sheltered", "category_label": "庇護工場", "district": "信義區", "address": "臺北市信義區市府路1號1樓", "phone": "2720-5208", "url": "", "city": "taipei"}, "geometry": {"type": "Point", "coordinates": [121.563781, 25.037524]}}, {"type": "Feature", "properties": {"name": "勝利基金會辦理樸樹咖啡捷運古亭店(捷運古亭庇護工場)", "type": "庇護工場", "category": "sheltered", "category_label": "庇護工場", "district": "中正區", "address": "臺北市中正區羅斯福路2段164-1號B1", "phone": "2368-9093", "url": "", "city": "taipei"}, "geometry": {"type": "Point", "coordinates": [121.531881, 25.016082]}}, {"type": "Feature", "properties": {"name": "EasyCoffee(捷運善導寺庇護工場)", "type": "庇護工場", "category": "sheltered", "category_label": "庇護工場", "district": "中正區", "address": "臺北市中正區忠孝東路1段58號B1", "phone": "2395-6102", "url": "", "city": "taipei"}, "geometry": {"type": "Point", "coordinates": [121.544039, 25.041842]}}, {"type": "Feature", "properties": {"name": "快樂小舖\n(捷運南勢角庇護工場)", "type": "庇護工場", "category": "sheltered", "category_label": "庇護工場", "district": "中和區", "address": "新北市中和區捷運路6號B3", "phone": "2943-3994", "url": "", "city": "taipei"}, "geometry": {"type": "Point", "coordinates": [121.509777, 24.989589]}}, {"type": "Feature", "properties": {"name": "樂芽一號庇護工場\n(富陽1店庇護工場)", "type": "庇護工場", "category": "sheltered", "category_label": "庇護工場", "district": "信義區", "address": "臺北市信義區和平東路3段341巷3號1樓", "phone": "8732-8101", "url": "", "city": "taipei"}, "geometry": {"type": "Point", "coordinates": [121.558283, 25.020532]}}, {"type": "Feature", "properties": {"name": "育成洗車中心\n(建忠庇護工場)", "type": "庇護工場", "category": "sheltered", "category_label": "庇護工場", "district": "大安區", "address": "臺北市大安區建國南路、濟南路口高架橋下", "phone": "2711-5842\n2740-7418", "url": "", "city": "taipei"}, "geometry": {"type": "Point", "coordinates": [121.537978, 25.0291]}}, {"type": "Feature", "properties": {"name": "光仁選品店\n(捷運大直庇護工場)", "type": "庇護工場", "category": "sheltered", "category_label": "庇護工場", "district": "中山區", "address": "臺北市中山區北安路534-1號B1", "phone": "8509-8601", "url": "", "city": "taipei"}, "geometry": {"type": "Point", "coordinates": [121.557038, 25.084576]}}, {"type": "Feature", "properties": {"name": "育成蕃薯藤\n(忠孝庇護工場)", "type": "庇護工場", "category": "sheltered", "category_label": "庇護工場", "district": "大安區", "address": "臺北市大安區建國南路1段181號", "phone": "2752-1785", "url": "", "city": "taipei"}, "geometry": {"type": "Point", "coordinates": [121.537078, 25.023823]}}, {"type": "Feature", "properties": {"name": "地熱谷小舖\n(地熱谷庇護工場)", "type": "庇護工場", "category": "sheltered", "category_label": "庇護工場", "district": "北投區", "address": "臺北市北投區中山路30-10號2樓", "phone": "2895-0556", "url": "", "city": "taipei"}, "geometry": {"type": "Point", "coordinates": [121.508118, 25.136991]}}, {"type": "Feature", "properties": {"name": "樂芽永續股份有限公司青年1庇護工場", "type": "庇護工場", "category": "sheltered", "category_label": "庇護工場", "district": "萬華區", "address": "臺北市萬華區青年路152巷6號", "phone": "7752-2518", "url": "", "city": "taipei"}, "geometry": {"type": "Point", "coordinates": [121.502327, 25.021238]}}, {"type": "Feature", "properties": {"name": "樂芽永續股份有限公司青年2庇護工場", "type": "庇護工場", "category": "sheltered", "category_label": "庇護工場", "district": "萬華區", "address": "臺北市萬華區青年路152巷14號", "phone": "7752-2518", "url": "", "city": "taipei"}, "geometry": {"type": "Point", "coordinates": [121.501966, 25.021078]}}, {"type": "Feature", "properties": {"name": "光仁選品店\n(萬大庇護工場)", "type": "庇護工場", "category": "sheltered", "category_label": "庇護工場", "district": "萬華區", "address": "臺北市萬華區萬大路423巷38號", "phone": "2305-0025", "url": "", "city": "taipei"}, "geometry": {"type": "Point", "coordinates": [121.500823, 25.021329]}}, {"type": "Feature", "properties": {"name": "第一輔具庇護工場\n(國光國宅庇護工場)", "type": "庇護工場", "category": "sheltered", "category_label": "庇護工場", "district": "萬華區", "address": "臺北市萬華區國興路22、24號1樓", "phone": "2303-3366", "url": "", "city": "taipei"}, "geometry": {"type": "Point", "coordinates": [121.50719, 25.025331]}}, {"type": "Feature", "properties": {"name": "興岩庇護工場", "type": "庇護工場", "category": "sheltered", "category_label": "庇護工場", "district": "文山區", "address": "臺北市文山區興隆路2段88號及88-1號", "phone": "2933-5626\n2776-6603", "url": "", "city": "taipei"}, "geometry": {"type": "Point", "coordinates": [121.561656, 24.983422]}}, {"type": "Feature", "properties": {"name": "神腦國際手機維修庇護工場", "type": "庇護工場", "category": "sheltered", "category_label": "庇護工場", "district": "松山區", "address": "臺北市松山區民權東路3段102號1樓", "phone": "2718-6060轉25", "url": "", "city": "taipei"}, "geometry": {"type": "Point", "coordinates": [121.595903, 25.0645]}}, {"type": "Feature", "properties": {"name": "臺北榮民總醫院附設庇護工場", "type": "庇護工場", "category": "sheltered", "category_label": "庇護工場", "district": "北投區", "address": "臺北市北投區石牌路2段201號", "phone": "2875-7027\n轉570", "url": "", "city": "taipei"}, "geometry": {"type": "Point", "coordinates": [121.514636, 25.112472]}}, {"type": "Feature", "properties": {"name": "財團法人伊甸社會福利基金會附設阿萬師清潔工作隊", "type": "庇護工場", "category": "sheltered", "category_label": "庇護工場", "district": "文山區", "address": "臺北市文山區萬美街1段55號3樓之7", "phone": "2239-2826", "url": "", "city": "taipei"}, "geometry": {"type": "Point", "coordinates": [121.56849, 25.001544]}}, {"type": "Feature", "properties": {"name": "臺北醫學大學附設醫院樂活屋庇護商店", "type": "庇護工場", "category": "sheltered", "category_label": "庇護工場", "district": "信義區", "address": "臺北市信義區吳興街252號第一大樓B1、1樓及2樓", "phone": "2737-2181\n轉3665", "url": "", "city": "taipei"}, "geometry": {"type": "Point", "coordinates": [121.563635, 25.026639]}}, {"type": "Feature", "properties": {"name": "財團法人伊甸社會福利基金會附設數位資料處理庇護工場", "type": "庇護工場", "category": "sheltered", "category_label": "庇護工場", "district": "文山區", "address": "臺北市文山區萬美街1段55號3樓之10", "phone": "2230-8002", "url": "", "city": "taipei"}, "geometry": {"type": "Point", "coordinates": [121.56849, 25.001544]}}, {"type": "Feature", "properties": {"name": "財團法人心路社會福利基金會附設心路機動工作隊", "type": "庇護工場", "category": "sheltered", "category_label": "庇護工場", "district": "文山區", "address": "臺北市文山區萬美街1段59號", "phone": "2230-6503", "url": "", "city": "taipei"}, "geometry": {"type": "Point", "coordinates": [121.56849, 25.001544]}}, {"type": "Feature", "properties": {"name": "馬偕紀念醫院附設喜樂工作坊", "type": "庇護工場", "category": "sheltered", "category_label": "庇護工場", "district": "中山區", "address": "臺北市中山區中山北路2段92號福音樓3樓", "phone": "2543-3535\n轉3692", "url": "", "city": "taipei"}, "geometry": {"type": "Point", "coordinates": [121.521853, 25.051438]}}, {"type": "Feature", "properties": {"name": "糕菲庇護工場", "type": "庇護工場", "category": "sheltered", "category_label": "庇護工場", "district": "內湖區", "address": "臺北市內湖區行愛路140巷25號", "phone": "2785-2499", "url": "", "city": "taipei"}, "geometry": {"type": "Point", "coordinates": [121.579393, 25.063609]}}, {"type": "Feature", "properties": {"name": "台北市康復之友協會附設勞務服務中心", "type": "庇護工場", "category": "sheltered", "category_label": "庇護工場", "district": "松山區", "address": "臺北市松山區八德路4段604號2樓之6", "phone": "2765-2810\n轉262", "url": "", "city": "taipei"}, "geometry": {"type": "Point", "coordinates": [121.578929, 25.051789]}}, {"type": "Feature", "properties": {"name": "台北市自閉症家長協會附設小貝殼工作坊", "type": "庇護工場", "category": "sheltered", "category_label": "庇護工場", "district": "大同區", "address": "臺北市大同區酒泉街189、197號", "phone": "2595-3954", "url": "", "city": "taipei"}, "geometry": {"type": "Point", "coordinates": [121.514912, 25.072016]}}, {"type": "Feature", "properties": {"name": "三軍總醫院北投分院附設庇護工場", "type": "庇護工場", "category": "sheltered", "category_label": "庇護工場", "district": "北投區", "address": "臺北市北投區新民路60號", "phone": "2895-9808\n轉603128", "url": "", "city": "taipei"}, "geometry": {"type": "Point", "coordinates": [121.509688, 25.13989]}}, {"type": "Feature", "properties": {"name": "傳玻者文創設計中心", "type": "庇護工場", "category": "sheltered", "category_label": "庇護工場", "district": "大同區", "address": "臺北市大同區民族西路162巷2、4號1樓", "phone": "2881-2895", "url": "", "city": "taipei"}, "geometry": {"type": "Point", "coordinates": [121.51452, 25.068639]}}, {"type": "Feature", "properties": {"name": "財團法人台北市自閉兒社會福利基金會附設愛肯樂活工場", "type": "庇護工場", "category": "sheltered", "category_label": "庇護工場", "district": "大同區", "address": "臺北市大同區甘谷街16號2樓", "phone": "2599-3803", "url": "", "city": "taipei"}, "geometry": {"type": "Point", "coordinates": [121.511209, 25.052755]}}, {"type": "Feature", "properties": {"name": "勝利數位設計印刷中心", "type": "庇護工場", "category": "sheltered", "category_label": "庇護工場", "district": "大安區", "address": "臺北市大安區和平東路2段53巷2號9樓", "phone": "2754-0526", "url": "", "city": "taipei"}, "geometry": {"type": "Point", "coordinates": [121.551037, 25.023959]}}, {"type": "Feature", "properties": {"name": "新品文具庇護工場", "type": "庇護工場", "category": "sheltered", "category_label": "庇護工場", "district": "士林區", "address": "臺北市士林區承德路4段180號3樓", "phone": "2889-1155", "url": "", "city": "taipei"}, "geometry": {"type": "Point", "coordinates": [121.518672, 25.058808]}}, {"type": "Feature", "properties": {"name": "勝利便利商店松醫店", "type": "庇護工場", "category": "sheltered", "category_label": "庇護工場", "district": "松山區", "address": "臺北市松山區健康路158號", "phone": "7723-0420", "url": "", "city": "taipei"}, "geometry": {"type": "Point", "coordinates": [121.557876, 25.053444]}}, {"type": "Feature", "properties": {"name": "愛不囉嗦庇護工場", "type": "庇護工場", "category": "sheltered", "category_label": "庇護工場", "district": "大同區", "address": "臺北市大同區承德路3段212之5號1樓", "phone": "2586-9321", "url": "", "city": "taipei"}, "geometry": {"type": "Point", "coordinates": [121.518732, 25.090317]}}, {"type": "Feature", "properties": {"name": "伊果文創印刷庇護工場", "type": "庇護工場", "category": "sheltered", "category_label": "庇護工場", "district": "文山區", "address": "臺北市文山區保儀路9號4樓", "phone": "2939-2169", "url": "", "city": "taipei"}, "geometry": {"type": "Point", "coordinates": [121.569578, 24.985204]}}, {"type": "Feature", "properties": {"name": "勝利便利商店敦中店", "type": "庇護工場", "category": "sheltered", "category_label": "庇護工場", "district": "松山區", "address": "臺北市松山區敦化北路4巷1號", "phone": "7713-7209", "url": "", "city": "taipei"}, "geometry": {"type": "Point", "coordinates": [121.546291, 25.050001]}}, {"type": "Feature", "properties": {"name": "樸樹咖啡", "type": "庇護工場", "category": "sheltered", "category_label": "庇護工場", "district": "萬華區", "address": "臺北市萬華區廣州街95-1、95-2、95-3號", "phone": "2306-6308", "url": "", "city": "taipei"}, "geometry": {"type": "Point", "coordinates": [121.504135, 25.036527]}}, {"type": "Feature", "properties": {"name": "雙喵星球庇護工場", "type": "庇護工場", "category": "sheltered", "category_label": "庇護工場", "district": "士林區", "address": "臺北市士林區美德街104號1樓", "phone": "2831-9191", "url": "", "city": "taipei"}, "geometry": {"type": "Point", "coordinates": [121.525085, 25.095482]}}, {"type": "Feature", "properties": {"name": "勝利加油站\n(大安加油站)", "type": "庇護工場", "category": "sheltered", "category_label": "庇護工場", "district": "大安區", "address": "臺北市大安區建國南路2段75-1號", "phone": "2755-5499", "url": "", "city": "taipei"}, "geometry": {"type": "Point", "coordinates": [121.538324, 25.035101]}}, {"type": "Feature", "properties": {"name": "陽光加油站\n(市民加油站)", "type": "庇護工場", "category": "sheltered", "category_label": "庇護工場", "district": "大安區", "address": "臺北市大安區建國南路1段57-1號", "phone": "2752-9928", "url": "", "city": "taipei"}, "geometry": {"type": "Point", "coordinates": [121.537078, 25.023823]}}, {"type": "Feature", "properties": {"name": "陽光汽車美容中心\n(建和社會企業)", "type": "庇護工場", "category": "sheltered", "category_label": "庇護工場", "district": "大安區", "address": "臺北市大安區建國南路2段280號", "phone": "2365-7791", "url": "", "city": "taipei"}, "geometry": {"type": "Point", "coordinates": [121.538324, 25.035101]}}, {"type": "Feature", "properties": {"name": "建北加油站", "type": "庇護工場", "category": "sheltered", "category_label": "庇護工場", "district": "中山區", "address": "臺北市中山區建國北路3段91之1號", "phone": "2515-0228", "url": "", "city": "taipei"}, "geometry": {"type": "Point", "coordinates": [121.536282, 25.0469]}}, {"type": "Feature", "properties": {"name": "陽光活力中心八德二館\n(臺北社企館1F)", "type": "庇護工場", "category": "sheltered", "category_label": "庇護工場", "district": "中山區", "address": "臺北市中山區八德路2段174巷28號1樓", "phone": "2772-8816", "url": "", "city": "taipei"}, "geometry": {"type": "Point", "coordinates": [121.538437, 25.04568]}}, {"type": "Feature", "properties": {"name": "新生命資訊服務股份有限公司(臺北社企館2F)", "type": "庇護工場", "category": "sheltered", "category_label": "庇護工場", "district": "中山區", "address": "臺北市中山區八德路2段174巷28號2樓", "phone": "8751-5350", "url": "", "city": "taipei"}, "geometry": {"type": "Point", "coordinates": [121.538437, 25.04568]}}, {"type": "Feature", "properties": {"name": "社團法人台灣公益團體自律聯盟(臺北社企館3F)", "type": "庇護工場", "category": "sheltered", "category_label": "庇護工場", "district": "中山區", "address": "臺北市中山區八德路2段174巷28號3樓", "phone": "8772-6020", "url": "", "city": "taipei"}, "geometry": {"type": "Point", "coordinates": [121.538437, 25.04568]}}, {"type": "Feature", "properties": {"name": "黑暗對話社會企業股份有限公司(臺北社企館4F)", "type": "庇護工場", "category": "sheltered", "category_label": "庇護工場", "district": "中山區", "address": "臺北市中山區八德路2段174巷28號4樓", "phone": "8772-3100", "url": "", "city": "taipei"}, "geometry": {"type": "Point", "coordinates": [121.538437, 25.04568]}}, {"type": "Feature", "properties": {"name": "視障者音樂發展中心\n(臺北社企館5F)", "type": "庇護工場", "category": "sheltered", "category_label": "庇護工場", "district": "中山區", "address": "臺北市中山區八德路2段174巷28號5樓", "phone": "7730-7388\n轉106", "url": "", "city": "taipei"}, "geometry": {"type": "Point", "coordinates": [121.538437, 25.04568]}}, {"type": "Feature", "properties": {"name": "陽光活力中心八德館\n(臺北社企館6、7F)", "type": "庇護工場", "category": "sheltered", "category_label": "庇護工場", "district": "中山區", "address": "臺北市中山區八德路2段174巷28號6、7樓", "phone": "2772-8816", "url": "", "city": "taipei"}, "geometry": {"type": "Point", "coordinates": [121.538437, 25.04568]}}, {"type": "Feature", "properties": {"name": "第一物業管理社會企業", "type": "庇護工場", "category": "sheltered", "category_label": "庇護工場", "district": "南港區", "address": "臺北市南港區重陽路223號B1", "phone": "2722-4136\n轉1879", "url": "", "city": "taipei"}, "geometry": {"type": "Point", "coordinates": [121.602587, 25.057677]}}, {"type": "Feature", "properties": {"name": "第一輔具股份有限公司\n(富陽2店)", "type": "庇護工場", "category": "sheltered", "category_label": "庇護工場", "district": "信義區", "address": "臺北市信義區和平東路3段341巷7號1樓", "phone": "2377-2188", "url": "", "city": "taipei"}, "geometry": {"type": "Point", "coordinates": [121.558283, 25.020532]}}, {"type": "Feature", "properties": {"name": "大龍粥食品有限公司", "type": "庇護工場", "category": "sheltered", "category_label": "庇護工場", "district": "松山區", "address": "臺北市松山區八德路2段410巷5弄1號1樓", "phone": "0972-906738", "url": "", "city": "taipei"}, "geometry": {"type": "Point", "coordinates": [121.577071, 25.050547]}}, {"type": "Feature", "properties": {"name": "臺北市政府勞動局", "type": "勞動行政機關", "category": "admin", "category_label": "勞動行政", "district": "信義區", "address": "臺北市信義區市府路1號5樓(北區及東北區)", "phone": "(02)27208889", "url": "https://bola.gov.taipei/Default.aspx", "city": "taipei"}, "geometry": {"type": "Point", "coordinates": [121.563781, 25.037524]}}, {"type": "Feature", "properties": {"name": "勞動權益中心", "type": "勞動行政機關", "category": "admin", "category_label": "勞動行政", "district": "萬華區", "address": "臺北市萬華區艋舺大道101號6樓", "phone": "(02)23026355", "url": "https://bola.gov.taipei/cp.aspx?n=7A178A22C01EA988&s=B5EC36F9D503F2E5", "city": "taipei"}, "geometry": {"type": "Point", "coordinates": [121.501472, 25.033339]}}, {"type": "Feature", "properties": {"name": "臺北市勞動檢查處", "type": "勞動行政機關", "category": "admin", "category_label": "勞動行政", "district": "萬華區", "address": "臺北市萬華區艋舺大道101號7樓", "phone": "(02)23086101", "url": "https://lio.gov.taipei/", "city": "taipei"}, "geometry": {"type": "Point", "coordinates": [121.501472, 25.033339]}}, {"type": "Feature", "properties": {"name": "臺北市就業服務處", "type": "就業服務站台", "category": "employment", "category_label": "就業服務", "district": "萬華區", "address": "臺北市萬華區艋舺大道101號8樓", "phone": "(02)23085230", "url": "https://eso.gov.taipei/", "city": "taipei"}, "geometry": {"type": "Point", "coordinates": [121.501472, 25.033339]}}, {"type": "Feature", "properties": {"name": "艋舺就業服務站", "type": "就業服務站台", "category": "employment", "category_label": "就業服務", "district": "萬華區", "address": "臺北市萬華區艋舺大道101號3樓", "phone": "(02)23085231", "url": "https://eso.gov.taipei/cp.aspx?n=931FF3F88FFB7EEC", "city": "taipei"}, "geometry": {"type": "Point", "coordinates": [121.501472, 25.033339]}}, {"type": "Feature", "properties": {"name": "西門就業服務站", "type": "就業服務站台", "category": "employment", "category_label": "就業服務", "district": "萬華區", "address": "臺北市萬華區峨眉街81號", "phone": "(02)23813344", "url": "https://eso.gov.taipei/cp.aspx?n=931FF3F88FFB7EEC", "city": "taipei"}, "geometry": {"type": "Point", "coordinates": [121.50536, 25.043963]}}, {"type": "Feature", "properties": {"name": "北投就業服務站", "type": "就業服務站台", "category": "employment", "category_label": "就業服務", "district": "北投區", "address": "臺北市北投區中央北路一段2號3樓", "phone": "(02)28981819", "url": "https://eso.gov.taipei/cp.aspx?n=931FF3F88FFB7EEC", "city": "taipei"}, "geometry": {"type": "Point", "coordinates": [121.501512, 25.133559]}}, {"type": "Feature", "properties": {"name": "景美就業服務站", "type": "就業服務站台", "category": "employment", "category_label": "就業服務", "district": "文山區", "address": "臺北市文山區羅斯福路6段393號2樓", "phone": "(02)89315334", "url": "https://eso.gov.taipei/cp.aspx?n=931FF3F88FFB7EEC", "city": "taipei"}, "geometry": {"type": "Point", "coordinates": [121.540236, 25.00166]}}, {"type": "Feature", "properties": {"name": "南港東明青銀就業服務站", "type": "就業服務站台", "category": "employment", "category_label": "就業服務", "district": "南港區", "address": "臺北市南港區南港路二段60巷19號1樓及2樓", "phone": "(02)27400922", "url": "https://eso.gov.taipei/cp.aspx?n=931FF3F88FFB7EEC", "city": "taipei"}, "geometry": {"type": "Point", "coordinates": [121.605199, 25.054379]}}, {"type": "Feature", "properties": {"name": "內湖就業服務站", "type": "就業服務站台", "category": "employment", "category_label": "就業服務", "district": "內湖區", "address": "臺北市內湖區民權東路6段99號7樓", "phone": "(02)27900399", "url": "https://eso.gov.taipei/cp.aspx?n=931FF3F88FFB7EEC", "city": "taipei"}, "geometry": {"type": "Point", "coordinates": [121.605725, 25.070981]}}, {"type": "Feature", "properties": {"name": "信義就業服務站", "type": "就業服務站台", "category": "employment", "category_label": "就業服務", "district": "信義區", "address": "臺北市信義區福德街86號8樓", "phone": "(02)27293138", "url": "https://eso.gov.taipei/cp.aspx?n=931FF3F88FFB7EEC", "city": "taipei"}, "geometry": {"type": "Point", "coordinates": [121.585255, 25.036242]}}, {"type": "Feature", "properties": {"name": "萬華服務臺", "type": "就業服務站台", "category": "employment", "category_label": "就業服務", "district": "萬華區", "address": "臺北市萬華區梧州街36號5樓", "phone": "(02)23080236", "url": "https://eso.gov.taipei/cp.aspx?n=931FF3F88FFB7EEC", "city": "taipei"}, "geometry": {"type": "Point", "coordinates": [121.497484, 25.037373]}}, {"type": "Feature", "properties": {"name": "個案管理資源站", "type": "就業服務站台", "category": "employment", "category_label": "就業服務", "district": "文山區", "address": "臺北市文山區羅斯福路6段393號3樓", "phone": "(02)29302696", "url": "https://eso.gov.taipei/cp.aspx?n=931FF3F88FFB7EEC", "city": "taipei"}, "geometry": {"type": "Point", "coordinates": [121.540236, 25.00166]}}, {"type": "Feature", "properties": {"name": "南港銀髮人才服務據點", "type": "就業服務站台", "category": "employment", "category_label": "就業服務", "district": "南港區", "address": "臺北市南港區南港路二段60巷18號", "phone": "(02)27861660", "url": "https://eso.gov.taipei/cp.aspx?n=931FF3F88FFB7EEC", "city": "taipei"}, "geometry": {"type": "Point", "coordinates": [121.603659, 25.054384]}}, {"type": "Feature", "properties": {"name": "文山銀髮人才服務據點", "type": "就業服務站台", "category": "employment", "category_label": "就業服務", "district": "文山區", "address": "臺北市文山區興隆路二段88號2樓", "phone": "(02)29307989", "url": "https://eso.gov.taipei/cp.aspx?n=931FF3F88FFB7EEC", "city": "taipei"}, "geometry": {"type": "Point", "coordinates": [121.55083, 24.997837]}}, {"type": "Feature", "properties": {"name": "臺北市職能發展學院", "type": "勞動行政機關", "category": "admin", "category_label": "勞動行政", "district": "士林區", "address": "臺北市士林區士東路301號", "phone": "(02)28721940", "url": "https://www.tvdi.gov.taipei/", "city": "taipei"}, "geometry": {"type": "Point", "coordinates": [121.537717, 25.114733]}}, {"type": "Feature", "properties": {"name": "臺北市勞動力重建運用處", "type": "勞動行政機關", "category": "admin", "category_label": "勞動行政", "district": "萬華區", "address": "臺北市萬華區艋舺大道101號4、5樓", "phone": "(02)23381600", "url": "https://fd.gov.taipei/", "city": "taipei"}, "geometry": {"type": "Point", "coordinates": [121.501472, 25.033339]}}, {"type": "Feature", "properties": {"name": "台北市辦事處", "type": "勞保局辦事處", "category": "admin", "category_label": "勞動行政", "district": "", "address": "臺北市羅斯福路1段4號1樓", "phone": "02-23216884", "url": "", "city": "taipei"}, "geometry": {"type": "Point", "coordinates": [121.5176575, 25.0331871]}}]}