{"type": "FeatureCollection", "features": [{"type": "Feature", "properties": {"name": "新北市糕菲膳工坊", "type": "庇護工場", "category": "sheltered", "category_label": "庇護工場", "district": "土城區", "address": "新北市土城區廣興街71號", "phone": "02-89674912", "url": "https://www.facebook.com/gofecafe/", "city": "new_taipei"}, "geometry": {"type": "Point", "coordinates": [121.453805, 24.991288]}}, {"type": "Feature", "properties": {"name": "新北市久大庇護工場", "type": "庇護工場", "category": "sheltered", "category_label": "庇護工場", "district": "新店區", "address": "新北市新店區安德街156號4樓", "phone": "02-22115477", "url": "https://www.facebook.com/fantechshelteredworkshop/", "city": "new_taipei"}, "geometry": {"type": "Point", "coordinates": [121.508328, 24.959428]}}, {"type": "Feature", "properties": {"name": "新北市愛盲土城工坊", "type": "庇護工場", "category": "sheltered", "category_label": "庇護工場", "district": "土城區", "address": "新北市土城區中央路4段102號4樓", "phone": "02-22681886", "url": "", "city": "new_taipei"}, "geometry": {"type": "Point", "coordinates": [121.443466, 24.980764]}}, {"type": "Feature", "properties": {"name": "新北市小羊苗庇護工場", "type": "庇護工場", "category": "sheltered", "category_label": "庇護工場", "district": "淡水區", "address": "新北市淡水區淡金路38巷94號1樓", "phone": "02-86260327", "url": "https://www.facebook.com/397eden/", "city": "new_taipei"}, "geometry": {"type": "Point", "coordinates": [121.458255, 25.161378]}}, {"type": "Feature", "properties": {"name": "新北市維凱創意印刷庇護工場", "type": "庇護工場", "category": "sheltered", "category_label": "庇護工場", "district": "中和區", "address": "新北市中和區員山路506-1號7樓", "phone": "02- 82266239", "url": "", "city": "new_taipei"}, "geometry": {"type": "Point", "coordinates": [121.481021, 24.995411]}}, {"type": "Feature", "properties": {"name": "新北市喜憨兒土城餐坊", "type": "庇護工場", "category": "sheltered", "category_label": "庇護工場", "district": "土城區", "address": "新北市土城區裕生路21巷6弄33號1樓", "phone": "02-82629886", "url": "http://www.facebook.com/teamo.careus", "city": "new_taipei"}, "geometry": {"type": "Point", "coordinates": [121.448906, 24.986458]}}, {"type": "Feature", "properties": {"name": "新北市大安庇護農場", "type": "庇護工場", "category": "sheltered", "category_label": "庇護工場", "district": "樹林區", "address": "新北市樹林區備內街69-1號", "phone": "02-26852017", "url": "https://www.facebook.com/daanfarm/", "city": "new_taipei"}, "geometry": {"type": "Point", "coordinates": [121.407139, 24.989605]}}, {"type": "Feature", "properties": {"name": "新北市樂扶庇護工場", "type": "庇護工場", "category": "sheltered", "category_label": "庇護工場", "district": "三重區", "address": "新北市三重區成功路41巷24弄5號", "phone": "02-2972-2000", "url": "http://www.tplove.org/", "city": "new_taipei"}, "geometry": {"type": "Point", "coordinates": [121.49036, 25.052139]}}, {"type": "Feature", "properties": {"name": "新北市懷恩印刷設計庇護工場", "type": "庇護工場", "category": "sheltered", "category_label": "庇護工場", "district": "新莊區", "address": "新北市新莊區化成路134號1樓", "phone": "02-29985139", "url": "", "city": "new_taipei"}, "geometry": {"type": "Point", "coordinates": [121.46597, 25.04475]}}, {"type": "Feature", "properties": {"name": "新北市集賢庇護工場", "type": "庇護工場", "category": "sheltered", "category_label": "庇護工場", "district": "蘆洲區", "address": "新北市蘆洲區集賢路245號10樓", "phone": "02-82833142", "url": "http://www.lovenature.com.tw/", "city": "new_taipei"}, "geometry": {"type": "Point", "coordinates": [121.481612, 25.084821]}}, {"type": "Feature", "properties": {"name": "新北市慈惠庇護工場", "type": "庇護工場", "category": "sheltered", "category_label": "庇護工場", "district": "五股區", "address": "新北市五股區五權路7巷2號1、2樓", "phone": "02-22989009", "url": "http://www.facebook.com/LUCKYTHSW/", "city": "new_taipei"}, "geometry": {"type": "Point", "coordinates": [121.448592, 25.064726]}}, {"type": "Feature", "properties": {"name": "新北市喜憨兒板橋烘焙屋", "type": "庇護工場", "category": "sheltered", "category_label": "庇護工場", "district": "板橋區", "address": "新北市板橋區和平路90號1樓", "phone": "02-29630135", "url": "", "city": "new_taipei"}, "geometry": {"type": "Point", "coordinates": [121.469188, 25.079304]}}, {"type": "Feature", "properties": {"name": "新北市慈佑庇護工場", "type": "庇護工場", "category": "sheltered", "category_label": "庇護工場", "district": "五股區", "address": "新北市五股區五權路7巷10號1、2樓", "phone": "02-22900905", "url": "", "city": "new_taipei"}, "geometry": {"type": "Point", "coordinates": [121.448592, 25.064726]}}, {"type": "Feature", "properties": {"name": "新北市喜憨兒庇護工場", "type": "庇護工場", "category": "sheltered", "category_label": "庇護工場", "district": "中和區", "address": "新北市中和區民享街4號E棟4樓", "phone": "02-82217676", "url": "", "city": "new_taipei"}, "geometry": {"type": "Point", "coordinates": [121.473793, 24.998821]}}, {"type": "Feature", "properties": {"name": "新北市幸福小站庇護商店", "type": "庇護工場", "category": "sheltered", "category_label": "庇護工場", "district": "八里區", "address": "新北市八里區華富山33號", "phone": "02-26101660#2405", "url": "https://www.facebook.com/%E6%96%B0%E5%8C%97%E5%B8%82%E5%B9%B8%E7%A6%8F%E5%B0%8F%E7%AB%99%E5%BA%87%E8%AD%B7%E5%95%86%E5%BA%97-378735385526322/", "city": "new_taipei"}, "geometry": {"type": "Point", "coordinates": [121.412529, 25.144063]}}, {"type": "Feature", "properties": {"name": "新北市慈育庇護工場", "type": "庇護工場", "category": "sheltered", "category_label": "庇護工場", "district": "五股區", "address": "新北市五股區五權路7巷6號之1，1、2樓", "phone": "02-22992212", "url": "https://www.facebook.com/mystorelovejoy/", "city": "new_taipei"}, "geometry": {"type": "Point", "coordinates": [121.448592, 25.064726]}}, {"type": "Feature", "properties": {"name": "新北市永和自然食堂", "type": "庇護工場", "category": "sheltered", "category_label": "庇護工場", "district": "永和區", "address": "新北市永和區國光路81號", "phone": "02-29227675", "url": "https://www.facebook.com/ycycuh/", "city": "new_taipei"}, "geometry": {"type": "Point", "coordinates": [121.518372, 25.008596]}}, {"type": "Feature", "properties": {"name": "新北市阿波羅身心障礙者庇護工場", "type": "庇護工場", "category": "sheltered", "category_label": "庇護工場", "district": "汐止區", "address": "新北市汐止區福德二路77-2號", "phone": "02-26958058", "url": "https://www.facebook.com/AproWorkShop/", "city": "new_taipei"}, "geometry": {"type": "Point", "coordinates": [121.62895, 25.064817]}}, {"type": "Feature", "properties": {"name": "新北市史凱碧便利商店", "type": "庇護工場", "category": "sheltered", "category_label": "庇護工場", "district": "汐止區", "address": "新北市汐止區仁愛路149號", "phone": "02-26479466", "url": "", "city": "new_taipei"}, "geometry": {"type": "Point", "coordinates": [121.663618, 25.064698]}}, {"type": "Feature", "properties": {"name": "新北市慈佑洗衣門市", "type": "庇護工場", "category": "sheltered", "category_label": "庇護工場", "district": "板橋區", "address": "新北市板橋區中山路1段161號B1東側（市府大樓）", "phone": "02-29624866", "url": "", "city": "new_taipei"}, "geometry": {"type": "Point", "coordinates": [121.509054, 25.008365]}}, {"type": "Feature", "properties": {"name": "新北市慈泰庇護工場", "type": "庇護工場", "category": "sheltered", "category_label": "庇護工場", "district": "五股區", "address": "新北市五股區五權路7巷8號1、2樓", "phone": "02-22900959", "url": "", "city": "new_taipei"}, "geometry": {"type": "Point", "coordinates": [121.448592, 25.064726]}}, {"type": "Feature", "properties": {"name": "新北市吉翔庇護工場", "type": "庇護工場", "category": "sheltered", "category_label": "庇護工場", "district": "泰山區", "address": "新北市泰山區明志路2段237巷18號1樓", "phone": "02-22961991", "url": "http://www.gshine.url.tw/", "city": "new_taipei"}, "geometry": {"type": "Point", "coordinates": [121.424576, 25.043565]}}, {"type": "Feature", "properties": {"name": "馬偕紀念醫院附設沐陽工作坊", "type": "庇護工場", "category": "sheltered", "category_label": "庇護工場", "district": "淡水區", "address": "新北市淡水區02-28094661#3002", "phone": "02-28094661#3002", "url": "https://www.facebook.com/%E9%A6%AC%E5%81%95%E7%B4%80%E5%BF%B5%E9%86%AB%E9%99%A2%E9%99%84%E8%A8%AD%E6%B2%90%E9%99%BD%E5%B7%A5%E4%BD%9C%E5%9D%8AComfort-Food-1186710578082386/", "city": "new_taipei"}, "geometry": {"type": "Point", "coordinates": [121.44501, 25.172283]}}, {"type": "Feature", "properties": {"name": "新北市立聯合醫院板橋院區按摩小棧", "type": "按摩小棧", "category": "rights", "category_label": "勞工權益保障", "district": "板橋區", "address": "新北市板橋區英士路198號2樓", "phone": "02-25531365", "url": "http://www.cpmb.org.tw", "city": "new_taipei"}, "geometry": {"type": "Point", "coordinates": [121.457709, 25.023684]}}, {"type": "Feature", "properties": {"name": "市府大樓放輕鬆按摩坊", "type": "按摩小棧", "category": "rights", "category_label": "勞工權益保障", "district": "板橋區", "address": "新北市板橋區中山路一段161號B1", "phone": "02-29603456轉2921", "url": "", "city": "new_taipei"}, "geometry": {"type": "Point", "coordinates": [121.465639, 25.012118]}}, {"type": "Feature", "properties": {"name": "板橋區公所視障按摩小棧", "type": "按摩小棧", "category": "rights", "category_label": "勞工權益保障", "district": "板橋區", "address": "新北市板橋區府中路30號", "phone": "", "url": "", "city": "new_taipei"}, "geometry": {"type": "Point", "coordinates": [121.459118, 25.00964]}}, {"type": "Feature", "properties": {"name": "板橋大遠百視障按摩小棧", "type": "按摩小棧", "category": "rights", "category_label": "勞工權益保障", "district": "板橋區", "address": "新北市板橋區新站路28號B1", "phone": "02-23957575", "url": "", "city": "new_taipei"}, "geometry": {"type": "Point", "coordinates": [121.466627, 25.013622]}}, {"type": "Feature", "properties": {"name": "汐止國泰醫院按摩小棧", "type": "按摩小棧", "category": "rights", "category_label": "勞工權益保障", "district": "汐止區", "address": "新北市汐止區建成路59巷2號B1", "phone": "0928-616-234", "url": "", "city": "new_taipei"}, "geometry": {"type": "Point", "coordinates": [121.661084, 25.072872]}}, {"type": "Feature", "properties": {"name": "中華電信新北營運處視障按摩小棧", "type": "按摩小棧", "category": "rights", "category_label": "勞工權益保障", "district": "永和區", "address": "新北市永和區國光路8號", "phone": "", "url": "", "city": "new_taipei"}, "geometry": {"type": "Point", "coordinates": [121.519382, 25.008568]}}, {"type": "Feature", "properties": {"name": "雙和醫院按摩小棧", "type": "按摩小棧", "category": "rights", "category_label": "勞工權益保障", "district": "中和區", "address": "新北市中和區中正路291號2樓", "phone": "0912-788-563", "url": "", "city": "new_taipei"}, "geometry": {"type": "Point", "coordinates": [121.49404, 24.993751]}}, {"type": "Feature", "properties": {"name": "三重國民運動中心視障按摩小棧", "type": "按摩小棧", "category": "rights", "category_label": "勞工權益保障", "district": "三重區", "address": "新北市三重區集美街55號", "phone": "", "url": "", "city": "new_taipei"}, "geometry": {"type": "Point", "coordinates": [121.488156, 25.054643]}}, {"type": "Feature", "properties": {"name": "行政院衛生署樂生療養院按摩小棧", "type": "按摩小棧", "category": "rights", "category_label": "勞工權益保障", "district": "新莊區", "address": "新北市新莊區中正路794號", "phone": "", "url": "", "city": "new_taipei"}, "geometry": {"type": "Point", "coordinates": [121.409851, 25.021622]}}, {"type": "Feature", "properties": {"name": "行政院衛生署台北醫院按摩小棧", "type": "按摩小棧", "category": "rights", "category_label": "勞工權益保障", "district": "新莊區", "address": "新北市新莊區思源路127號2樓", "phone": "", "url": "http://www.blind-tpc.org.tw/", "city": "new_taipei"}, "geometry": {"type": "Point", "coordinates": [121.45809, 25.043232]}}, {"type": "Feature", "properties": {"name": "新莊體育場視障按摩小棧", "type": "按摩小棧", "category": "rights", "category_label": "勞工權益保障", "district": "新莊區", "address": "新北市新莊區和興街66號(景觀樓入口左側)", "phone": "02-29441793", "url": "http://www.blind-tpc.org.tw/", "city": "new_taipei"}, "geometry": {"type": "Point", "coordinates": [121.447407, 25.040267]}}, {"type": "Feature", "properties": {"name": "新莊區公所視障按摩小棧", "type": "按摩小棧", "category": "rights", "category_label": "勞工權益保障", "district": "新莊區", "address": "新北市新莊區中正路176號", "phone": "", "url": "", "city": "new_taipei"}, "geometry": {"type": "Point", "coordinates": [121.450558, 25.035834]}}, {"type": "Feature", "properties": {"name": "台灣盲人重建院－舒壓小棧", "type": "按摩小棧", "category": "rights", "category_label": "勞工權益保障", "district": "新莊區", "address": "新北市新莊區中正路384號", "phone": "02-2998-5588 轉 502", "url": "http://www.ibt.org.tw", "city": "new_taipei"}, "geometry": {"type": "Point", "coordinates": [121.442676, 25.03521]}}, {"type": "Feature", "properties": {"name": "竹圍馬偕醫院按摩小棧", "type": "按摩小棧", "category": "rights", "category_label": "勞工權益保障", "district": "淡水區", "address": "新北市淡水區竹圍民生路45號【馬偕樓3樓】", "phone": "0912-788-522", "url": "", "city": "new_taipei"}, "geometry": {"type": "Point", "coordinates": [121.463589, 25.137679]}}, {"type": "Feature", "properties": {"name": "中和地政事務所視障按摩小棧", "type": "按摩小棧", "category": "rights", "category_label": "勞工權益保障", "district": "中和區", "address": "新北市中和區復興路280號1樓（中和地政事務所）", "phone": "", "url": "", "city": "new_taipei"}, "geometry": {"type": "Point", "coordinates": [121.502403, 24.990505]}}, {"type": "Feature", "properties": {"name": "財團法人中華航業人員訓練中心", "type": "私立職訓機構", "category": "training", "category_label": "職業訓練", "district": "萬里區", "address": "新北市萬里區瑪鋉路15號", "phone": "02-24922118轉18", "url": "", "city": "new_taipei"}, "geometry": {"type": "Point", "coordinates": [121.690286, 25.177404]}}, {"type": "Feature", "properties": {"name": "中華電信股份有限公司附設板橋職業訓練中心", "type": "私立職訓機構", "category": "training", "category_label": "職業訓練", "district": "板橋區", "address": "新北市板橋區民族路168號", "phone": "02-29639432", "url": "", "city": "new_taipei"}, "geometry": {"type": "Point", "coordinates": [121.467359, 25.007791]}}, {"type": "Feature", "properties": {"name": "新北市工業會附設職業訓練中心", "type": "私立職訓機構", "category": "training", "category_label": "職業訓練", "district": "板橋區", "address": "新北市板橋區重慶路66號4樓", "phone": "02-29559077", "url": "http://www.ntcia.org.tw/", "city": "new_taipei"}, "geometry": {"type": "Point", "coordinates": [121.531583, 25.039811]}}, {"type": "Feature", "properties": {"name": "財團法人新北市私立莊敬高級工業家事職業學校附設職業訓練中心", "type": "私立職訓機構", "category": "training", "category_label": "職業訓練", "district": "新店區", "address": "新北市新店區中正路521巷3號", "phone": "02-22188956轉137", "url": "http://www.jjvs.ntpc.edu.tw/", "city": "new_taipei"}, "geometry": {"type": "Point", "coordinates": [121.533258, 24.984973]}}, {"type": "Feature", "properties": {"name": "社團法人中華慈心健康安全醫事暨輻射防護發展協會附設中和職業訓練中心", "type": "私立職訓機構", "category": "training", "category_label": "職業訓練", "district": "中和區", "address": "新北市中和區中正路868號11樓", "phone": "02-32344482", "url": "http://www.chef.org.tw/", "city": "new_taipei"}, "geometry": {"type": "Point", "coordinates": [121.484868, 25.005383]}}, {"type": "Feature", "properties": {"name": "台灣省工商安全衛生協會附設台北職訓中心", "type": "私立職訓機構", "category": "training", "category_label": "職業訓練", "district": "三重區", "address": "新北市三重區重安街132號4樓之1", "phone": "02-29782276", "url": "", "city": "new_taipei"}, "geometry": {"type": "Point", "coordinates": [121.495087, 25.055187]}}, {"type": "Feature", "properties": {"name": "社團法人中華美容技藝促進協會附設職業訓練中心", "type": "私立職訓機構", "category": "training", "category_label": "職業訓練", "district": "三重區", "address": "新北市三重區重新路4段206號2-2樓", "phone": "02-29775106", "url": "http://www.ccppa.org.tw/", "city": "new_taipei"}, "geometry": {"type": "Point", "coordinates": [121.495428, 25.061439]}}, {"type": "Feature", "properties": {"name": "社團法人中華民國勞動災害防止協會附設台北職業訓練中心", "type": "私立職訓機構", "category": "training", "category_label": "職業訓練", "district": "三重區", "address": "新北市三重區重新路四段98號4~7樓", "phone": "02-29749588轉28", "url": "http://www.wdpa.org.tw/", "city": "new_taipei"}, "geometry": {"type": "Point", "coordinates": [121.487847, 25.057138]}}, {"type": "Feature", "properties": {"name": "和泰汽車股份有限公司附設職業訓練中心", "type": "私立職訓機構", "category": "training", "category_label": "職業訓練", "district": "新莊區", "address": "新北市新莊區明中街10號", "phone": "02-29921131", "url": "http://www.hotaimotor.com.tw/", "city": "new_taipei"}, "geometry": {"type": "Point", "coordinates": [121.458741, 25.038551]}}, {"type": "Feature", "properties": {"name": "社團法人中華勞工防災協會附設職業訓練中心", "type": "私立職訓機構", "category": "training", "category_label": "職業訓練", "district": "新莊區", "address": "新北市新莊區中正路213之2號3樓、4樓", "phone": "02-89915522", "url": "", "city": "new_taipei"}, "geometry": {"type": "Point", "coordinates": [121.451279, 25.035767]}}, {"type": "Feature", "properties": {"name": "台灣檢驗科技股份有限公司附設職業訓練中心", "type": "私立職訓機構", "category": "training", "category_label": "職業訓練", "district": "五股區", "address": "新北市五股區五工路136-1號", "phone": "02-22993939轉1245", "url": "", "city": "new_taipei"}, "geometry": {"type": "Point", "coordinates": [121.454717, 25.06596]}}, {"type": "Feature", "properties": {"name": "中華民國職業安全衛生協會附設臺北職業訓練中心", "type": "私立職訓機構", "category": "training", "category_label": "職業訓練", "district": "三重區", "address": "新北市三重區重陽路1段89號3樓之5", "phone": "02-89858705", "url": "", "city": "new_taipei"}, "geometry": {"type": "Point", "coordinates": [121.490707, 25.065423]}}, {"type": "Feature", "properties": {"name": "社團法人新北市婦女二度就業發展協會附設北區職業訓練中心", "type": "私立職訓機構", "category": "training", "category_label": "職業訓練", "district": "蘆洲區", "address": "新北市蘆洲區民族路39號2樓", "phone": "02-22810642", "url": "", "city": "new_taipei"}, "geometry": {"type": "Point", "coordinates": [121.470498, 25.008365]}}, {"type": "Feature", "properties": {"name": "社團法人中華民國工業安全衛生協會附設新北職業訓練中心", "type": "私立職訓機構", "category": "training", "category_label": "職業訓練", "district": "三重區", "address": "新北市三重區重新路4段87號4樓", "phone": "02-29702526", "url": "", "city": "new_taipei"}, "geometry": {"type": "Point", "coordinates": [121.495428, 25.061439]}}, {"type": "Feature", "properties": {"name": "明志科技大學附設職業訓練中心", "type": "私立職訓機構", "category": "training", "category_label": "職業訓練", "district": "泰山區", "address": "新北市泰山區工專路84號", "phone": "02-29020296", "url": "", "city": "new_taipei"}, "geometry": {"type": "Point", "coordinates": [121.422097, 25.043089]}}, {"type": "Feature", "properties": {"name": "震旦行股份有限公司附設教育訓練中心", "type": "私立職訓機構", "category": "training", "category_label": "職業訓練", "district": "五股區", "address": "新北市五股區五權五路26號", "phone": "02-23458088", "url": "", "city": "new_taipei"}, "geometry": {"type": "Point", "coordinates": [121.452854, 25.065866]}}, {"type": "Feature", "properties": {"name": "聲寶股份有限公司附設職業訓練中心", "type": "私立職訓機構", "category": "training", "category_label": "職業訓練", "district": "淡水區", "address": "新北市淡水區小坪頂43之10號", "phone": "02-86262402", "url": "http://Stc.sampo.com.tw", "city": "new_taipei"}, "geometry": {"type": "Point", "coordinates": [121.489372, 25.159954]}}, {"type": "Feature", "properties": {"name": "社團法人中華勞動學會附設泰山職業訓練中心", "type": "私立職訓機構", "category": "training", "category_label": "職業訓練", "district": "泰山區", "address": "新北市泰山區明志路三段142巷8號5樓之1", "phone": "02-89781568", "url": "http://gase.ttqs.tw", "city": "new_taipei"}, "geometry": {"type": "Point", "coordinates": [121.424519, 25.040018]}}, {"type": "Feature", "properties": {"name": "新北市勞工活動中心", "type": "勞工活動中心", "category": "rights", "category_label": "勞工權益保障", "district": "五股區", "address": "新北市五股區五工六路9號", "phone": "02-22983639", "url": "https://ilabor.ntpc.gov.tw/cloud/FacilityRental", "city": "new_taipei"}, "geometry": {"type": "Point", "coordinates": [121.450643, 25.061521]}}, {"type": "Feature", "properties": {"name": "三重勞工中心", "type": "勞工活動中心", "category": "rights", "category_label": "勞工權益保障", "district": "三重區", "address": "新北市三重區新北大道一段9號7樓", "phone": "02-29816127", "url": "https://ilabor.ntpc.gov.tw/cloud/FacilityRental", "city": "new_taipei"}, "geometry": {"type": "Point", "coordinates": [121.489206, 25.061139]}}, {"type": "Feature", "properties": {"name": "新北市立新北高級工業職業學校", "type": "勞工大學校區", "category": "training", "category_label": "職業訓練", "district": "土城區", "address": "新北市土城區學府路一段241號", "phone": "02-22612483轉48", "url": "http://www.ntvs.ntpc.edu.tw/", "city": "new_taipei"}, "geometry": {"type": "Point", "coordinates": [121.45038, 24.983308]}}, {"type": "Feature", "properties": {"name": "板橋社區大學(瑞芳校區)", "type": "勞工大學校區", "category": "training", "category_label": "職業訓練", "district": "板橋區", "address": "新北市板橋區成都街30號", "phone": "02-29516166轉17", "url": "http://pccu.org.tw/", "city": "new_taipei"}, "geometry": {"type": "Point", "coordinates": [121.461645, 25.004841]}}, {"type": "Feature", "properties": {"name": "板橋致理科技大學", "type": "勞工大學校區", "category": "training", "category_label": "職業訓練", "district": "板橋區", "address": "新北市板橋區文化路一段313號", "phone": "02-22576167轉1218", "url": "http://portal.chihlee.edu.tw/bin/home.php", "city": "new_taipei"}, "geometry": {"type": "Point", "coordinates": [121.465212, 25.020931]}}, {"type": "Feature", "properties": {"name": "中和華夏科技大學", "type": "勞工大學校區", "category": "training", "category_label": "職業訓練", "district": "中和區", "address": "新北市中和區工專路111號", "phone": "02-89415100轉6111", "url": "http://www.hwh.edu.tw/bin/home.php", "city": "new_taipei"}, "geometry": {"type": "Point", "coordinates": [121.507733, 24.980586]}}, {"type": "Feature", "properties": {"name": "永和社區大學", "type": "勞工大學校區", "category": "training", "category_label": "職業訓練", "district": "永和區", "address": "新北市永和區永利路71號", "phone": "02-29236464", "url": "https://community-univ.org/", "city": "new_taipei"}, "geometry": {"type": "Point", "coordinates": [121.520856, 25.003998]}}, {"type": "Feature", "properties": {"name": "新北市政府就業服務處三重就業服務站", "type": "就業服務站台", "category": "employment", "category_label": "就業服務", "district": "三重區", "address": "新北市三重區重新路4段12號", "phone": "02-29767157", "url": "", "city": "new_taipei"}, "geometry": {"type": "Point", "coordinates": [121.495428, 25.061439]}}, {"type": "Feature", "properties": {"name": "新北市政府就業服務處板橋就業服務站", "type": "就業服務站台", "category": "employment", "category_label": "就業服務", "district": "板橋區", "address": "新北市板橋區漢生東路163號", "phone": "02-29598856", "url": "", "city": "new_taipei"}, "geometry": {"type": "Point", "coordinates": [121.469388, 25.012402]}}, {"type": "Feature", "properties": {"name": "新北市政府就業服務處新店就業服務站", "type": "就業服務站台", "category": "employment", "category_label": "就業服務", "district": "新店區", "address": "新北市新店區中興路2段190號", "phone": "02-89111750", "url": "", "city": "new_taipei"}, "geometry": {"type": "Point", "coordinates": [121.543166, 24.96545]}}, {"type": "Feature", "properties": {"name": "新北市政府就業服務處土城就業服務台", "type": "就業服務站台", "category": "employment", "category_label": "就業服務", "district": "土城區", "address": "新北市土城區金城路一段101號", "phone": "02-82623500", "url": "", "city": "new_taipei"}, "geometry": {"type": "Point", "coordinates": [121.442873, 24.972533]}}, {"type": "Feature", "properties": {"name": "新北市政府就業服務處五股就業服務台", "type": "就業服務站台", "category": "employment", "category_label": "就業服務", "district": "五股區", "address": "新北市五股區五工六路9號", "phone": "02-22988527", "url": "", "city": "new_taipei"}, "geometry": {"type": "Point", "coordinates": [121.450643, 25.061521]}}, {"type": "Feature", "properties": {"name": "新北市政府就業服務處新莊就業服務站", "type": "就業服務站台", "category": "employment", "category_label": "就業服務", "district": "新莊區", "address": "新北市新莊區中正路425號", "phone": "02-22066196", "url": "", "city": "new_taipei"}, "geometry": {"type": "Point", "coordinates": [121.444169, 25.034236]}}, {"type": "Feature", "properties": {"name": "新北市政府就業服務處樹林就業服務台", "type": "就業服務站台", "category": "employment", "category_label": "就業服務", "district": "樹林區", "address": "新北市樹林區保安街一段7號4樓", "phone": "02-26819453", "url": "", "city": "new_taipei"}, "geometry": {"type": "Point", "coordinates": [121.426485, 24.993503]}}, {"type": "Feature", "properties": {"name": "新北市政府就業服務處蘆洲就業服務台", "type": "就業服務站台", "category": "employment", "category_label": "就業服務", "district": "蘆洲區", "address": "新北市蘆洲區三民路95號", "phone": "02-82858397", "url": "", "city": "new_taipei"}, "geometry": {"type": "Point", "coordinates": [121.48205, 25.01811]}}, {"type": "Feature", "properties": {"name": "新北市政府就業服務處三峽就業服務台", "type": "就業服務站台", "category": "employment", "category_label": "就業服務", "district": "三峽區", "address": "新北市三峽區中山路17號", "phone": "02-26711017轉294", "url": "", "city": "new_taipei"}, "geometry": {"type": "Point", "coordinates": [121.489231, 25.006658]}}, {"type": "Feature", "properties": {"name": "新北市政府就業服務處林口就業服務台", "type": "就業服務站台", "category": "employment", "category_label": "就業服務", "district": "林口區", "address": "新北市林口區仁愛路一段378號", "phone": "02-26033111轉111", "url": "", "city": "new_taipei"}, "geometry": {"type": "Point", "coordinates": [121.388524, 25.076741]}}, {"type": "Feature", "properties": {"name": "新北市政府就業服務處汐止就業服務站", "type": "就業服務站台", "category": "employment", "category_label": "就業服務", "district": "汐止區", "address": "新北市汐止區新台五路一段268號", "phone": "02-86923963", "url": "", "city": "new_taipei"}, "geometry": {"type": "Point", "coordinates": [121.658984, 25.063841]}}, {"type": "Feature", "properties": {"name": "新北市政府就業服務處永和就業服務台", "type": "就業服務站台", "category": "employment", "category_label": "就業服務", "district": "永和區", "address": "新北市永和區竹林路202號", "phone": "02-29237590", "url": "", "city": "new_taipei"}, "geometry": {"type": "Point", "coordinates": [121.520576, 25.008735]}}, {"type": "Feature", "properties": {"name": "新北市政府就業服務處淡水就業服務台", "type": "就業服務站台", "category": "employment", "category_label": "就業服務", "district": "淡水區", "address": "新北市淡水區中正東路2段73號", "phone": "02-28083525", "url": "", "city": "new_taipei"}, "geometry": {"type": "Point", "coordinates": [121.460836, 25.145603]}}, {"type": "Feature", "properties": {"name": "新北市政府就業服務處新莊公所就業服務台", "type": "就業服務站台", "category": "employment", "category_label": "就業服務", "district": "新莊區", "address": "新北市新莊區中正路176號", "phone": "02-29916380", "url": "", "city": "new_taipei"}, "geometry": {"type": "Point", "coordinates": [121.450558, 25.035834]}}, {"type": "Feature", "properties": {"name": "新北市政府就業服務處泰山就業服務台", "type": "就業服務站台", "category": "employment", "category_label": "就業服務", "district": "泰山區", "address": "新北市泰山區明志路一段322號", "phone": "02-2909-9551轉1150", "url": "", "city": "new_taipei"}, "geometry": {"type": "Point", "coordinates": [121.431419, 25.059241]}}, {"type": "Feature", "properties": {"name": "新北市政府就業服務處八里就業服務台", "type": "就業服務站台", "category": "employment", "category_label": "就業服務", "district": "八里區", "address": "新北市八里區中山路二段356巷16號", "phone": "02-2610-2621轉137", "url": "", "city": "new_taipei"}, "geometry": {"type": "Point", "coordinates": [121.401449, 25.149378]}}, {"type": "Feature", "properties": {"name": "新北市政府就業服務處烏來就業服務台", "type": "就業服務站台", "category": "employment", "category_label": "就業服務", "district": "烏來區", "address": "新北市烏來區新烏路5段111號", "phone": "02-26617418", "url": "", "city": "new_taipei"}, "geometry": {"type": "Point", "coordinates": [121.547314, 24.871778]}}, {"type": "Feature", "properties": {"name": "新北市政府就業服務處深坑就業服務台", "type": "就業服務站台", "category": "employment", "category_label": "就業服務", "district": "深坑區", "address": "新北市深坑區深坑街10號", "phone": "02-26643688", "url": "", "city": "new_taipei"}, "geometry": {"type": "Point", "coordinates": [121.615966, 25.002523]}}, {"type": "Feature", "properties": {"name": "新北市政府就業服務處石碇就業服務台", "type": "就業服務站台", "category": "employment", "category_label": "就業服務", "district": "石碇區", "address": "新北市石碇區碇坪路1段37號", "phone": "02-26633204", "url": "", "city": "new_taipei"}, "geometry": {"type": "Point", "coordinates": [121.678928, 24.975403]}}, {"type": "Feature", "properties": {"name": "新北市政府就業服務處坪林就業服務台", "type": "就業服務站台", "category": "employment", "category_label": "就業服務", "district": "坪林區", "address": "新北市坪林區坪林街101號", "phone": "02-26657823", "url": "", "city": "new_taipei"}, "geometry": {"type": "Point", "coordinates": [121.711784, 24.93614]}}, {"type": "Feature", "properties": {"name": "新北市政府就業服務處鶯歌就業服務台", "type": "就業服務站台", "category": "employment", "category_label": "就業服務", "district": "鶯歌區", "address": "新北市鶯歌區仁愛路55號", "phone": "02-26780202轉111", "url": "", "city": "new_taipei"}, "geometry": {"type": "Point", "coordinates": [121.459398, 24.998901]}}, {"type": "Feature", "properties": {"name": "新北市政府就業服務處萬里就業服務台", "type": "就業服務站台", "category": "employment", "category_label": "就業服務", "district": "萬里區", "address": "新北市萬里區瑪鋉路123號", "phone": "02-24921583", "url": "", "city": "new_taipei"}, "geometry": {"type": "Point", "coordinates": [121.689187, 25.178248]}}, {"type": "Feature", "properties": {"name": "新北市政府就業服務處瑞芳就業服務台", "type": "就業服務站台", "category": "employment", "category_label": "就業服務", "district": "瑞芳區", "address": "新北市瑞芳區逢甲路82號", "phone": "02-24970933", "url": "", "city": "new_taipei"}, "geometry": {"type": "Point", "coordinates": [121.809859, 25.10889]}}, {"type": "Feature", "properties": {"name": "維芯科技有限公司", "type": "私立就服機構", "category": "employment", "category_label": "就業服務", "district": "新店區", "address": "新北市新店區北新路一段12號15樓", "phone": "02-29115150", "url": "", "city": "new_taipei"}, "geometry": {"type": "Point", "coordinates": [121.540905, 24.965505]}}, {"type": "Feature", "properties": {"name": "合康人資網路有限公司", "type": "私立就服機構", "category": "employment", "category_label": "就業服務", "district": "中和區", "address": "新北市中和區中山路三段35號17樓之3", "phone": "02-77302211", "url": "http://www.457.com.tw", "city": "new_taipei"}, "geometry": {"type": "Point", "coordinates": [121.401393, 24.975441]}}, {"type": "Feature", "properties": {"name": "力梭資訊股份有限公司", "type": "私立就服機構", "category": "employment", "category_label": "就業服務", "district": "板橋區", "address": "新北市板橋區文化路一段268號3樓", "phone": "02-22539011", "url": "www.myjob.com.tw", "city": "new_taipei"}, "geometry": {"type": "Point", "coordinates": [121.467135, 25.020903]}}, {"type": "Feature", "properties": {"name": "遠誠人力資源顧問股份有限公司", "type": "私立就服機構", "category": "employment", "category_label": "就業服務", "district": "中和區", "address": "新北市中和區板南路655號18樓", "phone": "02-22220539", "url": "", "city": "new_taipei"}, "geometry": {"type": "Point", "coordinates": [121.484192, 25.00796]}}, {"type": "Feature", "properties": {"name": "台大菁英文化事業有限公司", "type": "私立就服機構", "category": "employment", "category_label": "就業服務", "district": "汐止區", "address": "新北市汐止區仁愛路201巷2號13樓", "phone": "0912486486", "url": "http://teaching.com.tw/", "city": "new_taipei"}, "geometry": {"type": "Point", "coordinates": [121.664658, 25.066113]}}, {"type": "Feature", "properties": {"name": "一生一六八人力資源管理顧問有限公司", "type": "私立就服機構", "category": "employment", "category_label": "就業服務", "district": "新莊區", "address": "新北市新莊區中平路304號1樓", "phone": "02-29981880", "url": "", "city": "new_taipei"}, "geometry": {"type": "Point", "coordinates": [121.444817, 25.051866]}}, {"type": "Feature", "properties": {"name": "陞立暘企業有限公司", "type": "私立就服機構", "category": "employment", "category_label": "就業服務", "district": "板橋區", "address": "新北市板橋區龍興街9號4樓", "phone": "02-89681038", "url": "", "city": "new_taipei"}, "geometry": {"type": "Point", "coordinates": [121.551398, 25.019759]}}, {"type": "Feature", "properties": {"name": "東南實業社", "type": "私立就服機構", "category": "employment", "category_label": "就業服務", "district": "新店區", "address": "新北市新店區二十張路129巷7弄8號4樓之1", "phone": "02-29133319", "url": "http://www.dung-nan.com.tw/about-us.html-nan.com.tw/about-us.html", "city": "new_taipei"}, "geometry": {"type": "Point", "coordinates": [121.536958, 24.978697]}}, {"type": "Feature", "properties": {"name": "中英醫療社團法仁中英醫院", "type": "勞工健檢醫院", "category": "rights", "category_label": "勞工權益保障", "district": "板橋區", "address": "新北市板橋區文化路1段196號1-4樓", "phone": "02-22563584", "url": "http://www.choninn.com.tw/", "city": "new_taipei"}, "geometry": {"type": "Point", "coordinates": [121.542668, 24.979883]}}, {"type": "Feature", "properties": {"name": "醫療財團法人徐元智先生醫藥基金會亞東紀念醫院", "type": "勞工健檢醫院", "category": "rights", "category_label": "勞工權益保障", "district": "板橋區", "address": "新北市板橋區南雅南路2段21號", "phone": "02-77284125", "url": "http://depart.femh.org.tw/HMC/", "city": "new_taipei"}, "geometry": {"type": "Point", "coordinates": [121.455878, 25.005513]}}, {"type": "Feature", "properties": {"name": "板新醫院", "type": "勞工健檢醫院", "category": "rights", "category_label": "勞工權益保障", "district": "板橋區", "address": "新北市板橋區中正路189號", "phone": "02-29609955轉799", "url": "http://www.panshin.com.tw/panshin/", "city": "new_taipei"}, "geometry": {"type": "Point", "coordinates": [121.516914, 24.999309]}}, {"type": "Feature", "properties": {"name": "板橋國泰醫院", "type": "勞工健檢醫院", "category": "rights", "category_label": "勞工權益保障", "district": "板橋區", "address": "新北市板橋區忠孝路5號", "phone": "02-29583333", "url": "http://www.pcch.org.tw", "city": "new_taipei"}, "geometry": {"type": "Point", "coordinates": [121.466756, 25.004156]}}, {"type": "Feature", "properties": {"name": "蕭中正醫院", "type": "勞工健檢醫院", "category": "rights", "category_label": "勞工權益保障", "district": "板橋區", "address": "新北市板橋區南雅南路1段15之1號", "phone": "02-29685661", "url": "http://www.hsiaohospital.org", "city": "new_taipei"}, "geometry": {"type": "Point", "coordinates": [121.456764, 25.00704]}}, {"type": "Feature", "properties": {"name": "國泰醫療財團法人汐止國泰綜合醫院", "type": "勞工健檢醫院", "category": "rights", "category_label": "勞工權益保障", "district": "汐止區", "address": "新北市汐止區建成路59巷2號", "phone": "02-26482121轉3518", "url": "http://sijhih.cgh.org.tw/tw/content/depart/health/index.html", "city": "new_taipei"}, "geometry": {"type": "Point", "coordinates": [121.661084, 25.072872]}}, {"type": "Feature", "properties": {"name": "同仁醫院", "type": "勞工健檢醫院", "category": "rights", "category_label": "勞工權益保障", "district": "新店區", "address": "新北市新店區民權路89號", "phone": "02-29170201轉181", "url": "http://tjh.org.tw", "city": "new_taipei"}, "geometry": {"type": "Point", "coordinates": [121.537745, 24.982767]}}, {"type": "Feature", "properties": {"name": "財團法人天主教耕莘醫院", "type": "勞工健檢醫院", "category": "rights", "category_label": "勞工權益保障", "district": "新店區", "address": "新北市新店區中正路362號", "phone": "02-22193391轉66127", "url": "http://www.cth.org.tw", "city": "new_taipei"}, "geometry": {"type": "Point", "coordinates": [121.535551, 24.97612]}}, {"type": "Feature", "properties": {"name": "財團法人天主教耕莘醫院永和分院", "type": "勞工健檢醫院", "category": "rights", "category_label": "勞工權益保障", "district": "永和區", "address": "新北市永和區中興街80號", "phone": "02-29286060", "url": "http://www.cthyh.org.tw/", "city": "new_taipei"}, "geometry": {"type": "Point", "coordinates": [121.51787, 25.011874]}}, {"type": "Feature", "properties": {"name": "永和復康醫院", "type": "勞工健檢醫院", "category": "rights", "category_label": "勞工權益保障", "district": "永和區", "address": "新北市永和區中和路575號", "phone": "02-29240925轉702", "url": "http://www.fuconhosp.com.tw/", "city": "new_taipei"}, "geometry": {"type": "Point", "coordinates": [121.511944, 25.003844]}}, {"type": "Feature", "properties": {"name": "行政院衛生署雙和醫院(委託臺北醫學大學興建經營)", "type": "勞工健檢醫院", "category": "rights", "category_label": "勞工權益保障", "district": "中和區", "address": "新北市中和區中正路291號", "phone": "02-22490088", "url": "http://www.shh.org.tw", "city": "new_taipei"}, "geometry": {"type": "Point", "coordinates": [121.49404, 24.993751]}}, {"type": "Feature", "properties": {"name": "孫國勝外科診所", "type": "勞工健檢醫院", "category": "rights", "category_label": "勞工權益保障", "district": "中和區", "address": "新北市中和區景平路726-4號", "phone": "02-22430123轉11", "url": "", "city": "new_taipei"}, "geometry": {"type": "Point", "coordinates": [121.51115, 24.992871]}}, {"type": "Feature", "properties": {"name": "劍橋診所", "type": "勞工健檢醫院", "category": "rights", "category_label": "勞工權益保障", "district": "中和區", "address": "新北市中和區中正路910號", "phone": "02-82277299", "url": "", "city": "new_taipei"}, "geometry": {"type": "Point", "coordinates": [121.483653, 25.007272]}}, {"type": "Feature", "properties": {"name": "中祥醫院", "type": "勞工健檢醫院", "category": "rights", "category_label": "勞工權益保障", "district": "中和區", "address": "新北市中和區中山路二段138號2-4樓", "phone": "02-22405055轉233", "url": "", "city": "new_taipei"}, "geometry": {"type": "Point", "coordinates": [121.502063, 25.003249]}}, {"type": "Feature", "properties": {"name": "仁安醫院", "type": "勞工健檢醫院", "category": "rights", "category_label": "勞工權益保障", "district": "土城區", "address": "新北市土城區中央路一段62號", "phone": "02-22627088轉102", "url": "http://WWW.RCW.TW", "city": "new_taipei"}, "geometry": {"type": "Point", "coordinates": [121.447425, 24.989562]}}, {"type": "Feature", "properties": {"name": "廣川醫院", "type": "勞工健檢醫院", "category": "rights", "category_label": "勞工權益保障", "district": "土城區", "address": "新北市土城區裕民路276號", "phone": "02-22617000", "url": "http://www.broadriverhospital.com/broadriver/index.php", "city": "new_taipei"}, "geometry": {"type": "Point", "coordinates": [121.455089, 24.982261]}}, {"type": "Feature", "properties": {"name": "元復醫院", "type": "勞工健檢醫院", "category": "rights", "category_label": "勞工權益保障", "district": "土城區", "address": "新北市土城區中央路2段318-324號", "phone": "02-22620909", "url": "http://www.youngforehospital.com", "city": "new_taipei"}, "geometry": {"type": "Point", "coordinates": [121.445642, 24.985418]}}, {"type": "Feature", "properties": {"name": "仁愛醫院", "type": "勞工健檢醫院", "category": "rights", "category_label": "勞工權益保障", "district": "樹林區", "address": "新北市樹林區文化街9號", "phone": "02-26834567", "url": "http://www.rah.com.tw/", "city": "new_taipei"}, "geometry": {"type": "Point", "coordinates": [121.420039, 24.987188]}}, {"type": "Feature", "properties": {"name": "新北市聯合醫院(三重院區)", "type": "勞工健檢醫院", "category": "rights", "category_label": "勞工權益保障", "district": "三重區", "address": "新北市三重區中山路2號", "phone": "02-29829111轉3350", "url": "http://www.ntch.ntpc.gov.tw", "city": "new_taipei"}, "geometry": {"type": "Point", "coordinates": [121.50977, 25.01044]}}, {"type": "Feature", "properties": {"name": "祐民醫院", "type": "勞工健檢醫院", "category": "rights", "category_label": "勞工權益保障", "district": "三重區", "address": "新北市三重區重新路二段2號", "phone": "02-29783456", "url": "http://www.symh.com.tw/", "city": "new_taipei"}, "geometry": {"type": "Point", "coordinates": [121.499876, 25.062796]}}, {"type": "Feature", "properties": {"name": "三重中興醫院", "type": "勞工健檢醫院", "category": "rights", "category_label": "勞工權益保障", "district": "三重區", "address": "新北市三重區中興北街21號", "phone": "02-29959680", "url": "http://www.cs-hospital.org.tw", "city": "new_taipei"}, "geometry": {"type": "Point", "coordinates": [121.469661, 25.046535]}}, {"type": "Feature", "properties": {"name": "新泰綜合醫院", "type": "勞工健檢醫院", "category": "rights", "category_label": "勞工權益保障", "district": "新莊區", "address": "新北市新莊區新泰路145-169號", "phone": "02-29962121轉2222", "url": "", "city": "new_taipei"}, "geometry": {"type": "Point", "coordinates": [121.446108, 25.039903]}}, {"type": "Feature", "properties": {"name": "板橋中興醫院", "type": "勞工健檢醫院", "category": "rights", "category_label": "勞工權益保障", "district": "板橋區", "address": "新北市板橋區忠孝路15號", "phone": "02-29531919", "url": "http://www.pcchh.com.tw/index.html", "city": "new_taipei"}, "geometry": {"type": "Point", "coordinates": [121.465076, 25.001295]}}, {"type": "Feature", "properties": {"name": "仁佑診所", "type": "勞工健檢醫院", "category": "rights", "category_label": "勞工權益保障", "district": "新店區", "address": "新北市新店區中正路 396 號", "phone": "02-22190567", "url": "http://www.lohasclinic.com.tw/index.html", "city": "new_taipei"}, "geometry": {"type": "Point", "coordinates": [121.534639, 24.977382]}}, {"type": "Feature", "properties": {"name": "恩樺醫院", "type": "勞工健檢醫院", "category": "rights", "category_label": "勞工權益保障", "district": "土城區", "address": "新北市土城區中央路一段7號", "phone": "02-22639955", "url": "http://www.enhua.com.tw/front/bin/home.phtml", "city": "new_taipei"}, "geometry": {"type": "Point", "coordinates": [121.449473, 24.992172]}}, {"type": "Feature", "properties": {"name": "衛生福利部樂生療養院", "type": "勞工健檢醫院", "category": "rights", "category_label": "勞工權益保障", "district": "新莊區", "address": "新北市新莊區中正路794號", "phone": "02-82006600", "url": "http://www.lslp.mohw.gov.tw/", "city": "new_taipei"}, "geometry": {"type": "Point", "coordinates": [121.409851, 25.021622]}}, {"type": "Feature", "properties": {"name": "行天宮醫療志業醫療財團法人恩主公醫院", "type": "勞工健檢醫院", "category": "rights", "category_label": "勞工權益保障", "district": "三峽區", "address": "新北市三峽區復興復399號", "phone": "02-26723456", "url": "http://www.eck.org.tw/", "city": "new_taipei"}, "geometry": {"type": "Point", "coordinates": [121.363008, 24.938386]}}, {"type": "Feature", "properties": {"name": "新北仁康醫院", "type": "勞工健檢醫院", "category": "rights", "category_label": "勞工權益保障", "district": "新店區", "address": "新北市新店區安康路二段323號", "phone": "02-22152345", "url": "http://www.njkh.com.tw/Default_Hospital.aspx", "city": "new_taipei"}, "geometry": {"type": "Point", "coordinates": [121.499651, 24.955542]}}, {"type": "Feature", "properties": {"name": "衛生福利部臺北醫院", "type": "勞工健檢醫院", "category": "rights", "category_label": "勞工權益保障", "district": "新莊區", "address": "新北市新莊區思源路127號", "phone": "02-22765566轉1215", "url": "http://www.ptph.doh.gov.tw/", "city": "new_taipei"}, "geometry": {"type": "Point", "coordinates": [121.45809, 25.043232]}}, {"type": "Feature", "properties": {"name": "國立台灣大學醫學院附設醫院金山分院", "type": "勞工健檢醫院", "category": "rights", "category_label": "勞工權益保障", "district": "金山區", "address": "新北市金山區南勢51號", "phone": "02-24989898", "url": "http://www.jsh.org.tw/", "city": "new_taipei"}, "geometry": {"type": "Point", "coordinates": [121.627952, 25.219198]}}, {"type": "Feature", "properties": {"name": "新北市政府幸福創業微利貸款計畫", "type": "創業諮詢服務據點", "category": "employment", "category_label": "就業服務", "district": "板橋區", "address": "新北市板橋區縣民大道二段7號5樓東側", "phone": "02-89692107", "url": "http://happy.esc.ntpc.net.tw", "city": "new_taipei"}, "geometry": {"type": "Point", "coordinates": [121.463636, 25.014331]}}, {"type": "Feature", "properties": {"name": "財團法人友好公益基金會", "type": "身心障礙者職業訓練委訓單位服務據點", "category": "training", "category_label": "職業訓練", "district": "新店區", "address": "新北市新店區行政街10巷6號", "phone": "02-29129222", "url": "http://www.goodwill-taipei.org.tw/ap/index.aspx", "city": "new_taipei"}, "geometry": {"type": "Point", "coordinates": [121.542525, 24.966511]}}, {"type": "Feature", "properties": {"name": "財團法人臺灣省私立台灣盲人重建院", "type": "身心障礙者職業訓練委訓單位服務據點", "category": "training", "category_label": "職業訓練", "district": "新莊區", "address": "新北市新莊區中正路384號", "phone": "02-29985588轉300", "url": "http://www.ibt.org.tw/", "city": "new_taipei"}, "geometry": {"type": "Point", "coordinates": [121.442676, 25.03521]}}, {"type": "Feature", "properties": {"name": "衛生福利部八里療養院", "type": "身心障礙者職業訓練委訓單位服務據點", "category": "training", "category_label": "職業訓練", "district": "八里區", "address": "新北市八里區華富山33號", "phone": "02-26101660轉2504", "url": "http://www.bali.mohw.gov.tw/?aid=home", "city": "new_taipei"}, "geometry": {"type": "Point", "coordinates": [121.412529, 25.144063]}}, {"type": "Feature", "properties": {"name": "新北市身心障礙者職業重建服務中心(新店區)", "type": "身心障礙者職業重建服務中心", "category": "training", "category_label": "職業訓練", "district": "新店區", "address": "新北市新店區中興路三段219號3樓", "phone": "02-89145572", "url": "", "city": "new_taipei"}, "geometry": {"type": "Point", "coordinates": [121.543241, 24.982213]}}, {"type": "Feature", "properties": {"name": "新北市身心障礙者職業重建服務中心(三重區)", "type": "身心障礙者職業重建服務中心", "category": "training", "category_label": "職業訓練", "district": "三重區", "address": "新北市三重區重新路3段150號4樓", "phone": "02-29753565", "url": "", "city": "new_taipei"}, "geometry": {"type": "Point", "coordinates": [121.495435, 25.061676]}}, {"type": "Feature", "properties": {"name": "新北市身心障礙者職業重建服務中心(板橋區)", "type": "身心障礙者職業重建服務中心", "category": "training", "category_label": "職業訓練", "district": "板橋區", "address": "新北市板橋區中山路一段161號1樓", "phone": "02-29603456轉6571", "url": "", "city": "new_taipei"}, "geometry": {"type": "Point", "coordinates": [121.465639, 25.012118]}}, {"type": "Feature", "properties": {"name": "社團法人新北市勞資權益維護促進會", "type": "處理勞資爭議協調中介團體(勞工局委託)", "category": "employment", "category_label": "就業服務", "district": "板橋區", "address": "新北市板橋區中山路一段158巷14號1樓", "phone": "02-29554896", "url": "", "city": "new_taipei"}, "geometry": {"type": "Point", "coordinates": [121.466199, 25.0115]}}, {"type": "Feature", "properties": {"name": "社團法人新北市勞資調解協會", "type": "處理勞資爭議協調中介團體(勞工局委託)", "category": "employment", "category_label": "就業服務", "district": "板橋區", "address": "新北市板橋區民族路61號6樓", "phone": "02-29646826", "url": "", "city": "new_taipei"}, "geometry": {"type": "Point", "coordinates": [121.465825, 25.009853]}}, {"type": "Feature", "properties": {"name": "社團法人新北市勞資關係關懷協會", "type": "處理勞資爭議協調中介團體(勞工局委託)", "category": "employment", "category_label": "就業服務", "district": "板橋區", "address": "新北市板橋區文化路1段46巷6號2樓", "phone": "02-89697907", "url": "", "city": "new_taipei"}, "geometry": {"type": "Point", "coordinates": [121.512528, 25.015127]}}, {"type": "Feature", "properties": {"name": "財團法人法律扶助基金會新北分會", "type": "財團法人法律扶助基金會", "category": "rights", "category_label": "勞工權益保障", "district": "三重區", "address": "新北市三重區重新路四段12號5樓", "phone": "02-29737778", "url": "http://www.laf.org.tw", "city": "new_taipei"}, "geometry": {"type": "Point", "coordinates": [121.488758, 25.057754]}}, {"type": "Feature", "properties": {"name": "財團法人中國生產力中心", "type": "勞工安全衛生教育訓練單位", "category": "rights", "category_label": "勞工權益保障", "district": "汐止區", "address": "新北市汐止區新台五路一段79號2樓", "phone": "02-26982989", "url": "http://cpc.tw/", "city": "new_taipei"}, "geometry": {"type": "Point", "coordinates": [121.645874, 25.061727]}}, {"type": "Feature", "properties": {"name": "中華民國職業安全衛生協會附設臺北職業訓練中心", "type": "勞工安全衛生教育訓練單位", "category": "rights", "category_label": "勞工權益保障", "district": "三重區", "address": "新北市三重區重陽路1段89號3樓-5", "phone": "02-89858705", "url": "http://www.twd.org.tw", "city": "new_taipei"}, "geometry": {"type": "Point", "coordinates": [121.490707, 25.065423]}}, {"type": "Feature", "properties": {"name": "新北市政府職業訓練中心三重訓練場", "type": "職業訓練中心服務據點", "category": "training", "category_label": "職業訓練", "district": "三重區", "address": "新北市三重區光復路二段126巷30號", "phone": "02-85123574", "url": "http://www.vtc.ntpc.gov.tw", "city": "new_taipei"}, "geometry": {"type": "Point", "coordinates": [121.4705, 25.058525]}}, {"type": "Feature", "properties": {"name": "巨匠電腦-板橋分校", "type": "職業訓練中心委訓單位服務據點", "category": "training", "category_label": "職業訓練", "district": "板橋區", "address": "新北市板橋區中山路1段10號5樓", "phone": "02-29640123", "url": "", "city": "new_taipei"}, "geometry": {"type": "Point", "coordinates": [121.509054, 25.008365]}}, {"type": "Feature", "properties": {"name": "社團法人中華造型藝術學會", "type": "職業訓練中心委訓單位服務據點", "category": "training", "category_label": "職業訓練", "district": "中和區", "address": "新北市中和區中和路358號11樓之1", "phone": "02-29259620", "url": "", "city": "new_taipei"}, "geometry": {"type": "Point", "coordinates": [121.510296, 25.001596]}}, {"type": "Feature", "properties": {"name": "社團法人新北市婦女會", "type": "職業訓練中心委訓單位服務據點", "category": "training", "category_label": "職業訓練", "district": "板橋區", "address": "新北市板橋區明德街8號2樓", "phone": "02-29651938", "url": "", "city": "new_taipei"}, "geometry": {"type": "Point", "coordinates": [121.46026, 25.010283]}}, {"type": "Feature", "properties": {"name": "凱德恩企業有限公司", "type": "職業訓練中心委訓單位服務據點", "category": "training", "category_label": "職業訓練", "district": "永和區", "address": "新北市永和區永貞路332巷26號", "phone": "02-32335566", "url": "", "city": "new_taipei"}, "geometry": {"type": "Point", "coordinates": [121.51161, 25.005726]}}, {"type": "Feature", "properties": {"name": "新北市私立大龍德汽車駕駛人訓練班", "type": "職業訓練中心委訓單位服務據點", "category": "training", "category_label": "職業訓練", "district": "鶯歌區", "address": "新北市鶯歌區中正三路鄭厝巷14之3號", "phone": "02-26704023", "url": "http://www.tlddrive.com.tw", "city": "new_taipei"}, "geometry": {"type": "Point", "coordinates": [121.333206, 24.934038]}}, {"type": "Feature", "properties": {"name": "社團法人中國餐飲學會", "type": "職業訓練中心委訓單位服務據點", "category": "training", "category_label": "職業訓練", "district": "新莊區", "address": "新北市新莊區仁愛街44號", "phone": "02-29937250", "url": "http://www.fandb.com.tw", "city": "new_taipei"}, "geometry": {"type": "Point", "coordinates": [121.497979, 25.071399]}}, {"type": "Feature", "properties": {"name": "巨匠電腦-新莊分校", "type": "職業訓練中心委訓單位服務據點", "category": "training", "category_label": "職業訓練", "district": "新莊區", "address": "新北市新莊區中正路287號", "phone": "02-22031186", "url": "", "city": "new_taipei"}, "geometry": {"type": "Point", "coordinates": [121.448737, 25.035216]}}, {"type": "Feature", "properties": {"name": "社團法人中華美容技藝促進協會附設職業訓練中心", "type": "職業訓練中心委訓單位服務據點", "category": "training", "category_label": "職業訓練", "district": "三重區", "address": "新北市三重區重新路4段206號2-2樓", "phone": "02-29775106", "url": "", "city": "new_taipei"}, "geometry": {"type": "Point", "coordinates": [121.495428, 25.061439]}}, {"type": "Feature", "properties": {"name": "聯城電腦-三重分校", "type": "職業訓練中心委訓單位服務據點", "category": "training", "category_label": "職業訓練", "district": "三重區", "address": "新北市三重區正義北路27號", "phone": "02-89838802", "url": "", "city": "new_taipei"}, "geometry": {"type": "Point", "coordinates": [121.497601, 25.063554]}}, {"type": "Feature", "properties": {"name": "聯城電腦新莊分校", "type": "職業訓練中心委訓單位服務據點", "category": "training", "category_label": "職業訓練", "district": "新莊區", "address": "新北市新莊區中正路233號", "phone": "02-29946836", "url": "http://www.lccnet.com.tw", "city": "new_taipei"}, "geometry": {"type": "Point", "coordinates": [121.450547, 25.035594]}}, {"type": "Feature", "properties": {"name": "聯城電腦-永和分校", "type": "職業訓練中心委訓單位服務據點", "category": "training", "category_label": "職業訓練", "district": "永和區", "address": "新北市永和區永和路2段59號4樓", "phone": "02-29203589", "url": "http://www.lccnet.com.tw", "city": "new_taipei"}, "geometry": {"type": "Point", "coordinates": [121.514564, 25.009951]}}, {"type": "Feature", "properties": {"name": "巨匠電腦-三重分校", "type": "職業訓練中心委訓單位服務據點", "category": "training", "category_label": "職業訓練", "district": "三重區", "address": "新北市三重區重新路2段60號", "phone": "02-29720388", "url": "http://www.pcschool.com.tw/", "city": "new_taipei"}, "geometry": {"type": "Point", "coordinates": [121.4894, 25.058201]}}, {"type": "Feature", "properties": {"name": "華夏學校財團法人華夏科技大學(進修推廣部)", "type": "職業訓練中心委訓單位服務據點", "category": "training", "category_label": "職業訓練", "district": "中和區", "address": "新北市中和區工專路111號", "phone": "02-89415100#6111", "url": "", "city": "new_taipei"}, "geometry": {"type": "Point", "coordinates": [121.507733, 24.980586]}}, {"type": "Feature", "properties": {"name": "勞動力發展署北基宜花金馬分署", "type": "勞動部勞動力發展署據點", "category": "employment", "category_label": "就業服務", "district": "新莊區", "address": "新北市新莊區中平路439號南棟3樓", "phone": "02-89956399", "url": "http://tkyhkm.wda.gov.tw", "city": "new_taipei"}, "geometry": {"type": "Point", "coordinates": [121.443855, 25.056184]}}, {"type": "Feature", "properties": {"name": "勞動力發展署", "type": "勞動部勞動力發展署據點", "category": "employment", "category_label": "就業服務", "district": "新莊區", "address": "新北市新莊區中平路439號南棟4樓", "phone": "02-89956000", "url": "http://www.wda.gov.tw/", "city": "new_taipei"}, "geometry": {"type": "Point", "coordinates": [121.443855, 25.056184]}}, {"type": "Feature", "properties": {"name": "新北市愛盲庇護工場", "type": "庇護工場", "category": "sheltered", "category_label": "庇護工場", "district": "新店區", "address": "新北市新店區民生路15號2樓", "phone": "02-86673138", "url": "", "city": "new_taipei"}, "geometry": {"type": "Point", "coordinates": [121.533024, 24.986643]}}, {"type": "Feature", "properties": {"name": "亞東醫院視障按摩小棧", "type": "按摩小棧", "category": "rights", "category_label": "勞工權益保障", "district": "板橋區", "address": "新北市板橋區南雅南路2段21號B1", "phone": "0926-593-599", "url": "http://www.blind-tpc.org.tw/", "city": "new_taipei"}, "geometry": {"type": "Point", "coordinates": [121.455878, 25.005513]}}, {"type": "Feature", "properties": {"name": "醒吾科技大學", "type": "勞工大學校區", "category": "training", "category_label": "職業訓練", "district": "林口區", "address": "新北市林口區粉寮路1段101號", "phone": "02-26015310轉1686", "url": "http://www.hwu.edu.tw/", "city": "new_taipei"}, "geometry": {"type": "Point", "coordinates": [121.399919, 25.083089]}}, {"type": "Feature", "properties": {"name": "新北市政府就業服務處金山就業服務台", "type": "就業服務站台", "category": "employment", "category_label": "就業服務", "district": "金山區", "address": "新北市金山區中正路11號", "phone": "02-24980196", "url": "", "city": "new_taipei"}, "geometry": {"type": "Point", "coordinates": [121.633617, 25.221192]}}, {"type": "Feature", "properties": {"name": "財團法人基督教長老教會馬偕紀念醫院淡水分院", "type": "勞工健檢醫院", "category": "rights", "category_label": "勞工權益保障", "district": "淡水區", "address": "新北市淡水區民生路45號", "phone": "02-28094661轉2440", "url": "http://www.mmh.org.tw/index_big5.html", "city": "new_taipei"}, "geometry": {"type": "Point", "coordinates": [121.460499, 25.139535]}}, {"type": "Feature", "properties": {"name": "三鶯社區大學", "type": "勞工大學校區", "category": "training", "category_label": "職業訓練", "district": "鶯歌區", "address": "新北市鶯歌區文化路181號", "phone": "02-26700818", "url": "https://sanying.ntcu.org.tw/course/", "city": "new_taipei"}, "geometry": {"type": "Point", "coordinates": [121.35544, 24.953976]}}, {"type": "Feature", "properties": {"name": "板橋地政事務所視障按摩小棧", "type": "按摩小棧", "category": "rights", "category_label": "勞工權益保障", "district": "板橋區", "address": "新北市板橋區實踐路1號", "phone": "", "url": "", "city": "new_taipei"}, "geometry": {"type": "Point", "coordinates": [121.463532, 25.008623]}}, {"type": "Feature", "properties": {"name": "頭前庄捷運站視障按摩小棧", "type": "按摩小棧", "category": "rights", "category_label": "勞工權益保障", "district": "新莊區", "address": "新北市新莊區頭前庄捷運站4號出口B1", "phone": "", "url": "", "city": "new_taipei"}, "geometry": {"type": "Point", "coordinates": [121.462074, 25.05252]}}, {"type": "Feature", "properties": {"name": "社團法人中華慈心健康安全暨輻射防護發展協會附設中和職業訓練中心", "type": "勞工安全衛生教育訓練單位", "category": "rights", "category_label": "勞工權益保障", "district": "中和區", "address": "新北市中和區中正路868號11樓", "phone": "02-32344482", "url": "", "city": "new_taipei"}, "geometry": {"type": "Point", "coordinates": [121.484868, 25.005383]}}, {"type": "Feature", "properties": {"name": "社團法人中華勞工防災協會附設職業訓練中心", "type": "勞工安全衛生教育訓練單位", "category": "rights", "category_label": "勞工權益保障", "district": "新莊區", "address": "新北市新莊區中正路213-2號3樓", "phone": "02-89915522", "url": "http://www.dral.com.tw/", "city": "new_taipei"}, "geometry": {"type": "Point", "coordinates": [121.43003, 25.031198]}}, {"type": "Feature", "properties": {"name": "新北市勞工安全衛生管理人員職業工會", "type": "勞工安全衛生教育訓練單位", "category": "rights", "category_label": "勞工權益保障", "district": "三重區", "address": "新北市三重區重新路四段98號7樓", "phone": "02-89731318", "url": "", "city": "new_taipei"}, "geometry": {"type": "Point", "coordinates": [121.487847, 25.057138]}}, {"type": "Feature", "properties": {"name": "中華民國勞動災害防止協會附設台北職業訓練中心", "type": "勞工安全衛生教育訓練單位", "category": "rights", "category_label": "勞工權益保障", "district": "三重區", "address": "新北市三重區重新路四段98號6樓", "phone": "02-29749588", "url": "", "city": "new_taipei"}, "geometry": {"type": "Point", "coordinates": [121.487847, 25.057138]}}, {"type": "Feature", "properties": {"name": "全家便利商店股份有限公司附設職業訓練中心", "type": "勞工安全衛生教育訓練單位", "category": "rights", "category_label": "勞工權益保障", "district": "淡水區", "address": "新北市淡水區中正東路二段29號4樓", "phone": "02-28084116", "url": "", "city": "new_taipei"}, "geometry": {"type": "Point", "coordinates": [121.460079, 25.158551]}}, {"type": "Feature", "properties": {"name": "新北市政府職業訓練中心", "type": "勞工安全衛生教育訓練單位", "category": "rights", "category_label": "勞工權益保障", "district": "三重區", "address": "新北市三重區光復路二段126巷30號", "phone": "02-89692150分機2126", "url": "", "city": "new_taipei"}, "geometry": {"type": "Point", "coordinates": [121.4705, 25.058525]}}, {"type": "Feature", "properties": {"name": "社團法人中華勞動學會附設泰山職業訓練中心", "type": "勞工安全衛生教育訓練單位", "category": "rights", "category_label": "勞工權益保障", "district": "泰山區", "address": "新北市泰山區明志路3段142巷8號5樓之1-6", "phone": "02-89781568", "url": "http://www.dral.com.tw/", "city": "new_taipei"}, "geometry": {"type": "Point", "coordinates": [121.42454, 25.042996]}}, {"type": "Feature", "properties": {"name": "新北市政府環境保護局", "type": "勞工安全衛生教育訓練單位", "category": "rights", "category_label": "勞工權益保障", "district": "板橋區", "address": "新北市板橋區中山路1段161號", "phone": "02-29532111", "url": "", "city": "new_taipei"}, "geometry": {"type": "Point", "coordinates": [121.509054, 25.008365]}}, {"type": "Feature", "properties": {"name": "社團法人中華民國工業安全衛生協會附設新北職業訓練中心", "type": "勞工安全衛生教育訓練單位", "category": "rights", "category_label": "勞工權益保障", "district": "三重區", "address": "新北市三重區重新路4段87號4樓", "phone": "02-29702526", "url": "", "city": "new_taipei"}, "geometry": {"type": "Point", "coordinates": [121.495428, 25.061439]}}, {"type": "Feature", "properties": {"name": "中華電信股份有限公司附設板橋職業訓練中心", "type": "勞工安全衛生教育訓練單位", "category": "rights", "category_label": "勞工權益保障", "district": "板橋區", "address": "新北市板橋區民族路168號", "phone": "02-29639432", "url": "", "city": "new_taipei"}, "geometry": {"type": "Point", "coordinates": [121.467359, 25.007791]}}, {"type": "Feature", "properties": {"name": "新北市工業會附設職業訓練中心", "type": "勞工安全衛生教育訓練單位", "category": "rights", "category_label": "勞工權益保障", "district": "板橋區", "address": "新北市板橋區重慶路66號4樓", "phone": "02-29559077", "url": "", "city": "new_taipei"}, "geometry": {"type": "Point", "coordinates": [121.531583, 25.039811]}}, {"type": "Feature", "properties": {"name": "中英醫療社團法人板英醫院", "type": "勞工健檢醫院", "category": "rights", "category_label": "勞工權益保障", "district": "板橋區", "address": "新北市板橋區文化路1段267、269、271號", "phone": "02-82513923", "url": "http://www.panying.com.tw/index.aspx", "city": "new_taipei"}, "geometry": {"type": "Point", "coordinates": [121.542668, 24.979883]}}, {"type": "Feature", "properties": {"name": "新中興診所", "type": "勞工健檢醫院", "category": "rights", "category_label": "勞工權益保障", "district": "板橋區", "address": "新北市板橋區民生路1段3號7樓", "phone": "02-29599999", "url": "http://nghmc.com/", "city": "new_taipei"}, "geometry": {"type": "Point", "coordinates": [121.476494, 25.011579]}}, {"type": "Feature", "properties": {"name": "怡和醫院", "type": "勞工健檢醫院", "category": "rights", "category_label": "勞工權益保障", "district": "中和區", "address": "新北市中和區連城路49號1至4樓", "phone": "02-22450009", "url": "http://www.yiher.com.tw", "city": "new_taipei"}, "geometry": {"type": "Point", "coordinates": [121.496739, 24.997538]}}, {"type": "Feature", "properties": {"name": "祥顥醫院", "type": "勞工健檢醫院", "category": "rights", "category_label": "勞工權益保障", "district": "中和區", "address": "新北市中和區景平路421、412之1號1至5樓", "phone": "02-2946-8795", "url": "http://www.hhhosp.com.tw/contact.html", "city": "new_taipei"}, "geometry": {"type": "Point", "coordinates": [121.51115, 24.992871]}}, {"type": "Feature", "properties": {"name": "新北市愛不囉嗦手作體驗館庇護工場", "type": "庇護工場", "category": "sheltered", "category_label": "庇護工場", "district": "新莊區", "address": "新北市新莊區公園路17號(景觀樓)", "phone": "02-22777062", "url": "https://www.facebook.com/abrazo.diyworkshop/", "city": "new_taipei"}, "geometry": {"type": "Point", "coordinates": [121.447356, 25.038465]}}, {"type": "Feature", "properties": {"name": "台灣時尚人才培訓學苑有限公司附設職業訓練中心", "type": "私立職訓機構", "category": "training", "category_label": "職業訓練", "district": "三重區", "address": "新北市三重區重陽路1段120巷8號1樓", "phone": "(02)-2980-8975", "url": "http://www.tlo.org.tw/html/front/bin/home.phtml", "city": "new_taipei"}, "geometry": {"type": "Point", "coordinates": [121.48702, 25.060409]}}, {"type": "Feature", "properties": {"name": "巨匠電腦-永和分校", "type": "職業訓練中心委訓單位服務據點", "category": "training", "category_label": "職業訓練", "district": "永和區", "address": "新北市永和區中正路746號3樓", "phone": "02-22324619", "url": "https://www.pcschool.com.tw", "city": "new_taipei"}, "geometry": {"type": "Point", "coordinates": [121.514958, 25.010344]}}, {"type": "Feature", "properties": {"name": "巨匠電腦-樹林分校", "type": "職業訓練中心委訓單位服務據點", "category": "training", "category_label": "職業訓練", "district": "樹林區", "address": "新北市樹林區中山路1段39號", "phone": "02-26823259", "url": "https://www.pcschool.com.tw", "city": "new_taipei"}, "geometry": {"type": "Point", "coordinates": [121.421439, 24.987772]}}, {"type": "Feature", "properties": {"name": "聯城電腦-板橋分校", "type": "職業訓練中心委訓單位服務據點", "category": "training", "category_label": "職業訓練", "district": "板橋區", "address": "新北市板橋區文化路1段30號6樓", "phone": "02-29681701", "url": "", "city": "new_taipei"}, "geometry": {"type": "Point", "coordinates": [121.512528, 25.015127]}}, {"type": "Feature", "properties": {"name": "財團法人新北市私立莊敬高級工業家事職業學校附設職業訓練中心", "type": "職業訓練中心委訓單位服務據點", "category": "training", "category_label": "職業訓練", "district": "新店區", "address": "新北市新店區中正路521巷3號", "phone": "02-22188956", "url": "http://www.jjvs.ntpc.edu.tw/main_news_detial.php?type_id=8&tpl_name=default", "city": "new_taipei"}, "geometry": {"type": "Point", "coordinates": [121.533258, 24.984973]}}, {"type": "Feature", "properties": {"name": "景文科技大學", "type": "職業訓練中心委訓單位服務據點", "category": "training", "category_label": "職業訓練", "district": "新店區", "address": "新北市新店區安忠路99號", "phone": "02-82122000", "url": "https://www.just.edu.tw", "city": "new_taipei"}, "geometry": {"type": "Point", "coordinates": [121.508976, 24.950661]}}, {"type": "Feature", "properties": {"name": "福爾摩砂美藝有限公司", "type": "職業訓練中心委訓單位服務據點", "category": "training", "category_label": "職業訓練", "district": "樹林區", "address": "新北市樹林區佳園路1段71-5號", "phone": "02-26687732", "url": "http://www.4mosa.url.tw", "city": "new_taipei"}, "geometry": {"type": "Point", "coordinates": [121.400574, 24.94809]}}, {"type": "Feature", "properties": {"name": "侒侒有限公司", "type": "私立就服機構", "category": "employment", "category_label": "就業服務", "district": "新莊區", "address": "新北市新莊區博愛路1巷9號", "phone": "02-29919491", "url": "", "city": "new_taipei"}, "geometry": {"type": "Point", "coordinates": [121.456322, 25.042663]}}, {"type": "Feature", "properties": {"name": "弘毅人力資源顧問有限公司", "type": "私立就服機構", "category": "employment", "category_label": "就業服務", "district": "新莊區", "address": "新北市新莊區四維路211號2樓", "phone": "02-22026862", "url": "", "city": "new_taipei"}, "geometry": {"type": "Point", "coordinates": [121.421772, 25.020048]}}, {"type": "Feature", "properties": {"name": "順心實業社", "type": "私立就服機構", "category": "employment", "category_label": "就業服務", "district": "永和區", "address": "新北市永和區秀朗路2段206巷4號1樓", "phone": "02-22325758", "url": "", "city": "new_taipei"}, "geometry": {"type": "Point", "coordinates": [121.516008, 25.004623]}}, {"type": "Feature", "properties": {"name": "皖美企業社", "type": "私立就服機構", "category": "employment", "category_label": "就業服務", "district": "土城區", "address": "新北市土城區廣明街68巷4號5樓", "phone": "02-89667600", "url": "", "city": "new_taipei"}, "geometry": {"type": "Point", "coordinates": [121.455373, 24.993769]}}, {"type": "Feature", "properties": {"name": "怡安企業社", "type": "私立就服機構", "category": "employment", "category_label": "就業服務", "district": "土城區", "address": "新北市土城區光明街9號1樓", "phone": "02-2266-3107", "url": "", "city": "new_taipei"}, "geometry": {"type": "Point", "coordinates": [121.539548, 24.960719]}}, {"type": "Feature", "properties": {"name": "春霖服務有限公司", "type": "私立就服機構", "category": "employment", "category_label": "就業服務", "district": "三重區", "address": "新北市三重區重新路5段609巷14號5樓之5", "phone": "02-2999-1914", "url": "", "city": "new_taipei"}, "geometry": {"type": "Point", "coordinates": [121.495383, 25.061671]}}, {"type": "Feature", "properties": {"name": "ENJOY臺北餐廳", "type": "庇護工場", "category": "sheltered", "category_label": "庇護工場", "district": "信義區", "address": "臺北市信義區市府路1號1樓", "phone": "2720-5208", "url": "", "city": "taipei"}, "geometry": {"type": "Point", "coordinates": [121.563781, 25.037524]}}, {"type": "Feature", "properties": {"name": "勝利基金會辦理樸樹咖啡捷運古亭店(捷運古亭庇護工場)", "type": "庇護工場", "category": "sheltered", "category_label": "庇護工場", "district": "中正區", "address": "臺北市中正區羅斯福路2段164-1號B1", "phone": "2368-9093", "url": "", "city": "taipei"}, "geometry": {"type": "Point", "coordinates": [121.531881, 25.016082]}}, {"type": "Feature", "properties": {"name": "EasyCoffee(捷運善導寺庇護工場)", "type": "庇護工場", "category": "sheltered", "category_label": "庇護工場", "district": "中正區", "address": "臺北市中正區忠孝東路1段58號B1", "phone": "2395-6102", "url": "", "city": "taipei"}, "geometry": {"type": "Point", "coordinates": [121.544039, 25.041842]}}, {"type": "Feature", "properties": {"name": "快樂小舖\n(捷運南勢角庇護工場)", "type": "庇護工場", "category": "sheltered", "category_label": "庇護工場", "district": "中和區", "address": "新北市中和區捷運路6號B3", "phone": "2943-3994", "url": "", "city": "taipei"}, "geometry": {"type": "Point", "coordinates": [121.509777, 24.989589]}}, {"type": "Feature", "properties": {"name": "樂芽一號庇護工場\n(富陽1店庇護工場)", "type": "庇護工場", "category": "sheltered", "category_label": "庇護工場", "district": "信義區", "address": "臺北市信義區和平東路3段341巷3號1樓", "phone": "8732-8101", "url": "", "city": "taipei"}, "geometry": {"type": "Point", "coordinates": [121.558283, 25.020532]}}, {"type": "Feature", "properties": {"name": "育成洗車中心\n(建忠庇護工場)", "type": "庇護工場", "category": "sheltered", "category_label": "庇護工場", "district": "大安區", "address": "臺北市大安區建國南路、濟南路口高架橋下", "phone": "2711-5842\n2740-7418", "url": "", "city": "taipei"}, "geometry": {"type": "Point", "coordinates": [121.537978, 25.0291]}}, {"type": "Feature", "properties": {"name": "光仁選品店\n(捷運大直庇護工場)", "type": "庇護工場", "category": "sheltered", "category_label": "庇護工場", "district": "中山區", "address": "臺北市中山區北安路534-1號B1", "phone": "8509-8601", "url": "", "city": "taipei"}, "geometry": {"type": "Point", "coordinates": [121.557038, 25.084576]}}, {"type": "Feature", "properties": {"name": "育成蕃薯藤\n(忠孝庇護工場)", "type": "庇護工場", "category": "sheltered", "category_label": "庇護工場", "district": "大安區", "address": "臺北市大安區建國南路1段181號", "phone": "2752-1785", "url": "", "city": "taipei"}, "geometry": {"type": "Point", "coordinates": [121.537078, 25.023823]}}, {"type": "Feature", "properties": {"name": "地熱谷小舖\n(地熱谷庇護工場)", "type": "庇護工場", "category": "sheltered", "category_label": "庇護工場", "district": "北投區", "address": "臺北市北投區中山路30-10號2樓", "phone": "2895-0556", "url": "", "city": "taipei"}, "geometry": {"type": "Point", "coordinates": [121.508118, 25.136991]}}, {"type": "Feature", "properties": {"name": "樂芽永續股份有限公司青年1庇護工場", "type": "庇護工場", "category": "sheltered", "category_label": "庇護工場", "district": "萬華區", "address": "臺北市萬華區青年路152巷6號", "phone": "7752-2518", "url": "", "city": "taipei"}, "geometry": {"type": "Point", "coordinates": [121.502327, 25.021238]}}, {"type": "Feature", "properties": {"name": "樂芽永續股份有限公司青年2庇護工場", "type": "庇護工場", "category": "sheltered", "category_label": "庇護工場", "district": "萬華區", "address": "臺北市萬華區青年路152巷14號", "phone": "7752-2518", "url": "", "city": "taipei"}, "geometry": {"type": "Point", "coordinates": [121.501966, 25.021078]}}, {"type": "Feature", "properties": {"name": "光仁選品店\n(萬大庇護工場)", "type": "庇護工場", "category": "sheltered", "category_label": "庇護工場", "district": "萬華區", "address": "臺北市萬華區萬大路423巷38號", "phone": "2305-0025", "url": "", "city": "taipei"}, "geometry": {"type": "Point", "coordinates": [121.500823, 25.021329]}}, {"type": "Feature", "properties": {"name": "第一輔具庇護工場\n(國光國宅庇護工場)", "type": "庇護工場", "category": "sheltered", "category_label": "庇護工場", "district": "萬華區", "address": "臺北市萬華區國興路22、24號1樓", "phone": "2303-3366", "url": "", "city": "taipei"}, "geometry": {"type": "Point", "coordinates": [121.50719, 25.025331]}}, {"type": "Feature", "properties": {"name": "興岩庇護工場", "type": "庇護工場", "category": "sheltered", "category_label": "庇護工場", "district": "文山區", "address": "臺北市文山區興隆路2段88號及88-1號", "phone": "2933-5626\n2776-6603", "url": "", "city": "taipei"}, "geometry": {"type": "Point", "coordinates": [121.561656, 24.983422]}}, {"type": "Feature", "properties": {"name": "神腦國際手機維修庇護工場", "type": "庇護工場", "category": "sheltered", "category_label": "庇護工場", "district": "松山區", "address": "臺北市松山區民權東路3段102號1樓", "phone": "2718-6060轉25", "url": "", "city": "taipei"}, "geometry": {"type": "Point", "coordinates": [121.595903, 25.0645]}}, {"type": "Feature", "properties": {"name": "臺北榮民總醫院附設庇護工場", "type": "庇護工場", "category": "sheltered", "category_label": "庇護工場", "district": "北投區", "address": "臺北市北投區石牌路2段201號", "phone": "2875-7027\n轉570", "url": "", "city": "taipei"}, "geometry": {"type": "Point", "coordinates": [121.514636, 25.112472]}}, {"type": "Feature", "properties": {"name": "財團法人伊甸社會福利基金會附設阿萬師清潔工作隊", "type": "庇護工場", "category": "sheltered", "category_label": "庇護工場", "district": "文山區", "address": "臺北市文山區萬美街1段55號3樓之7", "phone": "2239-2826", "url": "", "city": "taipei"}, "geometry": {"type": "Point", "coordinates": [121.56849, 25.001544]}}, {"type": "Feature", "properties": {"name": "臺北醫學大學附設醫院樂活屋庇護商店", "type": "庇護工場", "category": "sheltered", "category_label": "庇護工場", "district": "信義區", "address": "臺北市信義區吳興街252號第一大樓B1、1樓及2樓", "phone": "2737-2181\n轉3665", "url": "", "city": "taipei"}, "geometry": {"type": "Point", "coordinates": [121.563635, 25.026639]}}, {"type": "Feature", "properties": {"name": "財團法人伊甸社會福利基金會附設數位資料處理庇護工場", "type": "庇護工場", "category": "sheltered", "category_label": "庇護工場", "district": "文山區", "address": "臺北市文山區萬美街1段55號3樓之10", "phone": "2230-8002", "url": "", "city": "taipei"}, "geometry": {"type": "Point", "coordinates": [121.56849, 25.001544]}}, {"type": "Feature", "properties": {"name": "財團法人心路社會福利基金會附設心路機動工作隊", "type": "庇護工場", "category": "sheltered", "category_label": "庇護工場", "district": "文山區", "address": "臺北市文山區萬美街1段59號", "phone": "2230-6503", "url": "", "city": "taipei"}, "geometry": {"type": "Point", "coordinates": [121.56849, 25.001544]}}, {"type": "Feature", "properties": {"name": "馬偕紀念醫院附設喜樂工作坊", "type": "庇護工場", "category": "sheltered", "category_label": "庇護工場", "district": "中山區", "address": "臺北市中山區中山北路2段92號福音樓3樓", "phone": "2543-3535\n轉3692", "url": "", "city": "taipei"}, "geometry": {"type": "Point", "coordinates": [121.521853, 25.051438]}}, {"type": "Feature", "properties": {"name": "糕菲庇護工場", "type": "庇護工場", "category": "sheltered", "category_label": "庇護工場", "district": "內湖區", "address": "臺北市內湖區行愛路140巷25號", "phone": "2785-2499", "url": "", "city": "taipei"}, "geometry": {"type": "Point", "coordinates": [121.579393, 25.063609]}}, {"type": "Feature", "properties": {"name": "台北市康復之友協會附設勞務服務中心", "type": "庇護工場", "category": "sheltered", "category_label": "庇護工場", "district": "松山區", "address": "臺北市松山區八德路4段604號2樓之6", "phone": "2765-2810\n轉262", "url": "", "city": "taipei"}, "geometry": {"type": "Point", "coordinates": [121.578929, 25.051789]}}, {"type": "Feature", "properties": {"name": "台北市自閉症家長協會附設小貝殼工作坊", "type": "庇護工場", "category": "sheltered", "category_label": "庇護工場", "district": "大同區", "address": "臺北市大同區酒泉街189、197號", "phone": "2595-3954", "url": "", "city": "taipei"}, "geometry": {"type": "Point", "coordinates": [121.514912, 25.072016]}}, {"type": "Feature", "properties": {"name": "三軍總醫院北投分院附設庇護工場", "type": "庇護工場", "category": "sheltered", "category_label": "庇護工場", "district": "北投區", "address": "臺北市北投區新民路60號", "phone": "2895-9808\n轉603128", "url": "", "city": "taipei"}, "geometry": {"type": "Point", "coordinates": [121.509688, 25.13989]}}, {"type": "Feature", "properties": {"name": "傳玻者文創設計中心", "type": "庇護工場", "category": "sheltered", "category_label": "庇護工場", "district": "大同區", "address": "臺北市大同區民族西路162巷2、4號1樓", "phone": "2881-2895", "url": "", "city": "taipei"}, "geometry": {"type": "Point", "coordinates": [121.51452, 25.068639]}}, {"type": "Feature", "properties": {"name": "財團法人台北市自閉兒社會福利基金會附設愛肯樂活工場", "type": "庇護工場", "category": "sheltered", "category_label": "庇護工場", "district": "大同區", "address": "臺北市大同區甘谷街16號2樓", "phone": "2599-3803", "url": "", "city": "taipei"}, "geometry": {"type": "Point", "coordinates": [121.511209, 25.052755]}}, {"type": "Feature", "properties": {"name": "勝利數位設計印刷中心", "type": "庇護工場", "category": "sheltered", "category_label": "庇護工場", "district": "大安區", "address": "臺北市大安區和平東路2段53巷2號9樓", "phone": "2754-0526", "url": "", "city": "taipei"}, "geometry": {"type": "Point", "coordinates": [121.551037, 25.023959]}}, {"type": "Feature", "properties": {"name": "新品文具庇護工場", "type": "庇護工場", "category": "sheltered", "category_label": "庇護工場", "district": "士林區", "address": "臺北市士林區承德路4段180號3樓", "phone": "2889-1155", "url": "", "city": "taipei"}, "geometry": {"type": "Point", "coordinates": [121.518672, 25.058808]}}, {"type": "Feature", "properties": {"name": "勝利便利商店松醫店", "type": "庇護工場", "category": "sheltered", "category_label": "庇護工場", "district": "松山區", "address": "臺北市松山區健康路158號", "phone": "7723-0420", "url": "", "city": "taipei"}, "geometry": {"type": "Point", "coordinates": [121.557876, 25.053444]}}, {"type": "Feature", "properties": {"name": "愛不囉嗦庇護工場", "type": "庇護工場", "category": "sheltered", "category_label": "庇護工場", "district": "大同區", "address": "臺北市大同區承德路3段212之5號1樓", "phone": "2586-9321", "url": "", "city": "taipei"}, "geometry": {"type": "Point", "coordinates": [121.518732, 25.090317]}}, {"type": "Feature", "properties": {"name": "伊果文創印刷庇護工場", "type": "庇護工場", "category": "sheltered", "category_label": "庇護工場", "district": "文山區", "address": "臺北市文山區保儀路9號4樓", "phone": "2939-2169", "url": "", "city": "taipei"}, "geometry": {"type": "Point", "coordinates": [121.569578, 24.985204]}}, {"type": "Feature", "properties": {"name": "勝利便利商店敦中店", "type": "庇護工場", "category": "sheltered", "category_label": "庇護工場", "district": "松山區", "address": "臺北市松山區敦化北路4巷1號", "phone": "7713-7209", "url": "", "city": "taipei"}, "geometry": {"type": "Point", "coordinates": [121.546291, 25.050001]}}, {"type": "Feature", "properties": {"name": "樸樹咖啡", "type": "庇護工場", "category": "sheltered", "category_label": "庇護工場", "district": "萬華區", "address": "臺北市萬華區廣州街95-1、95-2、95-3號", "phone": "2306-6308", "url": "", "city": "taipei"}, "geometry": {"type": "Point", "coordinates": [121.504135, 25.036527]}}, {"type": "Feature", "properties": {"name": "雙喵星球庇護工場", "type": "庇護工場", "category": "sheltered", "category_label": "庇護工場", "district": "士林區", "address": "臺北市士林區美德街104號1樓", "phone": "2831-9191", "url": "", "city": "taipei"}, "geometry": {"type": "Point", "coordinates": [121.525085, 25.095482]}}, {"type": "Feature", "properties": {"name": "勝利加油站\n(大安加油站)", "type": "庇護工場", "category": "sheltered", "category_label": "庇護工場", "district": "大安區", "address": "臺北市大安區建國南路2段75-1號", "phone": "2755-5499", "url": "", "city": "taipei"}, "geometry": {"type": "Point", "coordinates": [121.538324, 25.035101]}}, {"type": "Feature", "properties": {"name": "陽光加油站\n(市民加油站)", "type": "庇護工場", "category": "sheltered", "category_label": "庇護工場", "district": "大安區", "address": "臺北市大安區建國南路1段57-1號", "phone": "2752-9928", "url": "", "city": "taipei"}, "geometry": {"type": "Point", "coordinates": [121.537078, 25.023823]}}, {"type": "Feature", "properties": {"name": "陽光汽車美容中心\n(建和社會企業)", "type": "庇護工場", "category": "sheltered", "category_label": "庇護工場", "district": "大安區", "address": "臺北市大安區建國南路2段280號", "phone": "2365-7791", "url": "", "city": "taipei"}, "geometry": {"type": "Point", "coordinates": [121.538324, 25.035101]}}, {"type": "Feature", "properties": {"name": "建北加油站", "type": "庇護工場", "category": "sheltered", "category_label": "庇護工場", "district": "中山區", "address": "臺北市中山區建國北路3段91之1號", "phone": "2515-0228", "url": "", "city": "taipei"}, "geometry": {"type": "Point", "coordinates": [121.536282, 25.0469]}}, {"type": "Feature", "properties": {"name": "陽光活力中心八德二館\n(臺北社企館1F)", "type": "庇護工場", "category": "sheltered", "category_label": "庇護工場", "district": "中山區", "address": "臺北市中山區八德路2段174巷28號1樓", "phone": "2772-8816", "url": "", "city": "taipei"}, "geometry": {"type": "Point", "coordinates": [121.538437, 25.04568]}}, {"type": "Feature", "properties": {"name": "新生命資訊服務股份有限公司(臺北社企館2F)", "type": "庇護工場", "category": "sheltered", "category_label": "庇護工場", "district": "中山區", "address": "臺北市中山區八德路2段174巷28號2樓", "phone": "8751-5350", "url": "", "city": "taipei"}, "geometry": {"type": "Point", "coordinates": [121.538437, 25.04568]}}, {"type": "Feature", "properties": {"name": "社團法人台灣公益團體自律聯盟(臺北社企館3F)", "type": "庇護工場", "category": "sheltered", "category_label": "庇護工場", "district": "中山區", "address": "臺北市中山區八德路2段174巷28號3樓", "phone": "8772-6020", "url": "", "city": "taipei"}, "geometry": {"type": "Point", "coordinates": [121.538437, 25.04568]}}, {"type": "Feature", "properties": {"name": "黑暗對話社會企業股份有限公司(臺北社企館4F)", "type": "庇護工場", "category": "sheltered", "category_label": "庇護工場", "district": "中山區", "address": "臺北市中山區八德路2段174巷28號4樓", "phone": "8772-3100", "url": "", "city": "taipei"}, "geometry": {"type": "Point", "coordinates": [121.538437, 25.04568]}}, {"type": "Feature", "properties": {"name": "視障者音樂發展中心\n(臺北社企館5F)", "type": "庇護工場", "category": "sheltered", "category_label": "庇護工場", "district": "中山區", "address": "臺北市中山區八德路2段174巷28號5樓", "phone": "7730-7388\n轉106", "url": "", "city": "taipei"}, "geometry": {"type": "Point", "coordinates": [121.538437, 25.04568]}}, {"type": "Feature", "properties": {"name": "陽光活力中心八德館\n(臺北社企館6、7F)", "type": "庇護工場", "category": "sheltered", "category_label": "庇護工場", "district": "中山區", "address": "臺北市中山區八德路2段174巷28號6、7樓", "phone": "2772-8816", "url": "", "city": "taipei"}, "geometry": {"type": "Point", "coordinates": [121.538437, 25.04568]}}, {"type": "Feature", "properties": {"name": "第一物業管理社會企業", "type": "庇護工場", "category": "sheltered", "category_label": "庇護工場", "district": "南港區", "address": "臺北市南港區重陽路223號B1", "phone": "2722-4136\n轉1879", "url": "", "city": "taipei"}, "geometry": {"type": "Point", "coordinates": [121.602587, 25.057677]}}, {"type": "Feature", "properties": {"name": "第一輔具股份有限公司\n(富陽2店)", "type": "庇護工場", "category": "sheltered", "category_label": "庇護工場", "district": "信義區", "address": "臺北市信義區和平東路3段341巷7號1樓", "phone": "2377-2188", "url": "", "city": "taipei"}, "geometry": {"type": "Point", "coordinates": [121.558283, 25.020532]}}, {"type": "Feature", "properties": {"name": "大龍粥食品有限公司", "type": "庇護工場", "category": "sheltered", "category_label": "庇護工場", "district": "松山區", "address": "臺北市松山區八德路2段410巷5弄1號1樓", "phone": "0972-906738", "url": "", "city": "taipei"}, "geometry": {"type": "Point", "coordinates": [121.577071, 25.050547]}}, {"type": "Feature", "properties": {"name": "臺北市政府勞動局", "type": "勞動行政機關", "category": "admin", "category_label": "勞動行政", "district": "信義區", "address": "臺北市信義區市府路1號5樓(北區及東北區)", "phone": "(02)27208889", "url": "https://bola.gov.taipei/Default.aspx", "city": "taipei"}, "geometry": {"type": "Point", "coordinates": [121.563781, 25.037524]}}, {"type": "Feature", "properties": {"name": "勞動權益中心", "type": "勞動行政機關", "category": "admin", "category_label": "勞動行政", "district": "萬華區", "address": "臺北市萬華區艋舺大道101號6樓", "phone": "(02)23026355", "url": "https://bola.gov.taipei/cp.aspx?n=7A178A22C01EA988&s=B5EC36F9D503F2E5", "city": "taipei"}, "geometry": {"type": "Point", "coordinates": [121.501472, 25.033339]}}, {"type": "Feature", "properties": {"name": "臺北市勞動檢查處", "type": "勞動行政機關", "category": "admin", "category_label": "勞動行政", "district": "萬華區", "address": "臺北市萬華區艋舺大道101號7樓", "phone": "(02)23086101", "url": "https://lio.gov.taipei/", "city": "taipei"}, "geometry": {"type": "Point", "coordinates": [121.501472, 25.033339]}}, {"type": "Feature", "properties": {"name": "臺北市就業服務處", "type": "就業服務站台", "category": "employment", "category_label": "就業服務", "district": "萬華區", "address": "臺北市萬華區艋舺大道101號8樓", "phone": "(02)23085230", "url": "https://eso.gov.taipei/", "city": "taipei"}, "geometry": {"type": "Point", "coordinates": [121.501472, 25.033339]}}, {"type": "Feature", "properties": {"name": "艋舺就業服務站", "type": "就業服務站台", "category": "employment", "category_label": "就業服務", "district": "萬華區", "address": "臺北市萬華區艋舺大道101號3樓", "phone": "(02)23085231", "url": "https://eso.gov.taipei/cp.aspx?n=931FF3F88FFB7EEC", "city": "taipei"}, "geometry": {"type": "Point", "coordinates": [121.501472, 25.033339]}}, {"type": "Feature", "properties": {"name": "西門就業服務站", "type": "就業服務站台", "category": "employment", "category_label": "就業服務", "district": "萬華區", "address": "臺北市萬華區峨眉街81號", "phone": "(02)23813344", "url": "https://eso.gov.taipei/cp.aspx?n=931FF3F88FFB7EEC", "city": "taipei"}, "geometry": {"type": "Point", "coordinates": [121.50536, 25.043963]}}, {"type": "Feature", "properties": {"name": "北投就業服務站", "type": "就業服務站台", "category": "employment", "category_label": "就業服務", "district": "北投區", "address": "臺北市北投區中央北路一段2號3樓", "phone": "(02)28981819", "url": "https://eso.gov.taipei/cp.aspx?n=931FF3F88FFB7EEC", "city": "taipei"}, "geometry": {"type": "Point", "coordinates": [121.501512, 25.133559]}}, {"type": "Feature", "properties": {"name": "景美就業服務站", "type": "就業服務站台", "category": "employment", "category_label": "就業服務", "district": "文山區", "address": "臺北市文山區羅斯福路6段393號2樓", "phone": "(02)89315334", "url": "https://eso.gov.taipei/cp.aspx?n=931FF3F88FFB7EEC", "city": "taipei"}, "geometry": {"type": "Point", "coordinates": [121.540236, 25.00166]}}, {"type": "Feature", "properties": {"name": "南港東明青銀就業服務站", "type": "就業服務站台", "category": "employment", "category_label": "就業服務", "district": "南港區", "address": "臺北市南港區南港路二段60巷19號1樓及2樓", "phone": "(02)27400922", "url": "https://eso.gov.taipei/cp.aspx?n=931FF3F88FFB7EEC", "city": "taipei"}, "geometry": {"type": "Point", "coordinates": [121.605199, 25.054379]}}, {"type": "Feature", "properties": {"name": "內湖就業服務站", "type": "就業服務站台", "category": "employment", "category_label": "就業服務", "district": "內湖區", "address": "臺北市內湖區民權東路6段99號7樓", "phone": "(02)27900399", "url": "https://eso.gov.taipei/cp.aspx?n=931FF3F88FFB7EEC", "city": "taipei"}, "geometry": {"type": "Point", "coordinates": [121.605725, 25.070981]}}, {"type": "Feature", "properties": {"name": "信義就業服務站", "type": "就業服務站台", "category": "employment", "category_label": "就業服務", "district": "信義區", "address": "臺北市信義區福德街86號8樓", "phone": "(02)27293138", "url": "https://eso.gov.taipei/cp.aspx?n=931FF3F88FFB7EEC", "city": "taipei"}, "geometry": {"type": "Point", "coordinates": [121.585255, 25.036242]}}, {"type": "Feature", "properties": {"name": "萬華服務臺", "type": "就業服務站台", "category": "employment", "category_label": "就業服務", "district": "萬華區", "address": "臺北市萬華區梧州街36號5樓", "phone": "(02)23080236", "url": "https://eso.gov.taipei/cp.aspx?n=931FF3F88FFB7EEC", "city": "taipei"}, "geometry": {"type": "Point", "coordinates": [121.497484, 25.037373]}}, {"type": "Feature", "properties": {"name": "個案管理資源站", "type": "就業服務站台", "category": "employment", "category_label": "就業服務", "district": "文山區", "address": "臺北市文山區羅斯福路6段393號3樓", "phone": "(02)29302696", "url": "https://eso.gov.taipei/cp.aspx?n=931FF3F88FFB7EEC", "city": "taipei"}, "geometry": {"type": "Point", "coordinates": [121.540236, 25.00166]}}, {"type": "Feature", "properties": {"name": "南港銀髮人才服務據點", "type": "就業服務站台", "category": "employment", "category_label": "就業服務", "district": "南港區", "address": "臺北市南港區南港路二段60巷18號", "phone": "(02)27861660", "url": "https://eso.gov.taipei/cp.aspx?n=931FF3F88FFB7EEC", "city": "taipei"}, "geometry": {"type": "Point", "coordinates": [121.603659, 25.054384]}}, {"type": "Feature", "properties": {"name": "文山銀髮人才服務據點", "type": "就業服務站台", "category": "employment", "category_label": "就業服務", "district": "文山區", "address": "臺北市文山區興隆路二段88號2樓", "phone": "(02)29307989", "url": "https://eso.gov.taipei/cp.aspx?n=931FF3F88FFB7EEC", "city": "taipei"}, "geometry": {"type": "Point", "coordinates": [121.55083, 24.997837]}}, {"type": "Feature", "properties": {"name": "臺北市職能發展學院", "type": "勞動行政機關", "category": "admin", "category_label": "勞動行政", "district": "士林區", "address": "臺北市士林區士東路301號", "phone": "(02)28721940", "url": "https://www.tvdi.gov.taipei/", "city": "taipei"}, "geometry": {"type": "Point", "coordinates": [121.537717, 25.114733]}}, {"type": "Feature", "properties": {"name": "臺北市勞動力重建運用處", "type": "勞動行政機關", "category": "admin", "category_label": "勞動行政", "district": "萬華區", "address": "臺北市萬華區艋舺大道101號4、5樓", "phone": "(02)23381600", "url": "https://fd.gov.taipei/", "city": "taipei"}, "geometry": {"type": "Point", "coordinates": [121.501472, 25.033339]}}, {"type": "Feature", "properties": {"name": "台北市辦事處", "type": "勞保局辦事處", "category": "admin", "category_label": "勞動行政", "district": "", "address": "臺北市羅斯福路1段4號1樓", "phone": "02-23216884", "url": "", "city": "taipei"}, "geometry": {"type": "Point", "coordinates": [121.5176575, 25.0331871]}}, {"type": "Feature", "properties": {"name": "新北市辦事處", "type": "勞保局辦事處", "category": "admin", "category_label": "勞動行政", "district": "新莊區", "address": "新北市新莊區中平路439號南棟1樓", "phone": "02-89952100", "url": "", "city": "new_taipei"}, "geometry": {"type": "Point", "coordinates": [121.4434757, 25.056683]}}]}