{"type": "FeatureCollection", "features": [{"type": "Feature", "properties": {"name": "郵政博物館臺北館", "name_en": "Postal Museum Taipei Branch", "type": "歷史與人文", "address": "100台北市中正區忠孝西路一段114號", "phone": "02-23945185分機857", "website": "https://museums.moc.gov.tw/", "intro": "", "city": "taipei", "city_name": "臺北市"}, "geometry": {"type": "Point", "coordinates": [121.511391, 25.047031]}}, {"type": "Feature", "properties": {"name": "國立臺灣工藝研究發展中心-鶯歌多媒材研發分館", "name_en": "National Taiwan Craft Research and Development Institute, Yingge Branch", "type": "藝術與工藝", "address": "239新北市鶯歌區鳳鳴路160號", "phone": "(02)2670-5308", "website": "https://museums.moc.gov.tw/", "intro": "", "city": "new_taipei", "city_name": "新北市"}, "geometry": {"type": "Point", "coordinates": [121.334532, 24.966846]}}, {"type": "Feature", "properties": {"name": "白色恐怖景美紀念園區", "name_en": "Jing-Mei  White Terror Memorial Park", "type": "歷史與人文", "address": "231新北市新店區復興路131號", "phone": "02-22182438", "website": "https://museums.moc.gov.tw/", "intro": "", "city": "new_taipei", "city_name": "新北市"}, "geometry": {"type": "Point", "coordinates": [121.532322, 24.988122]}}, {"type": "Feature", "properties": {"name": "國立臺灣大學醫學人文博物館", "name_en": "National Taiwan University Museum of Medical Humanities", "type": "歷史與人文", "address": "100臺北市中正區仁愛路1號(臺大醫學院旁兩層樓建築)", "phone": "02-23123456轉62188", "website": "https://museums.moc.gov.tw/", "intro": "", "city": "taipei", "city_name": "臺北市"}, "geometry": {"type": "Point", "coordinates": [121.518857, 25.039548]}}, {"type": "Feature", "properties": {"name": "國立臺灣大學檔案館", "name_en": "NTU Archives", "type": "歷史與人文", "address": "100臺北市中正區思源街18號(水源校區-飲水樓)", "phone": "02-33669709", "website": "https://museums.moc.gov.tw/", "intro": "", "city": "taipei", "city_name": "臺北市"}, "geometry": {"type": "Point", "coordinates": [121.528795, 25.01383]}}, {"type": "Feature", "properties": {"name": "國立臺灣大學動物博物館", "name_en": "NTU Museum of Zoology", "type": "自然與科學", "address": "106臺北市大安區羅斯福路4段1號1樓生命科學館1樓", "phone": "02-33662450", "website": "https://museums.moc.gov.tw/", "intro": "", "city": "taipei", "city_name": "臺北市"}, "geometry": {"type": "Point", "coordinates": [121.538978, 25.015533]}}, {"type": "Feature", "properties": {"name": "國立臺灣大學植物標本館", "name_en": "TAI Herbarium, National Taiwan University", "type": "自然與科學", "address": "106臺北市大安區羅斯福路4段1號", "phone": "02-33662463-102", "website": "https://museums.moc.gov.tw/", "intro": "", "city": "taipei", "city_name": "臺北市"}, "geometry": {"type": "Point", "coordinates": [121.535182, 25.016383]}}, {"type": "Feature", "properties": {"name": "國立臺灣大學農業陳列館", "name_en": "NTU Agricultural Exhibition Hall", "type": "自然與科學", "address": "106臺北市大安區羅斯福路四段1號", "phone": "02-3366-3972", "website": "https://museums.moc.gov.tw/", "intro": "", "city": "taipei", "city_name": "臺北市"}, "geometry": {"type": "Point", "coordinates": [121.534255, 25.018149]}}, {"type": "Feature", "properties": {"name": "國立臺灣大學昆蟲標本館", "name_en": "NTU insectarium", "type": "自然與科學", "address": "106臺北市大安區羅斯福路四段113巷27號", "phone": "02-33665901", "website": "https://museums.moc.gov.tw/", "intro": "", "city": "taipei", "city_name": "臺北市"}, "geometry": {"type": "Point", "coordinates": [121.540736, 25.01119]}}, {"type": "Feature", "properties": {"name": "國立臺灣大學物理文物廳", "name_en": "NTU Heritage Hall of Physics", "type": "自然與科學", "address": "106臺北市大安區羅斯福路四段1號", "phone": "0233664430", "website": "https://museums.moc.gov.tw/", "intro": "", "city": "taipei", "city_name": "臺北市"}, "geometry": {"type": "Point", "coordinates": [121.535979, 25.016863]}}, {"type": "Feature", "properties": {"name": "國立臺灣大學地質標本館", "name_en": "NTU Geo-specimen Cottage", "type": "自然與科學", "address": "臺北市大安區羅斯福路四段1號 國立臺灣大學 地質標本館(AT4023-B 地質科學系101室)", "phone": "(02) 3366-2950", "website": "https://museums.moc.gov.tw/", "intro": "", "city": "taipei", "city_name": "臺北市"}, "geometry": {"type": "Point", "coordinates": [121.537418, 25.014503]}}, {"type": "Feature", "properties": {"name": "國立臺灣大學人類學博物館", "name_en": "NTU Museum of Anthropology", "type": "歷史與人文", "address": "106臺北市大安區羅斯福路四段一號(人類學博物館)", "phone": "(02)33664996", "website": "https://museums.moc.gov.tw/", "intro": "", "city": "taipei", "city_name": "臺北市"}, "geometry": {"type": "Point", "coordinates": [121.534911, 25.017791]}}, {"type": "Feature", "properties": {"name": "國立臺灣大學校史館", "name_en": "NTU History Gallery", "type": "歷史與人文", "address": "106臺北市大安區羅斯福路四段1號", "phone": "02-3366-3818", "website": "https://museums.moc.gov.tw/", "intro": "", "city": "taipei", "city_name": "臺北市"}, "geometry": {"type": "Point", "coordinates": [121.535333, 25.017804]}}, {"type": "Feature", "properties": {"name": "臺灣戲曲中心", "name_en": "Taiwan Traditional Theatre Center", "type": "綜合與其他", "address": "111臺北市士林區文林路751號", "phone": "02-88669600", "website": "https://museums.moc.gov.tw/", "intro": "", "city": "taipei", "city_name": "臺北市"}, "geometry": {"type": "Point", "coordinates": [121.519087, 25.102339]}}, {"type": "Feature", "properties": {"name": "國立臺灣文學館臺灣文學基地", "name_en": "Taiwan Literature Base", "type": "歷史與人文", "address": "100臺北市中正區濟南路2段27號", "phone": "(02) 2327-9657", "website": "https://museums.moc.gov.tw/", "intro": "", "city": "taipei", "city_name": "臺北市"}, "geometry": {"type": "Point", "coordinates": [121.528318, 25.041231]}}, {"type": "Feature", "properties": {"name": "國立臺灣博物館-南門館", "name_en": "National Taiwan Museum-Nanmen Park", "type": "歷史與人文", "address": "100臺北市中正區南昌路1段1號", "phone": "02-2397-3666", "website": "https://museums.moc.gov.tw/", "intro": "", "city": "taipei", "city_name": "臺北市"}, "geometry": {"type": "Point", "coordinates": [121.51596, 25.033203]}}, {"type": "Feature", "properties": {"name": "國立臺灣博物館-古生物館", "name_en": "National Taiwan Museum - Land Bank Exhibition Hall", "type": "自然與科學", "address": "100臺北市中正區襄陽路25號", "phone": "02-2314-2699", "website": "https://museums.moc.gov.tw/", "intro": "", "city": "taipei", "city_name": "臺北市"}, "geometry": {"type": "Point", "coordinates": [121.514362, 25.043568]}}, {"type": "Feature", "properties": {"name": "國立臺灣工藝研究發展中心-臺北當代工藝設計分館", "name_en": "National  Taiwan  Craft  Research  and  Development  Institute,Taipei  Branch", "type": "藝術與工藝", "address": "100臺北市中正區南海路41號", "phone": "(02)2388-7066", "website": "https://museums.moc.gov.tw/", "intro": "", "city": "taipei", "city_name": "臺北市"}, "geometry": {"type": "Point", "coordinates": [121.512294, 25.03195]}}, {"type": "Feature", "properties": {"name": "世界宗教博物館", "name_en": "Museum of World Religions", "type": "藝術與工藝", "address": "234新北市永和區中山路路236號7樓", "phone": "02-8231-6118 #8906", "website": "https://museums.moc.gov.tw/", "intro": "", "city": "new_taipei", "city_name": "新北市"}, "geometry": {"type": "Point", "coordinates": [121.507808, 25.007963]}}, {"type": "Feature", "properties": {"name": "新北市立烏來泰雅民族博物館", "name_en": "Wulai Atayal Museum, New Taipei City", "type": "歷史與人文", "address": "233新北市烏來區烏來街12號1樓", "phone": "02-2661-8162", "website": "https://museums.moc.gov.tw/", "intro": "", "city": "new_taipei", "city_name": "新北市"}, "geometry": {"type": "Point", "coordinates": [121.551506, 24.864091]}}, {"type": "Feature", "properties": {"name": "新北市立淡水古蹟博物館", "name_en": "Tamsui Historical Museum, New Taipei City", "type": "歷史與人文", "address": "251新北市淡水區中正路28巷1號", "phone": "02-26212830", "website": "https://museums.moc.gov.tw/", "intro": "", "city": "new_taipei", "city_name": "新北市"}, "geometry": {"type": "Point", "coordinates": [121.431306, 25.178689]}}, {"type": "Feature", "properties": {"name": "新北市立鶯歌陶瓷博物館", "name_en": "New Taipei City Yingge Ceramics Museum", "type": "藝術與工藝", "address": "239新北市鶯歌區文化路200號", "phone": "(02)86772727", "website": "https://museums.moc.gov.tw/", "intro": "", "city": "new_taipei", "city_name": "新北市"}, "geometry": {"type": "Point", "coordinates": [121.352032, 24.949251]}}, {"type": "Feature", "properties": {"name": "新北市立黃金博物館", "name_en": "Gold Museum,New Taipei City Government", "type": "綜合與其他", "address": "224新北市瑞芳區金光路8號", "phone": "", "website": "https://museums.moc.gov.tw/", "intro": "", "city": "new_taipei", "city_name": "新北市"}, "geometry": {"type": "Point", "coordinates": [121.857897, 25.107537]}}, {"type": "Feature", "properties": {"name": "國家人權博物館", "name_en": "National Human Rights Museum", "type": "歷史與人文", "address": "231新北市新店區復興路131號", "phone": "02-2218-2438", "website": "https://museums.moc.gov.tw/", "intro": "", "city": "new_taipei", "city_name": "新北市"}, "geometry": {"type": "Point", "coordinates": [121.533293, 24.987928]}}, {"type": "Feature", "properties": {"name": "國立臺灣藝術大學有章藝術博物館", "name_en": "Yo-Chang Art Museum", "type": "藝術與工藝", "address": "220新北市板橋區大觀路1段59號", "phone": "+886-2-2272-2181 ext.2454; ext.1422", "website": "https://museums.moc.gov.tw/", "intro": "", "city": "new_taipei", "city_name": "新北市"}, "geometry": {"type": "Point", "coordinates": [121.448731, 25.006494]}}, {"type": "Feature", "properties": {"name": "新北市立十三行博物館", "name_en": "The Shihsanhang Museum of Archaeology", "type": "歷史與人文", "address": "249新北市八里區博物館路200號", "phone": "(02)2619-1313分機600", "website": "https://museums.moc.gov.tw/", "intro": "", "city": "new_taipei", "city_name": "新北市"}, "geometry": {"type": "Point", "coordinates": [121.404861, 25.156876]}}, {"type": "Feature", "properties": {"name": "國立政治大學民族學博物館", "name_en": "Museum of Ethnology of the Dept. of NCCU", "type": "歷史與人文", "address": "116臺北市文山區指南路二段64號5樓", "phone": "02-29393091#50518", "website": "https://museums.moc.gov.tw/", "intro": "", "city": "taipei", "city_name": "臺北市"}, "geometry": {"type": "Point", "coordinates": [121.57352, 24.985848]}}, {"type": "Feature", "properties": {"name": "長榮海事博物館", "name_en": "EVERGREEN MARITIME MUSEUM", "type": "綜合與其他", "address": "100臺北市中正區中山南路11號", "phone": "02-23516699#6113", "website": "https://museums.moc.gov.tw/", "intro": "", "city": "taipei", "city_name": "臺北市"}, "geometry": {"type": "Point", "coordinates": [121.518901, 25.038695]}}, {"type": "Feature", "properties": {"name": "順益台灣原住民博物館", "name_en": "Shung Ye Museum of Formosan Aborigines", "type": "歷史與人文", "address": "111臺北市士林區至善路2段282號", "phone": "(02)28412611", "website": "https://museums.moc.gov.tw/", "intro": "", "city": "taipei", "city_name": "臺北市"}, "geometry": {"type": "Point", "coordinates": [121.5519775, 25.1009689]}}, {"type": "Feature", "properties": {"name": "台北偶戲館", "name_en": "Puppetry Art Center of Taipei", "type": "藝術與工藝", "address": "105臺北市松山區市民大道5段99號", "phone": "02-25289553", "website": "https://museums.moc.gov.tw/", "intro": "", "city": "taipei", "city_name": "臺北市"}, "geometry": {"type": "Point", "coordinates": [121.561336, 25.047741]}}, {"type": "Feature", "properties": {"name": "臺北市立動物園", "name_en": "Taipei Zoo", "type": "自然與科學", "address": "116臺北市文山區新光路2段30號", "phone": "0937919170", "website": "https://museums.moc.gov.tw/", "intro": "", "city": "taipei", "city_name": "臺北市"}, "geometry": {"type": "Point", "coordinates": [121.581025, 24.998556]}}, {"type": "Feature", "properties": {"name": "國立臺北藝術大學關渡美術館", "name_en": "Kuandu Museum of Fine Arts", "type": "藝術與工藝", "address": "112臺北市北投區學園路1號", "phone": "2896-1000~2444", "website": "https://museums.moc.gov.tw/", "intro": "", "city": "taipei", "city_name": "臺北市"}, "geometry": {"type": "Point", "coordinates": [121.471546, 25.13334]}}, {"type": "Feature", "properties": {"name": "臺北市政府消防局防災科學教育館", "name_en": "Fire Safety Museum of Taipei City Fire Department", "type": "綜合與其他", "address": "114臺北市內湖區成功路2段376號", "phone": "02-27919786", "website": "https://museums.moc.gov.tw/", "intro": "", "city": "taipei", "city_name": "臺北市"}, "geometry": {"type": "Point", "coordinates": [121.590338, 25.06935]}}, {"type": "Feature", "properties": {"name": "臺北市立美術館", "name_en": "Taipei Fine Arts Museum", "type": "藝術與工藝", "address": "104臺北市中山區中山北路3段181號", "phone": "(02)25957656", "website": "https://museums.moc.gov.tw/", "intro": "", "city": "taipei", "city_name": "臺北市"}, "geometry": {"type": "Point", "coordinates": [121.524808, 25.072415]}}, {"type": "Feature", "properties": {"name": "台北當代藝術館", "name_en": "MOCATaipei", "type": "藝術與工藝", "address": "103臺北市大同區長安西路39號", "phone": "25523721", "website": "https://museums.moc.gov.tw/", "intro": "", "city": "taipei", "city_name": "臺北市"}, "geometry": {"type": "Point", "coordinates": [121.518971, 25.050737]}}, {"type": "Feature", "properties": {"name": "郵政博物館", "name_en": "Postal Museum", "type": "歷史與人文", "address": "100臺北市中正區重慶南路二段45號", "phone": "02-23945185分機857", "website": "https://museums.moc.gov.tw/", "intro": "", "city": "taipei", "city_name": "臺北市"}, "geometry": {"type": "Point", "coordinates": [121.514765, 25.031666]}}, {"type": "Feature", "properties": {"name": "國立臺灣科學教育館", "name_en": "National Taiwan Science Education Center", "type": "自然與科學", "address": "111臺北市士林區士商路189號", "phone": "02-66101234分機1005", "website": "https://museums.moc.gov.tw/", "intro": "", "city": "taipei", "city_name": "臺北市"}, "geometry": {"type": "Point", "coordinates": [121.516687, 25.096128]}}, {"type": "Feature", "properties": {"name": "國立國父紀念館", "name_en": "National Dr. Sun Yat-sen Memorial Hall", "type": "歷史與人文", "address": "110臺北市信義區仁愛路4段505號", "phone": "02-27588008", "website": "https://museums.moc.gov.tw/", "intro": "", "city": "taipei", "city_name": "臺北市"}, "geometry": {"type": "Point", "coordinates": [121.560241, 25.040029]}}, {"type": "Feature", "properties": {"name": "台北植物園", "name_en": "Taipei Botanical Garden", "type": "自然與科學", "address": "100臺北市中正區南海路53號", "phone": "(02)23039978#1420", "website": "https://museums.moc.gov.tw/", "intro": "", "city": "taipei", "city_name": "臺北市"}, "geometry": {"type": "Point", "coordinates": [121.510191, 25.031211]}}, {"type": "Feature", "properties": {"name": "臺北市立天文科學教育館", "name_en": "Taipei Astronomical Museum", "type": "自然與科學", "address": "111臺北市士林區基河路363號", "phone": "02-28314551#502", "website": "https://museums.moc.gov.tw/", "intro": "", "city": "taipei", "city_name": "臺北市"}, "geometry": {"type": "Point", "coordinates": [121.518299, 25.095829]}}, {"type": "Feature", "properties": {"name": "國立臺灣大學博物館群", "name_en": "National Taiwan University Museums", "type": "綜合與其他", "address": "106臺北市大安區羅斯福路四段1號", "phone": "02-3366-3818", "website": "https://museums.moc.gov.tw/", "intro": "", "city": "taipei", "city_name": "臺北市"}, "geometry": {"type": "Point", "coordinates": [121.539745, 25.017359]}}, {"type": "Feature", "properties": {"name": "國立臺灣博物館", "name_en": "National Taiwan Museum", "type": "綜合與其他", "address": "100臺北市中正區襄陽路2號", "phone": "02-23822566", "website": "https://museums.moc.gov.tw/", "intro": "", "city": "taipei", "city_name": "臺北市"}, "geometry": {"type": "Point", "coordinates": [121.515033, 25.042755]}}, {"type": "Feature", "properties": {"name": "國立歷史博物館", "name_en": "National Museum of History", "type": "歷史與人文", "address": "10066臺北市中正區南海路49號", "phone": "02-2331-1220", "website": "https://museums.moc.gov.tw/", "intro": "", "city": "taipei", "city_name": "臺北市"}, "geometry": {"type": "Point", "coordinates": [121.511202, 25.031573]}}, {"type": "Feature", "properties": {"name": "國立故宮博物院", "name_en": "National Palace Museum", "type": "綜合與其他", "address": "111臺北市士林區至善路2段221號", "phone": "886-2-2881-2021", "website": "https://museums.moc.gov.tw/", "intro": "", "city": "taipei", "city_name": "臺北市"}, "geometry": {"type": "Point", "coordinates": [121.548492, 25.102357]}}, {"type": "Feature", "properties": {"name": "台北二二八紀念館", "name_en": "TAIPEI  228  MEMORIAL  MUSEUM", "type": "歷史與人文", "address": "100臺北市中正區凱達格蘭大道3號", "phone": "", "website": "https://museums.moc.gov.tw/", "intro": "", "city": "taipei", "city_name": "臺北市"}, "geometry": {"type": "Point", "coordinates": [121.515561, 25.040398]}}, {"type": "Feature", "properties": {"name": "二二八國家紀念館 /財團法人二二八事件紀念基金會", "name_en": "National 228 Memorial Museum/Memorial Foundation of 228", "type": "歷史與人文", "address": "100臺北市中正區南海路54號", "phone": "02-23326228", "website": "https://museums.moc.gov.tw/", "intro": "", "city": "taipei", "city_name": "臺北市"}, "geometry": {"type": "Point", "coordinates": [121.51392, 25.031554]}}, {"type": "Feature", "properties": {"name": "國立臺北教育大學北師美術館", "name_en": "Museum of  National Taipei University of Education", "type": "藝術與工藝", "address": "106臺北市大安區和平東路二段１３４號", "phone": "０２－２７３２４０８４", "website": "https://museums.moc.gov.tw/", "intro": "", "city": "taipei", "city_name": "臺北市"}, "geometry": {"type": "Point", "coordinates": [121.544542, 25.024563]}}, {"type": "Feature", "properties": {"name": "朱銘美術館", "name_en": "Juming Museum", "type": "藝術與工藝", "address": "20842新北市金山區西勢湖2號", "phone": "886-2-24989940 # 1704-1708", "website": "https://museums.moc.gov.tw/", "intro": "", "city": "new_taipei", "city_name": "新北市"}, "geometry": {"type": "Point", "coordinates": [121.611228, 25.246654]}}, {"type": "Feature", "properties": {"name": "紅毛城", "name_en": "Tamsui Historical Museum, New Taipei City", "type": "歷史與人文", "address": "251新北市淡水區中正路28巷1號", "phone": "02-26212830", "website": "https://museums.moc.gov.tw/", "intro": "", "city": "new_taipei", "city_name": "新北市"}, "geometry": {"type": "Point", "coordinates": [121.4327664, 25.175368]}}, {"type": "Feature", "properties": {"name": "國立臺灣博物館-本館", "name_en": "National Taiwan Museum-Main Building", "type": "綜合與其他", "address": "100臺北市中正區襄陽路2號", "phone": "", "website": "https://museums.moc.gov.tw/", "intro": "", "city": "taipei", "city_name": "臺北市"}, "geometry": {"type": "Point", "coordinates": [121.5150048, 25.0434071]}}]}