{"type": "FeatureCollection", "features": [{"type": "Feature", "geometry": {"type": "Point", "coordinates": [121.511391, 25.047031]}, "properties": {"city": "taipei", "name": "郵政博物館臺北館", "type": "歷史與人文", "intro": "", "phone": "02-23945185分機857", "address": "100台北市中正區忠孝西路一段114號", "name_en": "Postal Museum Taipei Branch", "website": "https://museums.moc.gov.tw/", "city_name": "臺北市"}}, {"type": "Feature", "geometry": {"type": "Point", "coordinates": [121.518857, 25.039548]}, "properties": {"city": "taipei", "name": "國立臺灣大學醫學人文博物館", "type": "歷史與人文", "intro": "", "phone": "02-23123456轉62188", "address": "100臺北市中正區仁愛路1號(臺大醫學院旁兩層樓建築)", "name_en": "National Taiwan University Museum of Medical Humanities", "website": "https://museums.moc.gov.tw/", "city_name": "臺北市"}}, {"type": "Feature", "geometry": {"type": "Point", "coordinates": [121.528795, 25.01383]}, "properties": {"city": "taipei", "name": "國立臺灣大學檔案館", "type": "歷史與人文", "intro": "", "phone": "02-33669709", "address": "100臺北市中正區思源街18號(水源校區-飲水樓)", "name_en": "NTU Archives", "website": "https://museums.moc.gov.tw/", "city_name": "臺北市"}}, {"type": "Feature", "geometry": {"type": "Point", "coordinates": [121.538978, 25.015533]}, "properties": {"city": "taipei", "name": "國立臺灣大學動物博物館", "type": "自然與科學", "intro": "", "phone": "02-33662450", "address": "106臺北市大安區羅斯福路4段1號1樓生命科學館1樓", "name_en": "NTU Museum of Zoology", "website": "https://museums.moc.gov.tw/", "city_name": "臺北市"}}, {"type": "Feature", "geometry": {"type": "Point", "coordinates": [121.535182, 25.016383]}, "properties": {"city": "taipei", "name": "國立臺灣大學植物標本館", "type": "自然與科學", "intro": "", "phone": "02-33662463-102", "address": "106臺北市大安區羅斯福路4段1號", "name_en": "TAI Herbarium, National Taiwan University", "website": "https://museums.moc.gov.tw/", "city_name": "臺北市"}}, {"type": "Feature", "geometry": {"type": "Point", "coordinates": [121.534255, 25.018149]}, "properties": {"city": "taipei", "name": "國立臺灣大學農業陳列館", "type": "自然與科學", "intro": "", "phone": "02-3366-3972", "address": "106臺北市大安區羅斯福路四段1號", "name_en": "NTU Agricultural Exhibition Hall", "website": "https://museums.moc.gov.tw/", "city_name": "臺北市"}}, {"type": "Feature", "geometry": {"type": "Point", "coordinates": [121.540736, 25.01119]}, "properties": {"city": "taipei", "name": "國立臺灣大學昆蟲標本館", "type": "自然與科學", "intro": "", "phone": "02-33665901", "address": "106臺北市大安區羅斯福路四段113巷27號", "name_en": "NTU insectarium", "website": "https://museums.moc.gov.tw/", "city_name": "臺北市"}}, {"type": "Feature", "geometry": {"type": "Point", "coordinates": [121.535979, 25.016863]}, "properties": {"city": "taipei", "name": "國立臺灣大學物理文物廳", "type": "自然與科學", "intro": "", "phone": "0233664430", "address": "106臺北市大安區羅斯福路四段1號", "name_en": "NTU Heritage Hall of Physics", "website": "https://museums.moc.gov.tw/", "city_name": "臺北市"}}, {"type": "Feature", "geometry": {"type": "Point", "coordinates": [121.537418, 25.014503]}, "properties": {"city": "taipei", "name": "國立臺灣大學地質標本館", "type": "自然與科學", "intro": "", "phone": "(02) 3366-2950", "address": "臺北市大安區羅斯福路四段1號 國立臺灣大學 地質標本館(AT4023-B 地質科學系101室)", "name_en": "NTU Geo-specimen Cottage", "website": "https://museums.moc.gov.tw/", "city_name": "臺北市"}}, {"type": "Feature", "geometry": {"type": "Point", "coordinates": [121.534911, 25.017791]}, "properties": {"city": "taipei", "name": "國立臺灣大學人類學博物館", "type": "歷史與人文", "intro": "", "phone": "(02)33664996", "address": "106臺北市大安區羅斯福路四段一號(人類學博物館)", "name_en": "NTU Museum of Anthropology", "website": "https://museums.moc.gov.tw/", "city_name": "臺北市"}}, {"type": "Feature", "geometry": {"type": "Point", "coordinates": [121.535333, 25.017804]}, "properties": {"city": "taipei", "name": "國立臺灣大學校史館", "type": "歷史與人文", "intro": "", "phone": "02-3366-3818", "address": "106臺北市大安區羅斯福路四段1號", "name_en": "NTU History Gallery", "website": "https://museums.moc.gov.tw/", "city_name": "臺北市"}}, {"type": "Feature", "geometry": {"type": "Point", "coordinates": [121.519087, 25.102339]}, "properties": {"city": "taipei", "name": "臺灣戲曲中心", "type": "綜合與其他", "intro": "", "phone": "02-88669600", "address": "111臺北市士林區文林路751號", "name_en": "Taiwan Traditional Theatre Center", "website": "https://museums.moc.gov.tw/", "city_name": "臺北市"}}, {"type": "Feature", "geometry": {"type": "Point", "coordinates": [121.528318, 25.041231]}, "properties": {"city": "taipei", "name": "國立臺灣文學館臺灣文學基地", "type": "歷史與人文", "intro": "", "phone": "(02) 2327-9657", "address": "100臺北市中正區濟南路2段27號", "name_en": "Taiwan Literature Base", "website": "https://museums.moc.gov.tw/", "city_name": "臺北市"}}, {"type": "Feature", "geometry": {"type": "Point", "coordinates": [121.51596, 25.033203]}, "properties": {"city": "taipei", "name": "國立臺灣博物館-南門館", "type": "歷史與人文", "intro": "", "phone": "02-2397-3666", "address": "100臺北市中正區南昌路1段1號", "name_en": "National Taiwan Museum-Nanmen Park", "website": "https://museums.moc.gov.tw/", "city_name": "臺北市"}}, {"type": "Feature", "geometry": {"type": "Point", "coordinates": [121.514362, 25.043568]}, "properties": {"city": "taipei", "name": "國立臺灣博物館-古生物館", "type": "自然與科學", "intro": "", "phone": "02-2314-2699", "address": "100臺北市中正區襄陽路25號", "name_en": "National Taiwan Museum - Land Bank Exhibition Hall", "website": "https://museums.moc.gov.tw/", "city_name": "臺北市"}}, {"type": "Feature", "geometry": {"type": "Point", "coordinates": [121.512294, 25.03195]}, "properties": {"city": "taipei", "name": "國立臺灣工藝研究發展中心-臺北當代工藝設計分館", "type": "藝術與工藝", "intro": "", "phone": "(02)2388-7066", "address": "100臺北市中正區南海路41號", "name_en": "National  Taiwan  Craft  Research  and  Development  Institute,Taipei  Branch", "website": "https://museums.moc.gov.tw/", "city_name": "臺北市"}}, {"type": "Feature", "geometry": {"type": "Point", "coordinates": [121.57352, 24.985848]}, "properties": {"city": "taipei", "name": "國立政治大學民族學博物館", "type": "歷史與人文", "intro": "", "phone": "02-29393091#50518", "address": "116臺北市文山區指南路二段64號5樓", "name_en": "Museum of Ethnology of the Dept. of NCCU", "website": "https://museums.moc.gov.tw/", "city_name": "臺北市"}}, {"type": "Feature", "geometry": {"type": "Point", "coordinates": [121.518901, 25.038695]}, "properties": {"city": "taipei", "name": "長榮海事博物館", "type": "綜合與其他", "intro": "", "phone": "02-23516699#6113", "address": "100臺北市中正區中山南路11號", "name_en": "EVERGREEN MARITIME MUSEUM", "website": "https://museums.moc.gov.tw/", "city_name": "臺北市"}}, {"type": "Feature", "geometry": {"type": "Point", "coordinates": [121.5519775, 25.1009689]}, "properties": {"city": "taipei", "name": "順益台灣原住民博物館", "type": "歷史與人文", "intro": "", "phone": "(02)28412611", "address": "111臺北市士林區至善路2段282號", "name_en": "Shung Ye Museum of Formosan Aborigines", "website": "https://museums.moc.gov.tw/", "city_name": "臺北市"}}, {"type": "Feature", "geometry": {"type": "Point", "coordinates": [121.561336, 25.047741]}, "properties": {"city": "taipei", "name": "台北偶戲館", "type": "藝術與工藝", "intro": "", "phone": "02-25289553", "address": "105臺北市松山區市民大道5段99號", "name_en": "Puppetry Art Center of Taipei", "website": "https://museums.moc.gov.tw/", "city_name": "臺北市"}}, {"type": "Feature", "geometry": {"type": "Point", "coordinates": [121.581025, 24.998556]}, "properties": {"city": "taipei", "name": "臺北市立動物園", "type": "自然與科學", "intro": "", "phone": "0937919170", "address": "116臺北市文山區新光路2段30號", "name_en": "Taipei Zoo", "website": "https://museums.moc.gov.tw/", "city_name": "臺北市"}}, {"type": "Feature", "geometry": {"type": "Point", "coordinates": [121.471546, 25.13334]}, "properties": {"city": "taipei", "name": "國立臺北藝術大學關渡美術館", "type": "藝術與工藝", "intro": "", "phone": "2896-1000~2444", "address": "112臺北市北投區學園路1號", "name_en": "Kuandu Museum of Fine Arts", "website": "https://museums.moc.gov.tw/", "city_name": "臺北市"}}, {"type": "Feature", "geometry": {"type": "Point", "coordinates": [121.590338, 25.06935]}, "properties": {"city": "taipei", "name": "臺北市政府消防局防災科學教育館", "type": "綜合與其他", "intro": "", "phone": "02-27919786", "address": "114臺北市內湖區成功路2段376號", "name_en": "Fire Safety Museum of Taipei City Fire Department", "website": "https://museums.moc.gov.tw/", "city_name": "臺北市"}}, {"type": "Feature", "geometry": {"type": "Point", "coordinates": [121.524808, 25.072415]}, "properties": {"city": "taipei", "name": "臺北市立美術館", "type": "藝術與工藝", "intro": "", "phone": "(02)25957656", "address": "104臺北市中山區中山北路3段181號", "name_en": "Taipei Fine Arts Museum", "website": "https://museums.moc.gov.tw/", "city_name": "臺北市"}}, {"type": "Feature", "geometry": {"type": "Point", "coordinates": [121.518971, 25.050737]}, "properties": {"city": "taipei", "name": "台北當代藝術館", "type": "藝術與工藝", "intro": "", "phone": "25523721", "address": "103臺北市大同區長安西路39號", "name_en": "MOCATaipei", "website": "https://museums.moc.gov.tw/", "city_name": "臺北市"}}, {"type": "Feature", "geometry": {"type": "Point", "coordinates": [121.514765, 25.031666]}, "properties": {"city": "taipei", "name": "郵政博物館", "type": "歷史與人文", "intro": "", "phone": "02-23945185分機857", "address": "100臺北市中正區重慶南路二段45號", "name_en": "Postal Museum", "website": "https://museums.moc.gov.tw/", "city_name": "臺北市"}}, {"type": "Feature", "geometry": {"type": "Point", "coordinates": [121.516687, 25.096128]}, "properties": {"city": "taipei", "name": "國立臺灣科學教育館", "type": "自然與科學", "intro": "", "phone": "02-66101234分機1005", "address": "111臺北市士林區士商路189號", "name_en": "National Taiwan Science Education Center", "website": "https://museums.moc.gov.tw/", "city_name": "臺北市"}}, {"type": "Feature", "geometry": {"type": "Point", "coordinates": [121.560241, 25.040029]}, "properties": {"city": "taipei", "name": "國立國父紀念館", "type": "歷史與人文", "intro": "", "phone": "02-27588008", "address": "110臺北市信義區仁愛路4段505號", "name_en": "National Dr. Sun Yat-sen Memorial Hall", "website": "https://museums.moc.gov.tw/", "city_name": "臺北市"}}, {"type": "Feature", "geometry": {"type": "Point", "coordinates": [121.510191, 25.031211]}, "properties": {"city": "taipei", "name": "台北植物園", "type": "自然與科學", "intro": "", "phone": "(02)23039978#1420", "address": "100臺北市中正區南海路53號", "name_en": "Taipei Botanical Garden", "website": "https://museums.moc.gov.tw/", "city_name": "臺北市"}}, {"type": "Feature", "geometry": {"type": "Point", "coordinates": [121.518299, 25.095829]}, "properties": {"city": "taipei", "name": "臺北市立天文科學教育館", "type": "自然與科學", "intro": "", "phone": "02-28314551#502", "address": "111臺北市士林區基河路363號", "name_en": "Taipei Astronomical Museum", "website": "https://museums.moc.gov.tw/", "city_name": "臺北市"}}, {"type": "Feature", "geometry": {"type": "Point", "coordinates": [121.539745, 25.017359]}, "properties": {"city": "taipei", "name": "國立臺灣大學博物館群", "type": "綜合與其他", "intro": "", "phone": "02-3366-3818", "address": "106臺北市大安區羅斯福路四段1號", "name_en": "National Taiwan University Museums", "website": "https://museums.moc.gov.tw/", "city_name": "臺北市"}}, {"type": "Feature", "geometry": {"type": "Point", "coordinates": [121.515033, 25.042755]}, "properties": {"city": "taipei", "name": "國立臺灣博物館", "type": "綜合與其他", "intro": "", "phone": "02-23822566", "address": "100臺北市中正區襄陽路2號", "name_en": "National Taiwan Museum", "website": "https://museums.moc.gov.tw/", "city_name": "臺北市"}}, {"type": "Feature", "geometry": {"type": "Point", "coordinates": [121.511202, 25.031573]}, "properties": {"city": "taipei", "name": "國立歷史博物館", "type": "歷史與人文", "intro": "", "phone": "02-2331-1220", "address": "10066臺北市中正區南海路49號", "name_en": "National Museum of History", "website": "https://museums.moc.gov.tw/", "city_name": "臺北市"}}, {"type": "Feature", "geometry": {"type": "Point", "coordinates": [121.548492, 25.102357]}, "properties": {"city": "taipei", "name": "國立故宮博物院", "type": "綜合與其他", "intro": "", "phone": "886-2-2881-2021", "address": "111臺北市士林區至善路2段221號", "name_en": "National Palace Museum", "website": "https://museums.moc.gov.tw/", "city_name": "臺北市"}}, {"type": "Feature", "geometry": {"type": "Point", "coordinates": [121.515561, 25.040398]}, "properties": {"city": "taipei", "name": "台北二二八紀念館", "type": "歷史與人文", "intro": "", "phone": "", "address": "100臺北市中正區凱達格蘭大道3號", "name_en": "TAIPEI  228  MEMORIAL  MUSEUM", "website": "https://museums.moc.gov.tw/", "city_name": "臺北市"}}, {"type": "Feature", "geometry": {"type": "Point", "coordinates": [121.51392, 25.031554]}, "properties": {"city": "taipei", "name": "二二八國家紀念館 /財團法人二二八事件紀念基金會", "type": "歷史與人文", "intro": "", "phone": "02-23326228", "address": "100臺北市中正區南海路54號", "name_en": "National 228 Memorial Museum/Memorial Foundation of 228", "website": "https://museums.moc.gov.tw/", "city_name": "臺北市"}}, {"type": "Feature", "geometry": {"type": "Point", "coordinates": [121.544542, 25.024563]}, "properties": {"city": "taipei", "name": "國立臺北教育大學北師美術館", "type": "藝術與工藝", "intro": "", "phone": "０２－２７３２４０８４", "address": "106臺北市大安區和平東路二段１３４號", "name_en": "Museum of  National Taipei University of Education", "website": "https://museums.moc.gov.tw/", "city_name": "臺北市"}}, {"type": "Feature", "geometry": {"type": "Point", "coordinates": [121.5150048, 25.0434071]}, "properties": {"city": "taipei", "name": "國立臺灣博物館-本館", "type": "綜合與其他", "intro": "", "phone": "", "address": "100臺北市中正區襄陽路2號", "name_en": "National Taiwan Museum-Main Building", "website": "https://museums.moc.gov.tw/", "city_name": "臺北市"}}]}
