{"type": "FeatureCollection", "metadata": {"type": "monthly_flat", "available_months": ["2026-04", "2026-03", "2026-02", "2025-12", "2025-11", "2025-10", "2025-09", "2025-07", "2025-06", "2025-05", "2025-04", "2025-01", "2024-09", "2024-04", "2024-03", "2024-02", "2023-12", "2023-05"], "month_stats": {"2023-05": {"合格": 1, "正在複查": 0, "不合格": 0}, "2023-12": {"合格": 1, "正在複查": 0, "不合格": 0}, "2024-02": {"合格": 1, "正在複查": 0, "不合格": 0}, "2024-03": {"合格": 1, "正在複查": 0, "不合格": 0}, "2024-04": {"合格": 1, "正在複查": 0, "不合格": 0}, "2024-09": {"合格": 1, "正在複查": 0, "不合格": 0}, "2025-01": {"合格": 1, "正在複查": 0, "不合格": 0}, "2025-04": {"合格": 1, "正在複查": 0, "不合格": 0}, "2025-05": {"合格": 2, "正在複查": 0, "不合格": 0}, "2025-06": {"合格": 2, "正在複查": 0, "不合格": 0}, "2025-07": {"合格": 1, "正在複查": 0, "不合格": 0}, "2025-09": {"合格": 4, "正在複查": 0, "不合格": 0}, "2025-10": {"合格": 3, "正在複查": 0, "不合格": 0}, "2025-11": {"合格": 3, "正在複查": 1, "不合格": 0}, "2025-12": {"合格": 2, "正在複查": 0, "不合格": 0}, "2026-02": {"合格": 2, "正在複查": 0, "不合格": 0}, "2026-03": {"合格": 12, "正在複查": 0, "不合格": 0}, "2026-04": {"合格": 14, "正在複查": 0, "不合格": 0}}}, "features": [{"type": "Feature", "geometry": {"type": "Point", "coordinates": [121.5290909, 25.1168508]}, "properties": {"name": "台北美國學校", "address": "臺北市士林區中山北路六段800號", "district": "士林區", "result": "A1", "month": "2023-05"}}, {"type": "Feature", "geometry": {"type": "Point", "coordinates": [121.5719112, 24.9959139]}, "properties": {"name": "有限責任臺北市立木柵高級工業職業學校員生消費合作社", "address": "臺北市文山區木柵路四段77號", "district": "文山區", "result": "A2", "month": "2023-12"}}, {"type": "Feature", "geometry": {"type": "Point", "coordinates": [121.5589135, 25.0006248]}, "properties": {"name": "連大莊企業有限公司-萬芳高中早餐部", "address": "臺北市文山區興隆路三段115巷1號", "district": "文山區", "result": "A1", "month": "2024-02"}}, {"type": "Feature", "geometry": {"type": "Point", "coordinates": [121.5677016, 24.9857732]}, "properties": {"name": "味安美食股份有限公司-原味嚼(景文高中餐廳)", "address": "臺北市文山區保儀路113號", "district": "文山區", "result": "A2", "month": "2024-03"}}, {"type": "Feature", "geometry": {"type": "Point", "coordinates": [121.5260777, 25.0205394]}, "properties": {"name": "泰國小館-泰國小館", "address": "臺北市中正區汀洲路3段219號", "district": "中正區", "result": "A2", "month": "2024-04"}}, {"type": "Feature", "geometry": {"type": "Point", "coordinates": [121.5373396, 25.0184705]}, "properties": {"name": "豪弟飲食店-員生消費合作社第二小吃", "address": "臺北市大安區羅斯福路４段１號(員生消費合作社第二小吃)", "district": "大安區", "result": "A1", "month": "2024-09"}}, {"type": "Feature", "geometry": {"type": "Point", "coordinates": [121.5935424, 25.0537916]}, "properties": {"name": "南港區玉成國小附設幼兒園", "address": "臺北市南港區向陽路31號", "district": "南港區", "result": "A1", "month": "2025-01"}}, {"type": "Feature", "geometry": {"type": "Point", "coordinates": [121.50027187300925, 25.134374954931882]}, "properties": {"name": "臺北市北投區北投國小-臺北市北投區北投國小", "address": "臺北市北投區中央北路一段73唬", "district": "北投區", "result": "A1", "month": "2025-04"}}, {"type": "Feature", "geometry": {"type": "Point", "coordinates": [121.4844677, 25.1397179]}, "properties": {"name": "臺北市北投區桃源國小-臺北市北投區桃源國小", "address": "臺北市北投區中央北路三段40巷45號", "district": "北投區", "result": "A1", "month": "2025-05"}}, {"type": "Feature", "geometry": {"type": "Point", "coordinates": [121.540488, 25.0336585]}, "properties": {"name": "殷商企業管理顧問有限公司-國立台灣師範大學附屬高級中學", "address": "臺北市大安區信義路三段143 號", "district": "大安區", "result": "A1", "month": "2025-05"}}, {"type": "Feature", "geometry": {"type": "Point", "coordinates": [121.5217958, 25.112128]}, "properties": {"name": "家禾食坊-家禾食坊(國北護學生餐廳)", "address": "臺北市北投區明德路365號(國北護學生餐廳)", "district": "北投區", "result": "A1", "month": "2025-06"}}, {"type": "Feature", "geometry": {"type": "Point", "coordinates": [121.518801, 25.0858284]}, "properties": {"name": "臺北市士林區百齡國小-臺北市士林區百齡國小", "address": "臺北市士林區福港街205號", "district": "士林區", "result": "A1", "month": "2025-06"}}, {"type": "Feature", "geometry": {"type": "Point", "coordinates": [121.4997647, 25.1414911]}, "properties": {"name": "葉子異國小廚坊", "address": "臺北市北投區復興四路8巷4號1樓", "district": "北投區", "result": "A2", "month": "2025-07"}}, {"type": "Feature", "geometry": {"type": "Point", "coordinates": [121.5128995, 25.038563]}, "properties": {"name": "有限責任臺北市立第一女子高級中學員生消費合作社-北一女小熱食部", "address": "臺北市中正區重慶南路一段165號地下一樓", "district": "中正區", "result": "A1", "month": "2025-09"}}, {"type": "Feature", "geometry": {"type": "Point", "coordinates": [121.5614399, 25.0497606]}, "properties": {"name": "臺北市松山區中崙高中國中部-臺北市松山區中崙高中國中部", "address": "臺北市松山區八德路4段101號", "district": "松山區", "result": "A1", "month": "2025-09"}}, {"type": "Feature", "geometry": {"type": "Point", "coordinates": [121.5634612, 25.0523564]}, "properties": {"name": "臺北市松山區西松國小-臺北市松山區西松國小", "address": "臺北市松山區三民路5號", "district": "松山區", "result": "A1", "month": "2025-09"}}, {"type": "Feature", "geometry": {"type": "Point", "coordinates": [121.5589135, 25.0006248]}, "properties": {"name": "連大莊企業有限公司-萬芳高中熱食部", "address": "臺北市文山區興隆路三段115巷1號", "district": "文山區", "result": "A2", "month": "2025-09"}}, {"type": "Feature", "geometry": {"type": "Point", "coordinates": [121.6099358, 25.0758095]}, "properties": {"name": "壬甲健康饗食館-南湖高中學生餐廳", "address": "臺北市內湖區康寧路3段220號", "district": "內湖區", "result": "A1", "month": "2025-10"}}, {"type": "Feature", "geometry": {"type": "Point", "coordinates": [121.5466062, 25.0594465]}, "properties": {"name": "18%雞蛋糕中山國中店", "address": "臺北市松山區民生東路三段113 巷25弄6號", "district": "松山區", "result": "A2", "month": "2025-10"}}, {"type": "Feature", "geometry": {"type": "Point", "coordinates": [121.5070921, 25.126696]}, "properties": {"name": "臺北市北投區清江國小-臺北市北投區清江國小", "address": "臺北市北投區公舘路220號", "district": "北投區", "result": "A1", "month": "2025-10"}}, {"type": "Feature", "geometry": {"type": "Point", "coordinates": [121.5722409, 25.0399981]}, "properties": {"name": "有限責任臺北市立松山高級工農職業學校員生消費合作社", "address": "臺北市信義區忠孝東路5段236巷15號", "district": "信義區", "result": "A2", "month": "2025-11"}}, {"type": "Feature", "geometry": {"type": "Point", "coordinates": [121.4962369, 25.0285569]}, "properties": {"name": "連大莊企業有限公司-華江高中熱食部", "address": "臺北市萬華區西藏路213號", "district": "萬華區", "result": "B1", "month": "2025-11"}}, {"type": "Feature", "geometry": {"type": "Point", "coordinates": [121.4645108, 25.1218803]}, "properties": {"name": "美德耐商場 維康醫療用品-關渡馬偕謢專學生餐廳GA64", "address": "臺北市北投區聖景路92號1樓", "district": "北投區", "result": "A2", "month": "2025-11"}}, {"type": "Feature", "geometry": {"type": "Point", "coordinates": [121.515946, 25.0944581]}, "properties": {"name": "紅蕃茄餐飲事業有限公司-臺北市立士林高級商業職業學校", "address": "臺北市士林區士商路150號", "district": "士林區", "result": "A2", "month": "2025-11"}}, {"type": "Feature", "geometry": {"type": "Point", "coordinates": [121.5372124, 25.0485124]}, "properties": {"name": "中山女高員生消費合作社", "address": "臺北市中山區長安東路二段141號", "district": "中山區", "result": "A2", "month": "2025-12"}}, {"type": "Feature", "geometry": {"type": "Point", "coordinates": [121.5631091, 25.0270409]}, "properties": {"name": "臺北醫學大學附設醫院-臺北醫學大學附設醫院", "address": "臺北市信義區吳興街252號", "district": "信義區", "result": "A1", "month": "2025-12"}}, {"type": "Feature", "geometry": {"type": "Point", "coordinates": [121.5793559, 25.0431301]}, "properties": {"name": "臺北市信義區雙永國小-臺北市信義區雙永國小", "address": "臺北市信義區松山路287巷5號", "district": "信義區", "result": "A1", "month": "2026-02"}}, {"type": "Feature", "geometry": {"type": "Point", "coordinates": [121.58662, 25.0784076]}, "properties": {"name": "連大莊企業有限公司-內湖高中熱食部", "address": "臺北市內湖區文德路218號", "district": "內湖區", "result": "A1", "month": "2026-02"}}, {"type": "Feature", "geometry": {"type": "Point", "coordinates": [121.5914025, 25.0841216]}, "properties": {"name": "統鮮美食股份有限公司-駐外碧湖國小", "address": "臺北市內湖區金龍路100號", "district": "內湖區", "result": "A1", "month": "2026-03"}}, {"type": "Feature", "geometry": {"type": "Point", "coordinates": [121.5135812, 25.0747199]}, "properties": {"name": "臺北市立啟聰學校", "address": "臺北市大同區重慶北路三段320號", "district": "大同區", "result": "A1", "month": "2026-03"}}, {"type": "Feature", "geometry": {"type": "Point", "coordinates": [121.5611724, 25.0494093]}, "properties": {"name": "紅蕃茄餐飲事業有限公司-中崙高中熱食部", "address": "臺北市松山區八德路四段101號", "district": "松山區", "result": "A1", "month": "2026-03"}}, {"type": "Feature", "geometry": {"type": "Point", "coordinates": [121.5656556, 25.0435854]}, "properties": {"name": "紅蕃茄餐飲事業有限公司-松山高中", "address": "臺北市信義區基隆路一段156號", "district": "信義區", "result": "A1", "month": "2026-03"}}, {"type": "Feature", "geometry": {"type": "Point", "coordinates": [121.535287, 25.055022]}, "properties": {"name": "連大莊企業有限公司-大同高中早餐部", "address": "臺北市中山區長春路167號", "district": "中山區", "result": "A1", "month": "2026-03"}}, {"type": "Feature", "geometry": {"type": "Point", "coordinates": [121.5646952, 25.0421569]}, "properties": {"name": "路易莎咖啡有限公司-松山高中", "address": "臺北市信義區基隆路一段188-1號", "district": "信義區", "result": "A1", "month": "2026-03"}}, {"type": "Feature", "geometry": {"type": "Point", "coordinates": [121.5350165, 25.1166437]}, "properties": {"name": "臺北市立啟明學校-臺北市立啟明學校", "address": "臺北市士林區忠誠路二段207巷1號", "district": "士林區", "result": "A1", "month": "2026-03"}}, {"type": "Feature", "geometry": {"type": "Point", "coordinates": [121.5578055, 25.0296292]}, "properties": {"name": "臺北市信義區三興國小-臺北市信義區三興國小", "address": "臺北市信義區11052基隆路二段99號", "district": "信義區", "result": "A1", "month": "2026-03"}}, {"type": "Feature", "geometry": {"type": "Point", "coordinates": [121.5627846, 25.0566674]}, "properties": {"name": "第一餐盒股份有限公司-台北市松山區健康國民小學廚房", "address": "臺北市松山區延壽街168號", "district": "松山區", "result": "A1", "month": "2026-03"}}, {"type": "Feature", "geometry": {"type": "Point", "coordinates": [121.4912285, 25.030857]}, "properties": {"name": "連大莊企業有限公司-大理高中熱食部", "address": "臺北市萬華區長順街2號", "district": "萬華區", "result": "A3", "month": "2026-03"}}, {"type": "Feature", "geometry": {"type": "Point", "coordinates": [121.5634612, 25.0523564]}, "properties": {"name": "第一餐盒股份有限公司-第一餐盒股份有限公司西松國民小學廚房", "address": "臺北市松山區三民路5號", "district": "松山區", "result": "A1", "month": "2026-03"}}, {"type": "Feature", "geometry": {"type": "Point", "coordinates": [121.5021158, 25.14372]}, "properties": {"name": "上莊餐飲有限公司-復興高中熱食部", "address": "臺北市北投區復興四路70號", "district": "北投區", "result": "A2", "month": "2026-03"}}, {"type": "Feature", "geometry": {"type": "Point", "coordinates": [121.50088, 25.136058]}, "properties": {"name": "臺北市北投區私立薇閣國小(高年級)-臺北市北投區私立薇閣國小(高年級)", "address": "臺北市北投區育仁路106號", "district": "北投區", "result": "A1", "month": "2026-04"}}, {"type": "Feature", "geometry": {"type": "Point", "coordinates": [121.5368105, 25.1468198]}, "properties": {"name": "中原食品工業開發股份有限公司-湖山國小午餐廚房", "address": "臺北市北投區湖底路11號", "district": "北投區", "result": "A1", "month": "2026-04"}}, {"type": "Feature", "geometry": {"type": "Point", "coordinates": [121.5364107, 25.0733222]}, "properties": {"name": "臺北市中山區大佳國小-臺北市中山區大佳國小", "address": "臺北市中山區濱江街107號", "district": "中山區", "result": "A1", "month": "2026-04"}}, {"type": "Feature", "geometry": {"type": "Point", "coordinates": [121.5385442, 25.104863]}, "properties": {"name": "臺北市士林區私立華興中學國中部-臺北市士林區私立華興中學國中部", "address": "臺北市士林區仰德大道一段101號", "district": "士林區", "result": "A1", "month": "2026-04"}}, {"type": "Feature", "geometry": {"type": "Point", "coordinates": [121.5935424, 25.0537916]}, "properties": {"name": "第一餐盒股份有限公司-第一餐盒股份有限公司玉成國小", "address": "臺北市南港區向陽路31號", "district": "南港區", "result": "A1", "month": "2026-04"}}, {"type": "Feature", "geometry": {"type": "Point", "coordinates": [121.5480577, 25.039383]}, "properties": {"name": "味安餐飲股份有限公司-私立復興實驗高中餐廳", "address": "臺北市大安區敦化南路1段262號", "district": "大安區", "result": "A1", "month": "2026-04"}}, {"type": "Feature", "geometry": {"type": "Point", "coordinates": [121.5428079, 25.0124078]}, "properties": {"name": "臺北市大安區公館國小-臺北市大安區公館國小", "address": "臺北市大安區基隆路四段41巷68弄2號", "district": "大安區", "result": "A1", "month": "2026-04"}}, {"type": "Feature", "geometry": {"type": "Point", "coordinates": [121.5482935, 24.9964339]}, "properties": {"name": "臺北市文山區景興國小", "address": "臺北市文山區景華街150巷21號", "district": "文山區", "result": "A1", "month": "2026-04"}}, {"type": "Feature", "geometry": {"type": "Point", "coordinates": [121.5236872, 25.0423335]}, "properties": {"name": "品大商行-成功高中熱食三", "address": "臺北市中正區濟南路一段71號", "district": "中正區", "result": "A1", "month": "2026-04"}}, {"type": "Feature", "geometry": {"type": "Point", "coordinates": [121.5836353, 24.9763942]}, "properties": {"name": "臺北市文山區指南實驗國小-臺北市文山區指南實驗國小", "address": "臺北市文山區指南路三段38巷5-2號", "district": "文山區", "result": "A1", "month": "2026-04"}}, {"type": "Feature", "geometry": {"type": "Point", "coordinates": [121.5677806, 24.9915953]}, "properties": {"name": "上林餐飲事業股份有限公司-臺北市立文山特殊教育學校", "address": "臺北市文山區秀明路一段169號", "district": "文山區", "result": "A1", "month": "2026-04"}}, {"type": "Feature", "geometry": {"type": "Point", "coordinates": [121.5701489, 24.9902695]}, "properties": {"name": "臺北市文山區木柵國小", "address": "臺北市文山區木柵路3段191號", "district": "文山區", "result": "A1", "month": "2026-04"}}, {"type": "Feature", "geometry": {"type": "Point", "coordinates": [121.5758197, 25.0017637]}, "properties": {"name": "臺北市文山區博嘉實驗國小-臺北市文山區博嘉實驗國小", "address": "臺北市文山區(116027)木柵路四段159巷14-1號", "district": "文山區", "result": "A1", "month": "2026-04"}}, {"type": "Feature", "geometry": {"type": "Point", "coordinates": [121.5131031, 25.0385611]}, "properties": {"name": "有限責任臺北市立第一女子高級中學員生消費合作社-北一女大熱食部", "address": "臺北市中正區重慶南路一段165號", "district": "中正區", "result": "A2", "month": "2026-04"}}]}