{"type": "FeatureCollection", "features": [{"type": "Feature", "geometry": {"type": "Point", "coordinates": [121.5836, 24.9764]}, "properties": {"city": "taipei", "name": "指南國小", "indoor": "是", "address": "文山區指南路3段38巷5-2號", "manager": "張心怡", "outdoor": "否", "capacity": "20", "district": "文山區", "manager_phone": "02-29393546#21", "disaster_types": "水災,震災", "vulnerable_friendly": "否"}}, {"type": "Feature", "geometry": {"type": "Point", "coordinates": [121.5562, 24.9807]}, "properties": {"city": "taipei", "name": "景美女中", "indoor": "是", "address": "文山區木新路3段312號", "manager": "林宜德", "outdoor": "否", "capacity": "300", "district": "文山區", "manager_phone": "02-29368847#201", "disaster_types": "水災,震災", "vulnerable_friendly": "否"}}, {"type": "Feature", "geometry": {"type": "Point", "coordinates": [121.561, 24.9809]}, "properties": {"city": "taipei", "name": "力行國小", "indoor": "是", "address": "文山區木新路3段155巷7號", "manager": "吳阿理", "outdoor": "否", "capacity": "30", "district": "文山區", "manager_phone": "02-29363995#821", "disaster_types": "水災,震災", "vulnerable_friendly": "是"}}, {"type": "Feature", "geometry": {"type": "Point", "coordinates": [121.5547, 24.9834]}, "properties": {"city": "taipei", "name": "實踐國中", "indoor": "是", "address": "文山區辛亥路7段67號", "manager": "吳佳晉", "outdoor": "否", "capacity": "300", "district": "文山區", "manager_phone": "02-22362852#150", "disaster_types": "水災,震災", "vulnerable_friendly": "否"}}, {"type": "Feature", "geometry": {"type": "Point", "coordinates": [121.5575, 24.9836]}, "properties": {"city": "taipei", "name": "實踐國小", "indoor": "是", "address": "文山區忠順街1段4號", "manager": "蔡宗儒", "outdoor": "否", "capacity": "75", "district": "文山區", "manager_phone": "02-29360725#140", "disaster_types": "水災,震災", "vulnerable_friendly": "否"}}, {"type": "Feature", "geometry": {"type": "Point", "coordinates": [121.5783, 24.9849]}, "properties": {"city": "taipei", "name": "北政國中", "indoor": "是", "address": "臺北市文山區指南路3段2巷14號", "manager": "陳友城", "outdoor": "否", "capacity": "20", "district": "文山區", "manager_phone": "29393651#51", "disaster_types": "水災,震災", "vulnerable_friendly": "否"}}, {"type": "Feature", "geometry": {"type": "Point", "coordinates": [121.5626, 24.9874]}, "properties": {"city": "taipei", "name": "明道國小", "indoor": "是", "address": "文山區木柵路2段138巷61號", "manager": "莊文玲", "outdoor": "否", "capacity": "42", "district": "文山區", "manager_phone": "02-29392821#14", "disaster_types": "水災,震災", "vulnerable_friendly": "否"}}, {"type": "Feature", "geometry": {"type": "Point", "coordinates": [121.5677, 24.9875]}, "properties": {"city": "taipei", "name": "木柵國中", "indoor": "是", "address": "文山區木柵路3段102巷12號", "manager": "余鎮遠", "outdoor": "否", "capacity": "30", "district": "文山區", "manager_phone": "02-29393031#600", "disaster_types": "水災,震災", "vulnerable_friendly": "是"}}, {"type": "Feature", "geometry": {"type": "Point", "coordinates": [121.55, 24.9876]}, "properties": {"city": "taipei", "name": "永建國小", "indoor": "是", "address": "文山區試院路2號", "manager": "陳佳雯", "outdoor": "否", "capacity": "30", "district": "文山區", "manager_phone": "02-22363855#125", "disaster_types": "水災,震災", "vulnerable_friendly": "是"}}, {"type": "Feature", "geometry": {"type": "Point", "coordinates": [121.5408, 24.9895]}, "properties": {"city": "taipei", "name": "景美國小", "indoor": "是", "address": "文山區景文街108號", "manager": "莊琬婷", "outdoor": "否", "capacity": "74", "district": "文山區", "manager_phone": "02-29322151#130", "disaster_types": "水災,震災", "vulnerable_friendly": "是"}}, {"type": "Feature", "geometry": {"type": "Point", "coordinates": [121.5701, 24.9896]}, "properties": {"city": "taipei", "name": "行政中心大禮堂", "indoor": "是", "address": "臺北市木柵路3段220號10樓", "manager": "周如倩", "outdoor": "否", "capacity": "60", "district": "文山區", "manager_phone": "29365522#324", "disaster_types": "水災,震災", "vulnerable_friendly": "否"}}, {"type": "Feature", "geometry": {"type": "Point", "coordinates": [121.5702, 24.9903]}, "properties": {"city": "taipei", "name": "木柵國小", "indoor": "是", "address": "文山區木柵路3段191號", "manager": "林光媚", "outdoor": "否", "capacity": "155", "district": "文山區", "manager_phone": "02-29391234#130", "disaster_types": "水災,震災", "vulnerable_friendly": "否"}}, {"type": "Feature", "geometry": {"type": "Point", "coordinates": [121.5766, 24.9904]}, "properties": {"city": "taipei", "name": "萬興國小", "indoor": "是", "address": "文山區秀明路2段114號", "manager": "錢宜黎", "outdoor": "否", "capacity": "125", "district": "文山區", "manager_phone": "02-29381721#131", "disaster_types": "水災,震災", "vulnerable_friendly": "是"}}, {"type": "Feature", "geometry": {"type": "Point", "coordinates": [121.5429, 24.993]}, "properties": {"city": "taipei", "name": "景美國中", "indoor": "是", "address": "文山區景中街27號", "manager": "張光耀", "outdoor": "否", "capacity": "80", "district": "文山區", "manager_phone": "02-89353130#501", "disaster_types": "水災,震災", "vulnerable_friendly": "否"}}, {"type": "Feature", "geometry": {"type": "Point", "coordinates": [121.5387, 24.9941]}, "properties": {"city": "taipei", "name": "溪口國小", "indoor": "是", "address": "文山區景福街225號", "manager": "劉家森", "outdoor": "否", "capacity": "90", "district": "文山區", "manager_phone": "29350955＃715", "disaster_types": "水災,震災", "vulnerable_friendly": "是"}}, {"type": "Feature", "geometry": {"type": "Point", "coordinates": [121.5446, 24.9956]}, "properties": {"city": "taipei", "name": "景華公園", "indoor": "否", "address": "臺北市文山區景興路與景華街交叉口", "manager": "高奕翔", "outdoor": "是", "capacity": "1350", "district": "文山區", "manager_phone": "2788-4255", "disaster_types": "震災", "vulnerable_friendly": "是"}}, {"type": "Feature", "geometry": {"type": "Point", "coordinates": [121.5719, 24.9959]}, "properties": {"city": "taipei", "name": "木柵高工", "indoor": "是", "address": "文山區木柵路4段77號", "manager": "蔡明雄", "outdoor": "否", "capacity": "169", "district": "文山區", "manager_phone": "02-22300506#601", "disaster_types": "水災,震災", "vulnerable_friendly": "否"}}, {"type": "Feature", "geometry": {"type": "Point", "coordinates": [121.5482, 24.9961]}, "properties": {"city": "taipei", "name": "景興國小", "indoor": "是", "address": "文山區景華街150巷21號", "manager": "張郁敏", "outdoor": "否", "capacity": "126", "district": "文山區", "manager_phone": "02-29329438#41", "disaster_types": "水災,震災", "vulnerable_friendly": "否"}}, {"type": "Feature", "geometry": {"type": "Point", "coordinates": [121.5443, 24.9962]}, "properties": {"city": "taipei", "name": "景興國中", "indoor": "是", "address": "文山區景興路46巷2號", "manager": "朱美銀", "outdoor": "否", "capacity": "100", "district": "文山區", "manager_phone": "02-29323794#130", "disaster_types": "水災,震災", "vulnerable_friendly": "否"}}, {"type": "Feature", "geometry": {"type": "Point", "coordinates": [121.5443, 24.9962]}, "properties": {"city": "taipei", "name": "臺北市文山運動中心", "indoor": "是", "address": "興隆路三段222號", "manager": "劉宜庭", "outdoor": "否", "capacity": "189", "district": "文山區", "manager_phone": "2570-2330轉6423", "disaster_types": "震災", "vulnerable_friendly": "否"}}, {"type": "Feature", "geometry": {"type": "Point", "coordinates": [121.5388, 24.9987]}, "properties": {"city": "taipei", "name": "志清國小", "indoor": "是", "address": "文山區景福街21巷5號", "manager": "王信傑", "outdoor": "否", "capacity": "35", "district": "文山區", "manager_phone": "02-29323875#40", "disaster_types": "水災,震災", "vulnerable_friendly": "是"}}, {"type": "Feature", "geometry": {"type": "Point", "coordinates": [121.5587, 24.9988]}, "properties": {"city": "taipei", "name": "興華國小", "indoor": "是", "address": "臺北市文山區興隆路3段125巷6號", "manager": "呂昌諭", "outdoor": "否", "capacity": "30", "district": "文山區", "manager_phone": "02-22393070#130", "disaster_types": "水災,震災", "vulnerable_friendly": "否"}}, {"type": "Feature", "geometry": {"type": "Point", "coordinates": [121.5588, 25.0005]}, "properties": {"city": "taipei", "name": "萬芳高中", "indoor": "是", "address": "文山區興隆路3段115巷1號", "manager": "張盈霏", "outdoor": "否", "capacity": "131", "district": "文山區", "manager_phone": "02-22309585#500", "disaster_types": "水災,震災", "vulnerable_friendly": "否"}}, {"type": "Feature", "geometry": {"type": "Point", "coordinates": [121.5508, 25.0017]}, "properties": {"city": "taipei", "name": "興德國小", "indoor": "是", "address": "文山區興隆路2段235號", "manager": "朱雅菁", "outdoor": "否", "capacity": "30", "district": "文山區", "manager_phone": "02-29329431#35", "disaster_types": "水災,震災", "vulnerable_friendly": "否"}}, {"type": "Feature", "geometry": {"type": "Point", "coordinates": [121.5673, 25.0019]}, "properties": {"city": "taipei", "name": "萬芳國小", "indoor": "是", "address": "文山區萬和街1號", "manager": "何寶妍", "outdoor": "否", "capacity": "135", "district": "文山區", "manager_phone": "2230-1232#31", "disaster_types": "水災,震災", "vulnerable_friendly": "否"}}, {"type": "Feature", "geometry": {"type": "Point", "coordinates": [121.5758, 25.0021]}, "properties": {"city": "taipei", "name": "博嘉國小", "indoor": "是", "address": "文山區木柵路4段159巷14之1號", "manager": "陳逸儒", "outdoor": "否", "capacity": "30", "district": "文山區", "manager_phone": "02-22302585#130", "disaster_types": "水災,震災", "vulnerable_friendly": "否"}}, {"type": "Feature", "geometry": {"type": "Point", "coordinates": [121.5519, 25.0024]}, "properties": {"city": "taipei", "name": "興隆國小", "indoor": "是", "address": "文山區福興路2號", "manager": "張仁傑", "outdoor": "否", "capacity": "133", "district": "文山區", "manager_phone": "02-29323131#511", "disaster_types": "水災,震災", "vulnerable_friendly": "是"}}, {"type": "Feature", "geometry": {"type": "Point", "coordinates": [121.5571, 25.0029]}, "properties": {"city": "taipei", "name": "興德里營區", "indoor": "是", "address": "興德路55號", "manager": "李德龍上尉", "outdoor": "否", "capacity": "200", "district": "文山區", "manager_phone": "02-23140177", "disaster_types": "水災,震災", "vulnerable_friendly": "否"}}, {"type": "Feature", "geometry": {"type": "Point", "coordinates": [121.5405, 25.0039]}, "properties": {"city": "taipei", "name": "武功國小", "indoor": "是", "address": "臺北市文山區興隆路1段68號", "manager": "陳冠任", "outdoor": "否", "capacity": "50", "district": "文山區", "manager_phone": "02-29314360#19", "disaster_types": "水災,震災", "vulnerable_friendly": "否"}}, {"type": "Feature", "geometry": {"type": "Point", "coordinates": [121.5367, 25.0048]}, "properties": {"city": "taipei", "name": "萬福國小", "indoor": "是", "address": "文山區羅斯福路5段170巷32號", "manager": "呂昌諭", "outdoor": "否", "capacity": "32", "district": "文山區", "manager_phone": "02-22393070#130", "disaster_types": "水災,震災", "vulnerable_friendly": "否"}}, {"type": "Feature", "geometry": {"type": "Point", "coordinates": [121.5497, 25.0049]}, "properties": {"city": "taipei", "name": "興福國中", "indoor": "是", "address": "文山區福興路80號", "manager": "詹琦斌", "outdoor": "否", "capacity": "300", "district": "文山區", "manager_phone": "02-29322024#400", "disaster_types": "水災,震災", "vulnerable_friendly": "否"}}, {"type": "Feature", "geometry": {"type": "Point", "coordinates": [121.5585, 25.0063]}, "properties": {"city": "taipei", "name": "辛亥國小", "indoor": "是", "address": "文山區辛亥路4段103號", "manager": "劉正湖", "outdoor": "否", "capacity": "30", "district": "文山區", "manager_phone": "02-29357282#141", "disaster_types": "水災,震災", "vulnerable_friendly": "否"}}, {"type": "Feature", "geometry": {"type": "Point", "coordinates": [121.5388, 25.0112]}, "properties": {"city": "taipei", "name": "民族國中", "indoor": "是", "address": "大安區羅斯福路4段113巷13號", "manager": "李培彰", "outdoor": "否", "capacity": "139", "district": "大安區", "manager_phone": "02-27322935#234", "disaster_types": "水災", "vulnerable_friendly": "是"}}, {"type": "Feature", "geometry": {"type": "Point", "coordinates": [121.5388, 25.0112]}, "properties": {"city": "taipei", "name": "臺北市大安運動中心", "indoor": "是", "address": "辛亥路三段55號", "manager": "鄭景中", "outdoor": "否", "capacity": "389", "district": "大安區", "manager_phone": "2570-2330轉6424", "disaster_types": "震災", "vulnerable_friendly": "否"}}, {"type": "Feature", "geometry": {"type": "Point", "coordinates": [121.5429, 25.0124]}, "properties": {"city": "taipei", "name": "公館國小", "indoor": "是", "address": "臺北市大安區基隆路4段41巷68弄2號", "manager": "柯怡安", "outdoor": "否", "capacity": "50", "district": "大安區", "manager_phone": "27351734#230", "disaster_types": "水災,震災", "vulnerable_friendly": "否"}}, {"type": "Feature", "geometry": {"type": "Point", "coordinates": [121.535, 25.0137]}, "properties": {"city": "taipei", "name": "臺北市中正運動中心", "indoor": "是", "address": "信義路一段1號", "manager": "紀孟祺", "outdoor": "否", "capacity": "250", "district": "中正區", "manager_phone": "02-25702330-6427", "disaster_types": "震災", "vulnerable_friendly": "否"}}, {"type": "Feature", "geometry": {"type": "Point", "coordinates": [121.5352, 25.0142]}, "properties": {"city": "taipei", "name": "銘傳國小", "indoor": "是", "address": "大安區羅斯福路4段21號", "manager": "連瑞琦", "outdoor": "否", "capacity": "161", "district": "大安區", "manager_phone": "02-23639815#16", "disaster_types": "水災,震災", "vulnerable_friendly": "否"}}, {"type": "Feature", "geometry": {"type": "Point", "coordinates": [121.5503, 25.0187]}, "properties": {"city": "taipei", "name": "芳和國中", "indoor": "是", "address": "臺北市大安區臥龍街170號", "manager": "何孟蒔", "outdoor": "否", "capacity": "30", "district": "大安區", "manager_phone": "02-27321961#501", "disaster_types": "水災,震災", "vulnerable_friendly": "是"}}, {"type": "Feature", "geometry": {"type": "Point", "coordinates": [121.5265, 25.019]}, "properties": {"city": "taipei", "name": "螢橋國中", "indoor": "是", "address": "中正區汀州路3段四號", "manager": "陳正泰", "outdoor": "否", "capacity": "52", "district": "中正區", "manager_phone": "02-23688667#230", "disaster_types": "水災", "vulnerable_friendly": "否"}}, {"type": "Feature", "geometry": {"type": "Point", "coordinates": [121.5496, 25.0195]}, "properties": {"city": "taipei", "name": "大安國小", "indoor": "是", "address": "臺北市大安區臥龍街129號", "manager": "楊金龍", "outdoor": "否", "capacity": "60", "district": "大安區", "manager_phone": "02-27322332#831", "disaster_types": "水災", "vulnerable_friendly": "否"}}, {"type": "Feature", "geometry": {"type": "Point", "coordinates": [121.5491, 25.0196]}, "properties": {"city": "taipei", "name": "和平高中", "indoor": "是", "address": "大安區臥龍街100號", "manager": "楊廣銓", "outdoor": "否", "capacity": "300", "district": "大安區", "manager_phone": "02-27324300#151", "disaster_types": "水災,震災", "vulnerable_friendly": "否"}}, {"type": "Feature", "geometry": {"type": "Point", "coordinates": [121.5285, 25.0207]}, "properties": {"city": "taipei", "name": "古亭國小", "indoor": "是", "address": "大安區羅斯福路3段", "manager": "林勝和", "outdoor": "否", "capacity": "62", "district": "大安區", "manager_phone": "02-23639795#831", "disaster_types": "水災,震災", "vulnerable_friendly": "否"}}, {"type": "Feature", "geometry": {"type": "Point", "coordinates": [121.507, 25.0221]}, "properties": {"city": "taipei", "name": "青年公園", "indoor": "否", "address": "臺北市萬華區水源路199號", "manager": "呂芳金", "outdoor": "是", "capacity": "33756", "district": "萬華區", "manager_phone": "2303-2451", "disaster_types": "震災", "vulnerable_friendly": "是"}}, {"type": "Feature", "geometry": {"type": "Point", "coordinates": [121.4993, 25.023]}, "properties": {"city": "taipei", "name": "萬大國小", "indoor": "是", "address": "大同區萬大路346號", "manager": "李惠怡", "outdoor": "否", "capacity": "66", "district": "萬華區", "manager_phone": "02-23037654#312", "disaster_types": "水災,震災", "vulnerable_friendly": "否"}}, {"type": "Feature", "geometry": {"type": "Point", "coordinates": [121.4978, 25.0231]}, "properties": {"city": "taipei", "name": "青年公園棒球場", "indoor": "是", "address": "水源路199號", "manager": "楊璟嘉", "outdoor": "否", "capacity": "68", "district": "萬華區", "manager_phone": "02-25702330#6507", "disaster_types": "震災", "vulnerable_friendly": "否"}}, {"type": "Feature", "geometry": {"type": "Point", "coordinates": [121.4978, 25.0231]}, "properties": {"city": "taipei", "name": "東園國小", "indoor": "是", "address": "臺北市萬華區東園街195號", "manager": "張瑞庭", "outdoor": "否", "capacity": "102", "district": "萬華區", "manager_phone": "02-23034803#1501", "disaster_types": "震災", "vulnerable_friendly": "否"}}, {"type": "Feature", "geometry": {"type": "Point", "coordinates": [121.4978, 25.0231]}, "properties": {"city": "taipei", "name": "臺北市萬華運動中心", "indoor": "是", "address": "西寧南路6之1號", "manager": "莊耘", "outdoor": "否", "capacity": "226", "district": "萬華區", "manager_phone": "2570-2330轉6429", "disaster_types": "震災", "vulnerable_friendly": "否"}}, {"type": "Feature", "geometry": {"type": "Point", "coordinates": [121.5226, 25.0232]}, "properties": {"city": "taipei", "name": "河堤國小", "indoor": "是", "address": "中正區汀州路2段180號", "manager": "陳昱至", "outdoor": "否", "capacity": "30", "district": "中正區", "manager_phone": "02-23677144#831", "disaster_types": "水災,震災", "vulnerable_friendly": "否"}}, {"type": "Feature", "geometry": {"type": "Point", "coordinates": [121.5348, 25.0239]}, "properties": {"city": "taipei", "name": "龍安國小", "indoor": "是", "address": "大安區新生南路3段33號", "manager": "張振茂", "outdoor": "否", "capacity": "120", "district": "大安區", "manager_phone": "02-23632077#730", "disaster_types": "水災,震災", "vulnerable_friendly": "是"}}, {"type": "Feature", "geometry": {"type": "Point", "coordinates": [121.5106, 25.0246]}, "properties": {"city": "taipei", "name": "古亭國中", "indoor": "是", "address": "中正區中華路2段465號", "manager": "顏錦江", "outdoor": "否", "capacity": "66", "district": "中正區", "manager_phone": "02-23090986#510", "disaster_types": "水災,震災", "vulnerable_friendly": "是"}}, {"type": "Feature", "geometry": {"type": "Point", "coordinates": [121.5144, 25.0249]}, "properties": {"city": "taipei", "name": "螢橋國小", "indoor": "是", "address": "中正區詔安街29號", "manager": "王昭傑", "outdoor": "否", "capacity": "63", "district": "中正區", "manager_phone": "23054620109", "disaster_types": "水災,震災", "vulnerable_friendly": "否"}}, {"type": "Feature", "geometry": {"type": "Point", "coordinates": [121.538, 25.0249]}, "properties": {"city": "taipei", "name": "龍門國中", "indoor": "是", "address": "大安區建國南路2段269號", "manager": "金多齊", "outdoor": "否", "capacity": "300", "district": "大安區", "manager_phone": "02-27330299#1402", "disaster_types": "震災", "vulnerable_friendly": "否"}}, {"type": "Feature", "geometry": {"type": "Point", "coordinates": [121.5033, 25.026]}, "properties": {"city": "taipei", "name": "新和國小", "indoor": "是", "address": "萬華區西藏路125巷31號", "manager": "梁世建", "outdoor": "否", "capacity": "79", "district": "萬華區", "manager_phone": "02-23038298#31", "disaster_types": "震災", "vulnerable_friendly": "是"}}, {"type": "Feature", "geometry": {"type": "Point", "coordinates": [121.5686, 25.026]}, "properties": {"city": "taipei", "name": "吳興國小", "indoor": "是", "address": "臺北市信義區松仁路226號", "manager": "吳次寶", "outdoor": "否", "capacity": "60", "district": "信義區", "manager_phone": "27200226#50", "disaster_types": "土石流", "vulnerable_friendly": "否"}}, {"type": "Feature", "geometry": {"type": "Point", "coordinates": [121.4988, 25.0266]}, "properties": {"city": "taipei", "name": "西園國小", "indoor": "是", "address": "萬華區東園街73巷23號6樓", "manager": "林淑華", "outdoor": "否", "capacity": "30", "district": "萬華區", "manager_phone": "02-23030257#125", "disaster_types": "水災,震災", "vulnerable_friendly": "否"}}, {"type": "Feature", "geometry": {"type": "Point", "coordinates": [121.4927, 25.0276]}, "properties": {"city": "taipei", "name": "雙園國中", "indoor": "是", "address": "萬華區興義街2號", "manager": "章譽鐘", "outdoor": "否", "capacity": "30", "district": "萬華區", "manager_phone": "02-23030827#140", "disaster_types": "水災,震災", "vulnerable_friendly": "是"}}, {"type": "Feature", "geometry": {"type": "Point", "coordinates": [121.4962, 25.0285]}, "properties": {"city": "taipei", "name": "華江高中", "indoor": "是", "address": "萬華區西藏路213號", "manager": "陳昭葳", "outdoor": "否", "capacity": "300", "district": "萬華區", "manager_phone": "02-23019946#105", "disaster_types": "水災,震災", "vulnerable_friendly": "否"}}, {"type": "Feature", "geometry": {"type": "Point", "coordinates": [121.5679, 25.0286]}, "properties": {"city": "taipei", "name": "信義國中", "indoor": "是", "address": "信義區松仁路158巷1號", "manager": "劉志賢", "outdoor": "否", "capacity": "361", "district": "信義區", "manager_phone": "02-27236771#511", "disaster_types": "水災", "vulnerable_friendly": "是"}}, {"type": "Feature", "geometry": {"type": "Point", "coordinates": [121.4987, 25.0291]}, "properties": {"city": "taipei", "name": "萬華國中", "indoor": "是", "address": "萬華區西藏路201號", "manager": "張幸愉", "outdoor": "否", "capacity": "50", "district": "萬華區", "manager_phone": "02-23394567#130", "disaster_types": "水災,震災", "vulnerable_friendly": "否"}}, {"type": "Feature", "geometry": {"type": "Point", "coordinates": [121.5461, 25.0294]}, "properties": {"city": "taipei", "name": "建安國小", "indoor": "是", "address": "大安區大安路2段99號", "manager": "李昀容", "outdoor": "否", "capacity": "30", "district": "大安區", "manager_phone": "02-27077719#140", "disaster_types": "水災,震災", "vulnerable_friendly": "否"}}, {"type": "Feature", "geometry": {"type": "Point", "coordinates": [121.5062, 25.0296]}, "properties": {"city": "taipei", "name": "忠義國小", "indoor": "是", "address": "中正區中華路2段307巷17號", "manager": "范綱發", "outdoor": "否", "capacity": "100", "district": "中正區", "manager_phone": "02-23038752#230", "disaster_types": "水災", "vulnerable_friendly": "否"}}, {"type": "Feature", "geometry": {"type": "Point", "coordinates": [121.5045, 25.0297]}, "properties": {"city": "taipei", "name": "中華區民活動中心", "indoor": "是", "address": "中華路2段291號地下室", "manager": "張為閔", "outdoor": "否", "capacity": "35", "district": "中正區", "manager_phone": "02-23416721", "disaster_types": "水災,震災", "vulnerable_friendly": "否"}}, {"type": "Feature", "geometry": {"type": "Point", "coordinates": [121.558, 25.0297]}, "properties": {"city": "taipei", "name": "三興國小", "indoor": "是", "address": "信義區基隆路2段99號", "manager": "蘇雪玲", "outdoor": "否", "capacity": "77", "district": "信義區", "manager_phone": "27364687#51", "disaster_types": "水災,震災", "vulnerable_friendly": "否"}}, {"type": "Feature", "geometry": {"type": "Point", "coordinates": [121.5354, 25.0301]}, "properties": {"city": "taipei", "name": "大安森林公園", "indoor": "否", "address": "臺北市大安區新生南路以東、信義路3段以南", "manager": "呂芳金", "outdoor": "是", "capacity": "47436", "district": "大安區", "manager_phone": "2303-2451", "disaster_types": "震災", "vulnerable_friendly": "是"}}, {"type": "Feature", "geometry": {"type": "Point", "coordinates": [121.5335, 25.0304]}, "properties": {"city": "taipei", "name": "新生國小", "indoor": "是", "address": "大安區新生南路2段36號", "manager": "吳盈瑩", "outdoor": "否", "capacity": "35", "district": "大安區", "manager_phone": "02-23913122#230", "disaster_types": "水災,震災", "vulnerable_friendly": "否"}}, {"type": "Feature", "geometry": {"type": "Point", "coordinates": [121.5462, 25.0307]}, "properties": {"city": "taipei", "name": "大安國中", "indoor": "是", "address": "大安區大安路2段63號", "manager": "林志豪", "outdoor": "否", "capacity": "274", "district": "大安區", "manager_phone": "02-27557131#103", "disaster_types": "水災,震災", "vulnerable_friendly": "否"}}, {"type": "Feature", "geometry": {"type": "Point", "coordinates": [121.4913, 25.0308]}, "properties": {"city": "taipei", "name": "大理高中", "indoor": "是", "address": "萬華區長順街2號", "manager": "洪焌維", "outdoor": "否", "capacity": "300", "district": "萬華區", "manager_phone": "02-23026959#141", "disaster_types": "水災,震災", "vulnerable_friendly": "是"}}, {"type": "Feature", "geometry": {"type": "Point", "coordinates": [121.4975, 25.0309]}, "properties": {"city": "taipei", "name": "雙園國小", "indoor": "是", "address": "萬華區莒光路315號", "manager": "魯俊賢", "outdoor": "否", "capacity": "109", "district": "萬華區", "manager_phone": "02-23061893#131", "disaster_types": "水災", "vulnerable_friendly": "是"}}, {"type": "Feature", "geometry": {"type": "Point", "coordinates": [121.511, 25.0309]}, "properties": {"city": "taipei", "name": "國語實小", "indoor": "是", "address": "中正區南海路58號", "manager": "匡秀蘭", "outdoor": "否", "capacity": "49", "district": "中正區", "manager_phone": "23033555轉600", "disaster_types": "水災,震災", "vulnerable_friendly": "是"}}, {"type": "Feature", "geometry": {"type": "Point", "coordinates": [121.4938, 25.0312]}, "properties": {"city": "taipei", "name": "大理國小", "indoor": "是", "address": "萬華區艋舺大道389號", "manager": "郭渝葶", "outdoor": "否", "capacity": "84", "district": "萬華區", "manager_phone": "23064311#1400", "disaster_types": "水災,震災", "vulnerable_friendly": "否"}}, {"type": "Feature", "geometry": {"type": "Point", "coordinates": [121.5122, 25.0312]}, "properties": {"city": "taipei", "name": "建國中學", "indoor": "是", "address": "中正區南海路56號", "manager": "王鼎中", "outdoor": "否", "capacity": "300", "district": "中正區", "manager_phone": "02-23034381#501", "disaster_types": "水災,震災", "vulnerable_friendly": "否"}}, {"type": "Feature", "geometry": {"type": "Point", "coordinates": [121.5331, 25.0312]}, "properties": {"city": "taipei", "name": "金華國中", "indoor": "是", "address": "大安區新生南路2段32號", "manager": "侯姿吟", "outdoor": "否", "capacity": "300", "district": "大安區", "manager_phone": "02-33931799#501", "disaster_types": "水災,震災", "vulnerable_friendly": "是"}}, {"type": "Feature", "geometry": {"type": "Point", "coordinates": [121.5632, 25.0318]}, "properties": {"city": "taipei", "name": "信義國小", "indoor": "是", "address": "信義區松勤街60號", "manager": "蔡育婷", "outdoor": "否", "capacity": "150", "district": "信義區", "manager_phone": "02-27204005#832", "disaster_types": "水災", "vulnerable_friendly": "否"}}, {"type": "Feature", "geometry": {"type": "Point", "coordinates": [121.5432, 25.0319]}, "properties": {"city": "taipei", "name": "大安高工", "indoor": "是", "address": "大安區復興南路2段52號", "manager": "劉家豪", "outdoor": "否", "capacity": "100", "district": "大安區", "manager_phone": "02-27091630#1401", "disaster_types": "水災,震災", "vulnerable_friendly": "否"}}, {"type": "Feature", "geometry": {"type": "Point", "coordinates": [121.5277, 25.0322]}, "properties": {"city": "taipei", "name": "金華國小", "indoor": "是", "address": "大安區愛國東路79巷11號", "manager": "游秀靜", "outdoor": "否", "capacity": "56", "district": "大安區", "manager_phone": "02-23917402#830", "disaster_types": "水災,震災", "vulnerable_friendly": "是"}}, {"type": "Feature", "geometry": {"type": "Point", "coordinates": [121.5221, 25.0323]}, "properties": {"city": "taipei", "name": "中正國中", "indoor": "是", "address": "中正區愛國東路158號", "manager": "朱文源", "outdoor": "否", "capacity": "300", "district": "中正區", "manager_phone": "02-23916697#501", "disaster_types": "水災,震災", "vulnerable_friendly": "是"}}, {"type": "Feature", "geometry": {"type": "Point", "coordinates": [121.5786, 25.0327]}, "properties": {"city": "taipei", "name": "永春高中", "indoor": "是", "address": "信義區松山路654號", "manager": "劉育成", "outdoor": "否", "capacity": "300", "district": "信義區", "manager_phone": "27272983#501", "disaster_types": "水災,震災", "vulnerable_friendly": "否"}}, {"type": "Feature", "geometry": {"type": "Point", "coordinates": [121.4912, 25.0341]}, "properties": {"city": "taipei", "name": "華江國小", "indoor": "是", "address": "萬華區環河南路2段250巷42弄2號", "manager": "吳瓊慧", "outdoor": "否", "capacity": "37", "district": "萬華區", "manager_phone": "02-23064352#14", "disaster_types": "水災,震災", "vulnerable_friendly": "否"}}, {"type": "Feature", "geometry": {"type": "Point", "coordinates": [121.5801, 25.0348]}, "properties": {"city": "taipei", "name": "松山家商", "indoor": "是", "address": "信義區松山路655號", "manager": "唐培培", "outdoor": "否", "capacity": "116", "district": "信義區", "manager_phone": "02-27261118#411", "disaster_types": "水災,震災", "vulnerable_friendly": "是"}}, {"type": "Feature", "geometry": {"type": "Point", "coordinates": [121.5091, 25.0352]}, "properties": {"city": "taipei", "name": "南門國小", "indoor": "是", "address": "中正區廣州街6號", "manager": "林育農", "outdoor": "否", "capacity": "30", "district": "中正區", "manager_phone": "02-23715052#401", "disaster_types": "水災,震災", "vulnerable_friendly": "否"}}, {"type": "Feature", "geometry": {"type": "Point", "coordinates": [121.5091, 25.0352]}, "properties": {"city": "taipei", "name": "南門國中", "indoor": "是", "address": "中正區廣州街6號", "manager": "楊啟明", "outdoor": "否", "capacity": "151", "district": "中正區", "manager_phone": "02-23142775#61", "disaster_types": "水災,震災", "vulnerable_friendly": "否"}}, {"type": "Feature", "geometry": {"type": "Point", "coordinates": [121.4962, 25.0356]}, "properties": {"city": "taipei", "name": "龍山國小", "indoor": "是", "address": "萬華區和平西路3段235號", "manager": "李志強", "outdoor": "否", "capacity": "50", "district": "萬華區", "manager_phone": "02-23082977#730", "disaster_types": "水災,震災", "vulnerable_friendly": "是"}}, {"type": "Feature", "geometry": {"type": "Point", "coordinates": [121.5733, 25.0356]}, "properties": {"city": "taipei", "name": "臺北市信義運動中心", "indoor": "是", "address": "松勤路100號", "manager": "莊耘", "outdoor": "否", "capacity": "200", "district": "信義區", "manager_phone": "2570-2330轉6429", "disaster_types": "震災", "vulnerable_friendly": "否"}}, {"type": "Feature", "geometry": {"type": "Point", "coordinates": [121.5733, 25.0356]}, "properties": {"city": "taipei", "name": "松德公園", "indoor": "否", "address": "臺北市信義區松德路180巷興雅國中西側", "manager": "高奕翔", "outdoor": "是", "capacity": "1346", "district": "信義區", "manager_phone": "02-27884255", "disaster_types": "震災", "vulnerable_friendly": "是"}}, {"type": "Feature", "geometry": {"type": "Point", "coordinates": [121.5524, 25.0358]}, "properties": {"city": "taipei", "name": "仁愛國小", "indoor": "是", "address": "大安區安和路1段60號", "manager": "林宜靜", "outdoor": "否", "capacity": "53", "district": "大安區", "manager_phone": "02-27095010#401", "disaster_types": "水災,震災", "vulnerable_friendly": "否"}}, {"type": "Feature", "geometry": {"type": "Point", "coordinates": [121.5046, 25.036]}, "properties": {"city": "taipei", "name": "龍山國中", "indoor": "是", "address": "臺北市萬華區南寧路46號", "manager": "楊炳煌", "outdoor": "否", "capacity": "367", "district": "萬華區", "manager_phone": "23362789#500", "disaster_types": "水災", "vulnerable_friendly": "是"}}, {"type": "Feature", "geometry": {"type": "Point", "coordinates": [121.5711, 25.0364]}, "properties": {"city": "taipei", "name": "博愛國小", "indoor": "是", "address": "信義區松仁路95巷20號", "manager": "朱榮富", "outdoor": "否", "capacity": "80", "district": "信義區", "manager_phone": "23450616#400", "disaster_types": "震災", "vulnerable_friendly": "否"}}, {"type": "Feature", "geometry": {"type": "Point", "coordinates": [121.5723, 25.0364]}, "properties": {"city": "taipei", "name": "興雅國中", "indoor": "是", "address": "信義區松德路168巷15號", "manager": "柯景煌", "outdoor": "否", "capacity": "151", "district": "信義區", "manager_phone": "02-27232771#500", "disaster_types": "震災", "vulnerable_friendly": "是"}}, {"type": "Feature", "geometry": {"type": "Point", "coordinates": [121.5853, 25.0371]}, "properties": {"city": "taipei", "name": "?公國中", "indoor": "是", "address": "臺北市信義區福德街221巷15號", "manager": "黃福全", "outdoor": "否", "capacity": "30", "district": "信義區", "manager_phone": "02-27261481#400", "disaster_types": "水災,震災", "vulnerable_friendly": "否"}}, {"type": "Feature", "geometry": {"type": "Point", "coordinates": [121.5153, 25.0375]}, "properties": {"city": "taipei", "name": "弘道國中", "indoor": "是", "address": "中正區公園路21號", "manager": "林鴻儒", "outdoor": "否", "capacity": "87", "district": "中正區", "manager_phone": "02-23715520#500", "disaster_types": "震災", "vulnerable_friendly": "否"}}, {"type": "Feature", "geometry": {"type": "Point", "coordinates": [121.5507, 25.0375]}, "properties": {"city": "taipei", "name": "仁愛國中", "indoor": "是", "address": "大安區仁愛路4段130號", "manager": "廖志偉", "outdoor": "否", "capacity": "125", "district": "大安區", "manager_phone": "02-23255823#168", "disaster_types": "水災,震災", "vulnerable_friendly": "否"}}, {"type": "Feature", "geometry": {"type": "Point", "coordinates": [121.535, 25.0376]}, "properties": {"city": "taipei", "name": "幸安國小", "indoor": "是", "address": "大安區仁愛路3段22號", "manager": "林冠廷", "outdoor": "否", "capacity": "200", "district": "大安區", "manager_phone": "02-27074191#3300", "disaster_types": "震災", "vulnerable_friendly": "是"}}, {"type": "Feature", "geometry": {"type": "Point", "coordinates": [121.5027, 25.038]}, "properties": {"city": "taipei", "name": "老松國小", "indoor": "是", "address": "臺北市萬華區桂林路64號", "manager": "湯順禎", "outdoor": "否", "capacity": "50", "district": "萬華區", "manager_phone": "02-23361266#130", "disaster_types": "水災,震災", "vulnerable_friendly": "否"}}, {"type": "Feature", "geometry": {"type": "Point", "coordinates": [121.513, 25.0386]}, "properties": {"city": "taipei", "name": "北一女中", "indoor": "是", "address": "臺北市中正區重慶南路1段 165 號", "manager": "鄭鈺樺", "outdoor": "否", "capacity": "60", "district": "中正區", "manager_phone": "23820484#600", "disaster_types": "水災,震災", "vulnerable_friendly": "是"}}, {"type": "Feature", "geometry": {"type": "Point", "coordinates": [121.5209, 25.0387]}, "properties": {"city": "taipei", "name": "東門國小", "indoor": "是", "address": "中正區仁愛路1段2-4號", "manager": "林郁玲", "outdoor": "否", "capacity": "100", "district": "中正區", "manager_phone": "02-23413542#23", "disaster_types": "水災,震災", "vulnerable_friendly": "否"}}, {"type": "Feature", "geometry": {"type": "Point", "coordinates": [121.5865, 25.0389]}, "properties": {"city": "taipei", "name": "福德國小", "indoor": "是", "address": "信義區福德街253號", "manager": "林君豪", "outdoor": "否", "capacity": "105", "district": "信義區", "manager_phone": "02-27277992#21", "disaster_types": "水災,震災", "vulnerable_friendly": "否"}}, {"type": "Feature", "geometry": {"type": "Point", "coordinates": [121.5225, 25.0394]}, "properties": {"city": "taipei", "name": "財團法人臺北市東和禪寺", "indoor": "是", "address": "仁愛路一段21-33號", "manager": "釋修慧", "outdoor": "否", "capacity": "30", "district": "中正區", "manager_phone": "23934598", "disaster_types": "水災,震災", "vulnerable_friendly": "否"}}, {"type": "Feature", "geometry": {"type": "Point", "coordinates": [121.572, 25.0398]}, "properties": {"city": "taipei", "name": "松山工農", "indoor": "是", "address": "臺北市信義區忠孝東路5段236巷15號", "manager": "鄭才新", "outdoor": "否", "capacity": "50", "district": "信義區", "manager_phone": "27226616#601", "disaster_types": "水災,震災", "vulnerable_friendly": "否"}}, {"type": "Feature", "geometry": {"type": "Point", "coordinates": [121.5578, 25.0402]}, "properties": {"city": "taipei", "name": "光復國小", "indoor": "是", "address": "臺北市信義區光復南路271號", "manager": "吳建億", "outdoor": "否", "capacity": "40", "district": "信義區", "manager_phone": "27585076#830", "disaster_types": "水災,震災", "vulnerable_friendly": "是"}}, {"type": "Feature", "geometry": {"type": "Point", "coordinates": [121.61735, 25.040245]}, "properties": {"city": "taipei", "name": "舊庄國小", "indoor": "否", "address": "舊莊街一段100號", "manager": "林思瀅", "outdoor": "否", "capacity": "92", "district": "南港區", "manager_phone": "922424372", "disaster_types": "", "vulnerable_friendly": "否"}}, {"type": "Feature", "geometry": {"type": "Point", "coordinates": [121.5156, 25.0403]}, "properties": {"city": "taipei", "name": "二二八和平公園", "indoor": "否", "address": "臺北市中正區-凱達格蘭大道3號", "manager": "呂芳金", "outdoor": "是", "capacity": "7909", "district": "中正區", "manager_phone": "2303-2451", "disaster_types": "震災", "vulnerable_friendly": "是"}}, {"type": "Feature", "geometry": {"type": "Point", "coordinates": [121.5412, 25.0403]}, "properties": {"city": "taipei", "name": "懷生國中", "indoor": "是", "address": "大安區忠孝東路3段248巷30號", "manager": "謝淑慧", "outdoor": "否", "capacity": "300", "district": "大安區", "manager_phone": "02-27215078#330", "disaster_types": "水災,震災", "vulnerable_friendly": "否"}}, {"type": "Feature", "geometry": {"type": "Point", "coordinates": [121.5238, 25.0424]}, "properties": {"city": "taipei", "name": "成功高中", "indoor": "是", "address": "臺北市中正區濟南路1段71號", "manager": "鄭隆傑", "outdoor": "否", "capacity": "30", "district": "中正區", "manager_phone": "23216256#231", "disaster_types": "水災,震災", "vulnerable_friendly": "否"}}, {"type": "Feature", "geometry": {"type": "Point", "coordinates": [121.6172, 25.0424]}, "properties": {"city": "taipei", "name": "胡適國小", "indoor": "是", "address": "南港區舊莊街1段1號", "manager": "陳谷易", "outdoor": "否", "capacity": "30", "district": "南港區", "manager_phone": "02-27824949#930", "disaster_types": "水災,震災", "vulnerable_friendly": "是"}}, {"type": "Feature", "geometry": {"type": "Point", "coordinates": [121.5317, 25.0428]}, "properties": {"city": "taipei", "name": "忠孝國小", "indoor": "是", "address": "中正區忠孝東路2段101號", "manager": "林瑞慧", "outdoor": "否", "capacity": "30", "district": "中正區", "manager_phone": "02-23918170#832", "disaster_types": "水災,震災", "vulnerable_friendly": "否"}}, {"type": "Feature", "geometry": {"type": "Point", "coordinates": [121.5791, 25.043]}, "properties": {"city": "taipei", "name": "永吉國小", "indoor": "是", "address": "信義區松山路287巷5號", "manager": "宋宏毅", "outdoor": "否", "capacity": "53", "district": "信義區", "manager_phone": "87858111#700", "disaster_types": "水災,震災", "vulnerable_friendly": "否"}}, {"type": "Feature", "geometry": {"type": "Point", "coordinates": [121.5035, 25.0432]}, "properties": {"city": "taipei", "name": "西門國小", "indoor": "是", "address": "萬華區成都路98號", "manager": "籃玉君", "outdoor": "否", "capacity": "95", "district": "萬華區", "manager_phone": "02-23113519#1131", "disaster_types": "水災,震災", "vulnerable_friendly": "是"}}, {"type": "Feature", "geometry": {"type": "Point", "coordinates": [121.5658, 25.0439]}, "properties": {"city": "taipei", "name": "松山高中", "indoor": "是", "address": "信義區基隆路1段156號", "manager": "莊明煌", "outdoor": "否", "capacity": "300", "district": "信義區", "manager_phone": "27535968-268", "disaster_types": "水災,震災", "vulnerable_friendly": "是"}}, {"type": "Feature", "geometry": {"type": "Point", "coordinates": [121.5789, 25.0447]}, "properties": {"city": "taipei", "name": "永春國小", "indoor": "是", "address": "信義區松山路225巷48號", "manager": "朱榮富", "outdoor": "否", "capacity": "115", "district": "信義區", "manager_phone": "02-27641314#630", "disaster_types": "水災,震災", "vulnerable_friendly": "否"}}, {"type": "Feature", "geometry": {"type": "Point", "coordinates": [121.5509, 25.0449]}, "properties": {"city": "taipei", "name": "臺北田徑場", "indoor": "否", "address": "臺北市松山區敦化北路3號", "manager": "陳亭孜", "outdoor": "是", "capacity": "440", "district": "松山區", "manager_phone": "02-25702330#6513", "disaster_types": "水災,震災", "vulnerable_friendly": "否"}}, {"type": "Feature", "geometry": {"type": "Point", "coordinates": [121.587751, 25.045069]}, "properties": {"city": "taipei", "name": "成德國中", "indoor": "否", "address": "臺北市南港區東新街108巷23號", "manager": "陳章玄", "outdoor": "否", "capacity": "300", "district": "南港區", "manager_phone": "02-26515636#401", "disaster_types": "", "vulnerable_friendly": "否"}}, {"type": "Feature", "geometry": {"type": "Point", "coordinates": [121.5417, 25.0453]}, "properties": {"city": "taipei", "name": "懷生國小", "indoor": "是", "address": "中山區安東街16巷2號", "manager": "曾韻任", "outdoor": "否", "capacity": "30", "district": "中山區", "manager_phone": "02-27710846#510", "disaster_types": "水災,震災", "vulnerable_friendly": "否"}}, {"type": "Feature", "geometry": {"type": "Point", "coordinates": [121.5896, 25.0455]}, "properties": {"city": "taipei", "name": "修德國小", "indoor": "是", "address": "東新街118巷86號", "manager": "張雅祺", "outdoor": "否", "capacity": "95", "district": "南港區", "manager_phone": "02-27880500#151", "disaster_types": "水災,震災", "vulnerable_friendly": "否"}}, {"type": "Feature", "geometry": {"type": "Point", "coordinates": [121.5912, 25.0458]}, "properties": {"city": "taipei", "name": "南港公園", "indoor": "否", "address": "東新街170-1號", "manager": "高奕翔", "outdoor": "是", "capacity": "8661", "district": "南港區", "manager_phone": "02-27884255", "disaster_types": "震災", "vulnerable_friendly": "是"}}, {"type": "Feature", "geometry": {"type": "Point", "coordinates": [121.5089, 25.0463]}, "properties": {"city": "taipei", "name": "福星國小", "indoor": "是", "address": "萬華區中華路1段66號", "manager": "蘇鈺琇", "outdoor": "否", "capacity": "50", "district": "萬華區", "manager_phone": "02-23144668#106", "disaster_types": "水災,震災", "vulnerable_friendly": "否"}}, {"type": "Feature", "geometry": {"type": "Point", "coordinates": [121.5822, 25.0466]}, "properties": {"city": "taipei", "name": "臺北市南港運動中心", "indoor": "是", "address": "臺北市南港區玉成街69號", "manager": "林美如", "outdoor": "否", "capacity": "240", "district": "南港區", "manager_phone": "25702330#6425", "disaster_types": "水災,震災", "vulnerable_friendly": "否"}}, {"type": "Feature", "geometry": {"type": "Point", "coordinates": [121.5701, 25.0467]}, "properties": {"city": "taipei", "name": "興雅國小", "indoor": "是", "address": "信義區基隆路1段83巷9號", "manager": "吳杏惠", "outdoor": "否", "capacity": "198", "district": "信義區", "manager_phone": "02-27618156~611", "disaster_types": "水災,震災", "vulnerable_friendly": "否"}}, {"type": "Feature", "geometry": {"type": "Point", "coordinates": [121.5869, 25.0469]}, "properties": {"city": "taipei", "name": "成德國小", "indoor": "是", "address": "南港區東新街65號", "manager": "吳錫賓", "outdoor": "否", "capacity": "200", "district": "南港區", "manager_phone": "02-27851376#151", "disaster_types": "水災,震災", "vulnerable_friendly": "否"}}, {"type": "Feature", "geometry": {"type": "Point", "coordinates": [121.5741, 25.0483]}, "properties": {"city": "taipei", "name": "永吉國中", "indoor": "是", "address": "信義區松隆路161號", "manager": "黃獻司", "outdoor": "否", "capacity": "97", "district": "信義區", "manager_phone": "02-27649066#120", "disaster_types": "水災,震災", "vulnerable_friendly": "是"}}, {"type": "Feature", "geometry": {"type": "Point", "coordinates": [121.5371, 25.0485]}, "properties": {"city": "taipei", "name": "中山女中", "indoor": "是", "address": "中山區長安東路2段141號", "manager": "陳倉翊", "outdoor": "否", "capacity": "135", "district": "中山區", "manager_phone": "2507-3148#241", "disaster_types": "水災,震災", "vulnerable_friendly": "否"}}, {"type": "Feature", "geometry": {"type": "Point", "coordinates": [121.5611, 25.0487]}, "properties": {"city": "taipei", "name": "中崙高中", "indoor": "是", "address": "松山區八德路4段101號", "manager": "呂虹毅", "outdoor": "否", "capacity": "300", "district": "松山區", "manager_phone": "02-27535316#400", "disaster_types": "水災,震災", "vulnerable_friendly": "否"}}, {"type": "Feature", "geometry": {"type": "Point", "coordinates": [121.5501, 25.049]}, "properties": {"city": "taipei", "name": "臺北市松山運動中心", "indoor": "是", "address": "臺北市松山區敦化北路1號", "manager": "劉宜庭", "outdoor": "否", "capacity": "180", "district": "松山區", "manager_phone": "02-25702330#6423", "disaster_types": "水災,震災", "vulnerable_friendly": "否"}}, {"type": "Feature", "geometry": {"type": "Point", "coordinates": [121.5485, 25.0491]}, "properties": {"city": "taipei", "name": "敦化國小", "indoor": "是", "address": "松山區敦化北路2號", "manager": "王培成", "outdoor": "否", "capacity": "56", "district": "松山區", "manager_phone": "2741-4065#130", "disaster_types": "水災,震災", "vulnerable_friendly": "否"}}, {"type": "Feature", "geometry": {"type": "Point", "coordinates": [121.5319, 25.0494]}, "properties": {"city": "taipei", "name": "長安國中", "indoor": "是", "address": "中山區松江路70巷11號", "manager": "張吉元", "outdoor": "否", "capacity": "41", "district": "中山區", "manager_phone": "02-25112382#106", "disaster_types": "水災,震災", "vulnerable_friendly": "否"}}, {"type": "Feature", "geometry": {"type": "Point", "coordinates": [121.5302, 25.0497]}, "properties": {"city": "taipei", "name": "長安國小", "indoor": "是", "address": "中山區吉林路15號", "manager": "?泰安", "outdoor": "否", "capacity": "300", "district": "中山區", "manager_phone": "25617600#130", "disaster_types": "水災,震災", "vulnerable_friendly": "否"}}, {"type": "Feature", "geometry": {"type": "Point", "coordinates": [121.5077, 25.0498]}, "properties": {"city": "taipei", "name": "玉泉公園", "indoor": "否", "address": "臺北市大同區西寧北路28號", "manager": "林瑞清", "outdoor": "是", "capacity": "2183", "district": "大同區", "manager_phone": "25850192#222", "disaster_types": "震災", "vulnerable_friendly": "是"}}, {"type": "Feature", "geometry": {"type": "Point", "coordinates": [121.5197, 25.0503]}, "properties": {"city": "taipei", "name": "建成國中", "indoor": "是", "address": "臺北市大同區長安西路37之1號", "manager": "鄭惠文", "outdoor": "否", "capacity": "55", "district": "大同區", "manager_phone": "25587042#650", "disaster_types": "水災,震災", "vulnerable_friendly": "否"}}, {"type": "Feature", "geometry": {"type": "Point", "coordinates": [121.5402, 25.0506]}, "properties": {"city": "taipei", "name": "中正國小", "indoor": "是", "address": "中山區龍江路62號", "manager": "鄭博仁", "outdoor": "否", "capacity": "76", "district": "中山區", "manager_phone": "02-25070932#105", "disaster_types": "水災,震災", "vulnerable_friendly": "否"}}, {"type": "Feature", "geometry": {"type": "Point", "coordinates": [121.5082, 25.0512]}, "properties": {"city": "taipei", "name": "忠孝國中", "indoor": "是", "address": "大同區西寧北路32號", "manager": "虞慧欣", "outdoor": "否", "capacity": "131", "district": "大同區", "manager_phone": "02-25524890#71", "disaster_types": "水災,震災", "vulnerable_friendly": "是"}}, {"type": "Feature", "geometry": {"type": "Point", "coordinates": [121.5793, 25.0512]}, "properties": {"city": "taipei", "name": "松山國小", "indoor": "是", "address": "松山區八德路4段746號", "manager": "蔡任哲", "outdoor": "否", "capacity": "95", "district": "松山區", "manager_phone": "02-27672907#632", "disaster_types": "水災,震災", "vulnerable_friendly": "否"}}, {"type": "Feature", "geometry": {"type": "Point", "coordinates": [121.5468, 25.0515]}, "properties": {"city": "taipei", "name": "敦化國中", "indoor": "是", "address": "松山區南京東路3段300號", "manager": "詹琦斌", "outdoor": "否", "capacity": "389", "district": "松山區", "manager_phone": "02-87717890#50", "disaster_types": "水災", "vulnerable_friendly": "否"}}, {"type": "Feature", "geometry": {"type": "Point", "coordinates": [121.5446, 25.0517]}, "properties": {"city": "taipei", "name": "臺北體育館", "indoor": "是", "address": "臺北市松山區南京東路4段10號", "manager": "江丹桂", "outdoor": "否", "capacity": "1000", "district": "松山區", "manager_phone": "02-25702330#6512", "disaster_types": "水災,震災", "vulnerable_friendly": "否"}}, {"type": "Feature", "geometry": {"type": "Point", "coordinates": [121.6073, 25.0519]}, "properties": {"city": "taipei", "name": "臺北市極限運動訓練中心", "indoor": "是", "address": "臺北市南港區忠孝東路七段382號", "manager": "余可文", "outdoor": "否", "capacity": "50", "district": "南港區", "manager_phone": "02-25702330#6511", "disaster_types": "震災", "vulnerable_friendly": "否"}}, {"type": "Feature", "geometry": {"type": "Point", "coordinates": [121.5636, 25.0522]}, "properties": {"city": "taipei", "name": "西松國小", "indoor": "是", "address": "臺北市松山區三民路5號", "manager": "羅文琪", "outdoor": "否", "capacity": "50", "district": "松山區", "manager_phone": "27609221#203", "disaster_types": "水災,震災", "vulnerable_friendly": "否"}}, {"type": "Feature", "geometry": {"type": "Point", "coordinates": [121.595, 25.0525]}, "properties": {"city": "taipei", "name": "南港高中", "indoor": "是", "address": "南港區向陽路21號", "manager": "陳政翊", "outdoor": "否", "capacity": "435", "district": "南港區", "manager_phone": "02-27837863#241", "disaster_types": "水災,震災", "vulnerable_friendly": "是"}}, {"type": "Feature", "geometry": {"type": "Point", "coordinates": [121.594769, 25.05364]}, "properties": {"city": "taipei", "name": "玉成國小", "indoor": "否", "address": "向陽路31號", "manager": "李奇在", "outdoor": "否", "capacity": "30", "district": "南港區", "manager_phone": "02-27836049#150", "disaster_types": "", "vulnerable_friendly": "否"}}, {"type": "Feature", "geometry": {"type": "Point", "coordinates": [121.6187, 25.0541]}, "properties": {"city": "taipei", "name": "誠正國中", "indoor": "是", "address": "南港區富康街1巷42號", "manager": "蔡銘坤", "outdoor": "否", "capacity": "143", "district": "南港區", "manager_phone": "27828094#1500", "disaster_types": "水災,震災", "vulnerable_friendly": "否"}}, {"type": "Feature", "geometry": {"type": "Point", "coordinates": [121.5296, 25.0547]}, "properties": {"city": "taipei", "name": "吉林國小", "indoor": "是", "address": "中山區長春路116號", "manager": "蕭錦玲", "outdoor": "否", "capacity": "117", "district": "中山區", "manager_phone": "02-25219196#850", "disaster_types": "水災,震災", "vulnerable_friendly": "否"}}, {"type": "Feature", "geometry": {"type": "Point", "coordinates": [121.5339, 25.0549]}, "properties": {"city": "taipei", "name": "長春國小", "indoor": "是", "address": "中山區長春路165號", "manager": "陳瑞呈", "outdoor": "否", "capacity": "47", "district": "中山區", "manager_phone": "02-25024366#151", "disaster_types": "水災,震災", "vulnerable_friendly": "否"}}, {"type": "Feature", "geometry": {"type": "Point", "coordinates": [121.5351, 25.055]}, "properties": {"city": "taipei", "name": "大同高中", "indoor": "是", "address": "中山區長春路167號", "manager": "吳榮達", "outdoor": "否", "capacity": "300", "district": "中山區", "manager_phone": "02-25054269#130", "disaster_types": "水災,震災", "vulnerable_friendly": "否"}}, {"type": "Feature", "geometry": {"type": "Point", "coordinates": [121.5167, 25.0553]}, "properties": {"city": "taipei", "name": "日新國小", "indoor": "是", "address": "大同區太原路151號", "manager": "王勝威", "outdoor": "否", "capacity": "137", "district": "大同區", "manager_phone": "02-25584819#312", "disaster_types": "水災,震災", "vulnerable_friendly": "是"}}, {"type": "Feature", "geometry": {"type": "Point", "coordinates": [121.5671, 25.0556]}, "properties": {"city": "taipei", "name": "西松高中", "indoor": "是", "address": "松山區健康路325巷7號", "manager": "林成嶽", "outdoor": "否", "capacity": "255", "district": "松山區", "manager_phone": "25286618#111", "disaster_types": "水災,震災", "vulnerable_friendly": "是"}}, {"type": "Feature", "geometry": {"type": "Point", "coordinates": [121.602, 25.0562]}, "properties": {"city": "taipei", "name": "東新國小", "indoor": "是", "address": "南港區興南街62號", "manager": "王詩棠", "outdoor": "否", "capacity": "30", "district": "南港區", "manager_phone": "02-27837577#31", "disaster_types": "水災,震災", "vulnerable_friendly": "否"}}, {"type": "Feature", "geometry": {"type": "Point", "coordinates": [121.6072, 25.0563]}, "properties": {"city": "taipei", "name": "南港高工", "indoor": "是", "address": "南港區興中路29號", "manager": "林淑美", "outdoor": "否", "capacity": "160", "district": "南港區", "manager_phone": "02-27825432#1501", "disaster_types": "水災,震災", "vulnerable_friendly": "否"}}, {"type": "Feature", "geometry": {"type": "Point", "coordinates": [121.5565, 25.0564]}, "properties": {"city": "taipei", "name": "介壽國中", "indoor": "是", "address": "松山區延壽街401號", "manager": "鄭富珍", "outdoor": "否", "capacity": "70", "district": "松山區", "manager_phone": "02-27664496#500", "disaster_types": "水災,震災", "vulnerable_friendly": "否"}}, {"type": "Feature", "geometry": {"type": "Point", "coordinates": [121.5155, 25.0565]}, "properties": {"city": "taipei", "name": "蓬萊國小", "indoor": "是", "address": "大同區寧夏路35號", "manager": "張沛森", "outdoor": "否", "capacity": "104", "district": "大同區", "manager_phone": "02-25569835#500", "disaster_types": "水災,震災", "vulnerable_friendly": "否"}}, {"type": "Feature", "geometry": {"type": "Point", "coordinates": [121.552, 25.0565]}, "properties": {"city": "taipei", "name": "民生國小", "indoor": "是", "address": "松山區敦化北路199巷18號", "manager": "陳嘉瑜", "outdoor": "否", "capacity": "70", "district": "松山區", "manager_phone": "02-27122452#830", "disaster_types": "水災", "vulnerable_friendly": "否"}}, {"type": "Feature", "geometry": {"type": "Point", "coordinates": [121.5629, 25.0566]}, "properties": {"city": "taipei", "name": "健康國小", "indoor": "是", "address": "松山區延壽街168號", "manager": "江艾謙", "outdoor": "否", "capacity": "84", "district": "松山區", "manager_phone": "02-25282814#131", "disaster_types": "水災,震災", "vulnerable_friendly": "否"}}, {"type": "Feature", "geometry": {"type": "Point", "coordinates": [121.6104, 25.0575]}, "properties": {"city": "taipei", "name": "南港國小", "indoor": "是", "address": "臺北市南港區惠民街67號", "manager": "鄭孝存", "outdoor": "否", "capacity": "50", "district": "南港區", "manager_phone": "02-27834678#2301", "disaster_types": "水災,震災", "vulnerable_friendly": "否"}}, {"type": "Feature", "geometry": {"type": "Point", "coordinates": [121.6092, 25.0587]}, "properties": {"city": "taipei", "name": "育成高中", "indoor": "是", "address": "重陽路366號", "manager": "李健輝", "outdoor": "否", "capacity": "375", "district": "南港區", "manager_phone": "26530475#551", "disaster_types": "水災,震災", "vulnerable_friendly": "是"}}, {"type": "Feature", "geometry": {"type": "Point", "coordinates": [121.5519, 25.0589]}, "properties": {"city": "taipei", "name": "民族國小", "indoor": "是", "address": "臺北市松山區民生東路4段97巷7號", "manager": "蔡貞瀅", "outdoor": "否", "capacity": "40", "district": "松山區", "manager_phone": "02-27124872#935", "disaster_types": "水災,震災", "vulnerable_friendly": "否"}}, {"type": "Feature", "geometry": {"type": "Point", "coordinates": [121.5673, 25.0598]}, "properties": {"city": "taipei", "name": "民生國中", "indoor": "是", "address": "松山區新東街30巷1號", "manager": "王譽書", "outdoor": "否", "capacity": "100", "district": "松山區", "manager_phone": "02-27653433#300", "disaster_types": "水災,震災", "vulnerable_friendly": "否"}}, {"type": "Feature", "geometry": {"type": "Point", "coordinates": [121.5167, 25.0601]}, "properties": {"city": "taipei", "name": "雙蓮國小", "indoor": "是", "address": "大同區錦西街51號", "manager": "吳希哲", "outdoor": "否", "capacity": "300", "district": "大同區", "manager_phone": "02-25570309#1031", "disaster_types": "水災,震災", "vulnerable_friendly": "否"}}, {"type": "Feature", "geometry": {"type": "Point", "coordinates": [121.5455, 25.0605]}, "properties": {"city": "taipei", "name": "中山國中", "indoor": "是", "address": "松山區復興北路361巷7號", "manager": "蔡戊己", "outdoor": "否", "capacity": "111", "district": "松山區", "manager_phone": "02-27126701#501", "disaster_types": "水災,震災", "vulnerable_friendly": "否"}}, {"type": "Feature", "geometry": {"type": "Point", "coordinates": [121.5908, 25.0609]}, "properties": {"city": "taipei", "name": "潭美國小", "indoor": "是", "address": "內湖區新明路22號", "manager": "吳秉儒", "outdoor": "否", "capacity": "81", "district": "內湖區", "manager_phone": "27917334#231", "disaster_types": "水災,震災", "vulnerable_friendly": "否"}}, {"type": "Feature", "geometry": {"type": "Point", "coordinates": [121.5185, 25.0613]}, "properties": {"city": "taipei", "name": "成淵高中", "indoor": "是", "address": "大同區承德路2段235號", "manager": "歐建榮", "outdoor": "否", "capacity": "75", "district": "大同區", "manager_phone": "02-25531969#150", "disaster_types": "水災,震災", "vulnerable_friendly": "否"}}, {"type": "Feature", "geometry": {"type": "Point", "coordinates": [121.5114, 25.0614]}, "properties": {"city": "taipei", "name": "太平國小", "indoor": "是", "address": "大同區延平北路2段239號", "manager": "林世浩", "outdoor": "否", "capacity": "50", "district": "大同區", "manager_phone": "02-25532229#830", "disaster_types": "水災,震災", "vulnerable_friendly": "否"}}, {"type": "Feature", "geometry": {"type": "Point", "coordinates": [121.5111, 25.0617]}, "properties": {"city": "taipei", "name": "永樂國小", "indoor": "是", "address": "臺北市大同區延平北路2段266號", "manager": "林淑菁", "outdoor": "否", "capacity": "50", "district": "大同區", "manager_phone": "02-25534882#132", "disaster_types": "水災,震災", "vulnerable_friendly": "否"}}, {"type": "Feature", "geometry": {"type": "Point", "coordinates": [121.5575, 25.0619]}, "properties": {"city": "taipei", "name": "民權公園", "indoor": "否", "address": "臺北市松山區民權國小旁", "manager": "林瑞清", "outdoor": "是", "capacity": "2786", "district": "松山區", "manager_phone": "25850192#222", "disaster_types": "震災", "vulnerable_friendly": "是"}}, {"type": "Feature", "geometry": {"type": "Point", "coordinates": [121.5258, 25.062]}, "properties": {"city": "taipei", "name": "新生公園棒球場", "indoor": "是", "address": "新生北路三段105號", "manager": "龍欣", "outdoor": "否", "capacity": "60", "district": "中山區", "manager_phone": "02-25702330#6524", "disaster_types": "震災", "vulnerable_friendly": "否"}}, {"type": "Feature", "geometry": {"type": "Point", "coordinates": [121.5258, 25.062]}, "properties": {"city": "taipei", "name": "新興國中", "indoor": "是", "address": "中山區林森北路511號", "manager": "陳國良", "outdoor": "否", "capacity": "175", "district": "中山區", "manager_phone": "02-25714211#501", "disaster_types": "水災,震災", "vulnerable_friendly": "否"}}, {"type": "Feature", "geometry": {"type": "Point", "coordinates": [121.5258, 25.062]}, "properties": {"city": "taipei", "name": "臺北市中山運動中心", "indoor": "是", "address": "中山北路二段44巷2號", "manager": "紀孟祺", "outdoor": "否", "capacity": "184", "district": "中山區", "manager_phone": "2570-2330轉6427", "disaster_types": "震災", "vulnerable_friendly": "否"}}, {"type": "Feature", "geometry": {"type": "Point", "coordinates": [121.5623, 25.0625]}, "properties": {"city": "taipei", "name": "民權國小", "indoor": "是", "address": "臺北市松山區民權東路4段200號", "manager": "董欣樂", "outdoor": "否", "capacity": "80", "district": "松山區", "manager_phone": "02-27652327#31", "disaster_types": "震災", "vulnerable_friendly": "否"}}, {"type": "Feature", "geometry": {"type": "Point", "coordinates": [121.5402, 25.0626]}, "properties": {"city": "taipei", "name": "榮星花園公園", "indoor": "否", "address": "臺北市中山區民權東路3段1號", "manager": "林瑞清", "outdoor": "是", "capacity": "2432", "district": "中山區", "manager_phone": "02-25850192", "disaster_types": "震災", "vulnerable_friendly": "是"}}, {"type": "Feature", "geometry": {"type": "Point", "coordinates": [121.5263, 25.0629]}, "properties": {"city": "taipei", "name": "中山國小", "indoor": "是", "address": "臺北市中山區民權東路1段69號", "manager": "謝慶順", "outdoor": "否", "capacity": "290", "district": "中山區", "manager_phone": "02-25914085#36", "disaster_types": "水災", "vulnerable_friendly": "否"}}, {"type": "Feature", "geometry": {"type": "Point", "coordinates": [121.5643, 25.0633]}, "properties": {"city": "taipei", "name": "三民國小", "indoor": "是", "address": "松山區民權東路5段1號", "manager": "陳培棕", "outdoor": "否", "capacity": "100", "district": "松山區", "manager_phone": "02-27646080#231", "disaster_types": "震災", "vulnerable_friendly": "否"}}, {"type": "Feature", "geometry": {"type": "Point", "coordinates": [121.5139, 25.0635]}, "properties": {"city": "taipei", "name": "民權國中", "indoor": "是", "address": "大同區重慶北路3段1號", "manager": "洪素真", "outdoor": "否", "capacity": "30", "district": "大同區", "manager_phone": "02-25931951#130", "disaster_types": "水災,震災", "vulnerable_friendly": "否"}}, {"type": "Feature", "geometry": {"type": "Point", "coordinates": [121.5431, 25.0635]}, "properties": {"city": "taipei", "name": "五常國中", "indoor": "是", "address": "中山區復興北路430巷1號", "manager": "黃文盛", "outdoor": "否", "capacity": "250", "district": "中山區", "manager_phone": "02-25014320#102", "disaster_types": "震災", "vulnerable_friendly": "否"}}, {"type": "Feature", "geometry": {"type": "Point", "coordinates": [121.5422, 25.0642]}, "properties": {"city": "taipei", "name": "五常國小", "indoor": "是", "address": "中山區五常街16號", "manager": "龔詩為", "outdoor": "否", "capacity": "97", "district": "中山區", "manager_phone": "02-25023416#831", "disaster_types": "水災,震災", "vulnerable_friendly": "否"}}, {"type": "Feature", "geometry": {"type": "Point", "coordinates": [121.5134, 25.0643]}, "properties": {"city": "taipei", "name": "大橋國小", "indoor": "是", "address": "大同區重慶北路3段2號", "manager": "楊博仁", "outdoor": "否", "capacity": "86", "district": "大同區", "manager_phone": "02-25944413#145", "disaster_types": "水災,震災", "vulnerable_friendly": "是"}}, {"type": "Feature", "geometry": {"type": "Point", "coordinates": [121.5335, 25.0644]}, "properties": {"city": "taipei", "name": "行政區民活動中心", "indoor": "是", "address": "松江路367號9樓", "manager": "黃崇一", "outdoor": "否", "capacity": "72", "district": "中山區", "manager_phone": "02-25031369#520", "disaster_types": "水災,震災", "vulnerable_friendly": "否"}}, {"type": "Feature", "geometry": {"type": "Point", "coordinates": [121.5161, 25.0648]}, "properties": {"city": "taipei", "name": "大同國小", "indoor": "是", "address": "大同區大龍街51號", "manager": "魏子仁", "outdoor": "否", "capacity": "183", "district": "大同區", "manager_phone": "02-25965407#351", "disaster_types": "水災,震災", "vulnerable_friendly": "是"}}, {"type": "Feature", "geometry": {"type": "Point", "coordinates": [121.5124, 25.066]}, "properties": {"city": "taipei", "name": "延平國小", "indoor": "是", "address": "大同區昌吉街97號", "manager": "葉尚旻", "outdoor": "否", "capacity": "88", "district": "大同區", "manager_phone": "02-25942439#230", "disaster_types": "水災,震災", "vulnerable_friendly": "是"}}, {"type": "Feature", "geometry": {"type": "Point", "coordinates": [121.6111, 25.0669]}, "properties": {"city": "taipei", "name": "南湖高中", "indoor": "是", "address": "內湖區康寧路3段220號", "manager": "王駿騏", "outdoor": "否", "capacity": "300", "district": "內湖區", "manager_phone": "26308889#111", "disaster_types": "水災,震災", "vulnerable_friendly": "否"}}, {"type": "Feature", "geometry": {"type": "Point", "coordinates": [121.6158, 25.0685]}, "properties": {"city": "taipei", "name": "東湖國小", "indoor": "是", "address": "內湖區東湖路115號", "manager": "鄧善明", "outdoor": "否", "capacity": "155", "district": "內湖區", "manager_phone": "26339984#125", "disaster_types": "水災,震災", "vulnerable_friendly": "否"}}, {"type": "Feature", "geometry": {"type": "Point", "coordinates": [121.5887, 25.0688]}, "properties": {"city": "taipei", "name": "新湖國小", "indoor": "是", "address": "臺北市內湖區民權東路6段138號", "manager": "李之法", "outdoor": "否", "capacity": "40", "district": "內湖區", "manager_phone": "27963721#120", "disaster_types": "水災,震災", "vulnerable_friendly": "是"}}, {"type": "Feature", "geometry": {"type": "Point", "coordinates": [121.5862, 25.0691]}, "properties": {"city": "taipei", "name": "三民國中", "indoor": "是", "address": "內湖區民權東路6段45號", "manager": "涂詩珮", "outdoor": "否", "capacity": "300", "district": "內湖區", "manager_phone": "27944772#250", "disaster_types": "水災,震災", "vulnerable_friendly": "否"}}, {"type": "Feature", "geometry": {"type": "Point", "coordinates": [121.5167, 25.0693]}, "properties": {"city": "taipei", "name": "蘭州國中", "indoor": "是", "address": "大同區大龍街187巷1號", "manager": "金惠琳", "outdoor": "否", "capacity": "30", "district": "大同區", "manager_phone": "25918269#500", "disaster_types": "水災,震災", "vulnerable_friendly": "是"}}, {"type": "Feature", "geometry": {"type": "Point", "coordinates": [121.586898, 25.069324]}, "properties": {"city": "taipei", "name": "內湖區行政大樓", "indoor": "否", "address": "民權東路6段99號8樓", "manager": "盧青華", "outdoor": "否", "capacity": "170", "district": "內湖區", "manager_phone": "935578581", "disaster_types": "", "vulnerable_friendly": "否"}}, {"type": "Feature", "geometry": {"type": "Point", "coordinates": [121.6107, 25.0706]}, "properties": {"city": "taipei", "name": "南湖國小", "indoor": "是", "address": "臺北市內湖區康寧路3段200號", "manager": "溫博安", "outdoor": "否", "capacity": "50", "district": "內湖區", "manager_phone": "26321296#51", "disaster_types": "水災,震災", "vulnerable_friendly": "是"}}, {"type": "Feature", "geometry": {"type": "Point", "coordinates": [121.6107, 25.0706]}, "properties": {"city": "taipei", "name": "明湖國中", "indoor": "是", "address": "內湖區康寧路3段60號", "manager": "洪陸麒", "outdoor": "否", "capacity": "251", "district": "內湖區", "manager_phone": "26320616#510", "disaster_types": "水災,震災", "vulnerable_friendly": "否"}}, {"type": "Feature", "geometry": {"type": "Point", "coordinates": [121.6106, 25.0711]}, "properties": {"city": "taipei", "name": "明湖國小", "indoor": "是", "address": "內湖區康寧路3段105號", "manager": "向芳誼", "outdoor": "否", "capacity": "137", "district": "內湖區", "manager_phone": "26323477#41", "disaster_types": "水災,震災", "vulnerable_friendly": "是"}}, {"type": "Feature", "geometry": {"type": "Point", "coordinates": [121.6195, 25.0723]}, "properties": {"city": "taipei", "name": "東湖國中", "indoor": "是", "address": "內湖區康樂街131號", "manager": "唐廷俊", "outdoor": "否", "capacity": "138", "district": "內湖區", "manager_phone": "26330373#651", "disaster_types": "水災,震災", "vulnerable_friendly": "是"}}, {"type": "Feature", "geometry": {"type": "Point", "coordinates": [121.6013, 25.0731]}, "properties": {"city": "taipei", "name": "麗湖國小", "indoor": "是", "address": "內湖區金湖路363巷8號", "manager": "劉松育", "outdoor": "否", "capacity": "315", "district": "內湖區", "manager_phone": "26343888＃130", "disaster_types": "水災,震災", "vulnerable_friendly": "是"}}, {"type": "Feature", "geometry": {"type": "Point", "coordinates": [121.5359, 25.0733]}, "properties": {"city": "taipei", "name": "大佳國小", "indoor": "是", "address": "中山區濱江街107號", "manager": "賴佩莉", "outdoor": "否", "capacity": "30", "district": "中山區", "manager_phone": "02-25035816#110", "disaster_types": "水災,震災", "vulnerable_friendly": "是"}}, {"type": "Feature", "geometry": {"type": "Point", "coordinates": [121.5167, 25.0734]}, "properties": {"city": "taipei", "name": "大龍國小", "indoor": "是", "address": "大同區哈密街47號", "manager": "鍾燕玲", "outdoor": "否", "capacity": "30", "district": "大同區", "manager_phone": "02-25942635#838", "disaster_types": "水災,震災", "vulnerable_friendly": "否"}}, {"type": "Feature", "geometry": {"type": "Point", "coordinates": [121.5199, 25.0755]}, "properties": {"city": "taipei", "name": "明倫高中", "indoor": "是", "address": "臺北市大同區承德路3段336號", "manager": "徐榮濱", "outdoor": "否", "capacity": "70", "district": "大同區", "manager_phone": "02-25961567#151", "disaster_types": "水災,震災", "vulnerable_friendly": "否"}}, {"type": "Feature", "geometry": {"type": "Point", "coordinates": [121.5179, 25.0759]}, "properties": {"city": "taipei", "name": "重慶國中", "indoor": "是", "address": "大同區敦煌路19號", "manager": "邱貿瑞", "outdoor": "否", "capacity": "0", "district": "大同區", "manager_phone": "02-25948631#240", "disaster_types": "水災,震災", "vulnerable_friendly": "否"}}, {"type": "Feature", "geometry": {"type": "Point", "coordinates": [121.5179, 25.0759]}, "properties": {"city": "taipei", "name": "臺北市大同運動中心", "indoor": "是", "address": "大龍街51號", "manager": "鄭景中", "outdoor": "否", "capacity": "300", "district": "大同區", "manager_phone": "0225702330-6424", "disaster_types": "震災", "vulnerable_friendly": "否"}}, {"type": "Feature", "geometry": {"type": "Point", "coordinates": [121.5887, 25.077]}, "properties": {"city": "taipei", "name": "內湖國中", "indoor": "是", "address": "內湖區陽光街1號", "manager": "林慧靜", "outdoor": "否", "capacity": "233", "district": "內湖區", "manager_phone": "27900843#230", "disaster_types": "水災,震災", "vulnerable_friendly": "是"}}, {"type": "Feature", "geometry": {"type": "Point", "coordinates": [121.5617, 25.0773]}, "properties": {"city": "taipei", "name": "濱江國小", "indoor": "是", "address": "中山區樂群2路266巷99號", "manager": "卓家意", "outdoor": "否", "capacity": "114", "district": "中山區", "manager_phone": "02-85021571#1400", "disaster_types": "水災,震災", "vulnerable_friendly": "否"}}, {"type": "Feature", "geometry": {"type": "Point", "coordinates": [121.5416, 25.0778]}, "properties": {"city": "taipei", "name": "北安國中", "indoor": "是", "address": "中山區明水路325號", "manager": "余賢桄", "outdoor": "否", "capacity": "30", "district": "中山區", "manager_phone": "25333888-240", "disaster_types": "水災,震災", "vulnerable_friendly": "否"}}, {"type": "Feature", "geometry": {"type": "Point", "coordinates": [121.5865, 25.0784]}, "properties": {"city": "taipei", "name": "內湖高中", "indoor": "是", "address": "內湖區文德路218號", "manager": "韓國瑾", "outdoor": "否", "capacity": "110", "district": "內湖區", "manager_phone": "27977035#309", "disaster_types": "水災,震災", "vulnerable_friendly": "否"}}, {"type": "Feature", "geometry": {"type": "Point", "coordinates": [121.5865, 25.0784]}, "properties": {"city": "taipei", "name": "臺北市內湖運動中心", "indoor": "是", "address": "洲子街12號", "manager": "林美如", "outdoor": "否", "capacity": "219", "district": "內湖區", "manager_phone": "02-25702330#6425", "disaster_types": "震災", "vulnerable_friendly": "否"}}, {"type": "Feature", "geometry": {"type": "Point", "coordinates": [121.5494, 25.0787]}, "properties": {"city": "taipei", "name": "永安國小", "indoor": "是", "address": "臺北市中山區明水路397巷19弄1號", "manager": "梁志恒", "outdoor": "否", "capacity": "60", "district": "中山區", "manager_phone": "25335672#230", "disaster_types": "水災,震災", "vulnerable_friendly": "是"}}, {"type": "Feature", "geometry": {"type": "Point", "coordinates": [121.5802, 25.0791]}, "properties": {"city": "taipei", "name": "內湖國小", "indoor": "是", "address": "內湖區內湖路2段41號", "manager": "黎季昊", "outdoor": "否", "capacity": "150", "district": "內湖區", "manager_phone": "27998085#311", "disaster_types": "水災,震災", "vulnerable_friendly": "是"}}, {"type": "Feature", "geometry": {"type": "Point", "coordinates": [121.5428, 25.0794]}, "properties": {"city": "taipei", "name": "大直高中", "indoor": "是", "address": "中山區北安路420號", "manager": "楊雯仙", "outdoor": "否", "capacity": "300", "district": "中山區", "manager_phone": "02-25334017#141", "disaster_types": "水災,震災", "vulnerable_friendly": "否"}}, {"type": "Feature", "geometry": {"type": "Point", "coordinates": [121.5607, 25.0796]}, "properties": {"city": "taipei", "name": "濱江國中", "indoor": "是", "address": "中山區樂群二路262號", "manager": "黃秀森", "outdoor": "否", "capacity": "86", "district": "中山區", "manager_phone": "02-8502-0126", "disaster_types": "水災,震災", "vulnerable_friendly": "否"}}, {"type": "Feature", "geometry": {"type": "Point", "coordinates": [121.5754, 25.0797]}, "properties": {"city": "taipei", "name": "內湖高工", "indoor": "是", "address": "內湖路1段520號", "manager": "韓東賢", "outdoor": "否", "capacity": "245", "district": "內湖區", "manager_phone": "26574874#121", "disaster_types": "水災,震災", "vulnerable_friendly": "否"}}, {"type": "Feature", "geometry": {"type": "Point", "coordinates": [121.5229, 25.0799]}, "properties": {"city": "taipei", "name": "劍潭國小", "indoor": "是", "address": "士林區通河街16號", "manager": "李孟柔", "outdoor": "否", "capacity": "30", "district": "士林區", "manager_phone": "02-28855491#830", "disaster_types": "水災,震災", "vulnerable_friendly": "否"}}, {"type": "Feature", "geometry": {"type": "Point", "coordinates": [121.5949, 25.08]}, "properties": {"city": "taipei", "name": "康寧國小", "indoor": "是", "address": "內湖區星雲街121號", "manager": "黃聰欽", "outdoor": "否", "capacity": "247", "district": "內湖區", "manager_phone": "27917755", "disaster_types": "水災,震災", "vulnerable_friendly": "否"}}, {"type": "Feature", "geometry": {"type": "Point", "coordinates": [121.5464, 25.0805]}, "properties": {"city": "taipei", "name": "大直國小", "indoor": "是", "address": "中山區大直街2號", "manager": "林秀勤", "outdoor": "否", "capacity": "104", "district": "中山區", "manager_phone": "02-85098286", "disaster_types": "水災,震災", "vulnerable_friendly": "否"}}, {"type": "Feature", "geometry": {"type": "Point", "coordinates": [121.5752, 25.0817]}, "properties": {"city": "taipei", "name": "麗山國中", "indoor": "是", "address": "內湖區內湖路1段629巷42號", "manager": "徐秀婕", "outdoor": "否", "capacity": "82", "district": "內湖區", "manager_phone": "27991867#401", "disaster_types": "水災,震災", "vulnerable_friendly": "否"}}, {"type": "Feature", "geometry": {"type": "Point", "coordinates": [121.603982, 25.082835]}, "properties": {"city": "taipei", "name": "大湖公園", "indoor": "否", "address": "成功路五段31號旁", "manager": "陳美雅", "outdoor": "是", "capacity": "4950", "district": "內湖區", "manager_phone": "26586601#216", "disaster_types": "震災", "vulnerable_friendly": "是"}}, {"type": "Feature", "geometry": {"type": "Point", "coordinates": [121.5725, 25.0836]}, "properties": {"city": "taipei", "name": "麗山國小", "indoor": "是", "address": "臺北市內湖區港華街100號", "manager": "陳弘偉", "outdoor": "否", "capacity": "193", "district": "內湖區", "manager_phone": "26574158#511", "disaster_types": "水災,震災,土石流", "vulnerable_friendly": "是"}}, {"type": "Feature", "geometry": {"type": "Point", "coordinates": [121.507, 25.0837]}, "properties": {"city": "taipei", "name": "葫蘆國小", "indoor": "是", "address": "士林區環河北路3段95號", "manager": "許興國", "outdoor": "否", "capacity": "35", "district": "士林區", "manager_phone": "02-28129586#831", "disaster_types": "水災,震災", "vulnerable_friendly": "否"}}, {"type": "Feature", "geometry": {"type": "Point", "coordinates": [121.5657, 25.0838]}, "properties": {"city": "taipei", "name": "西湖國小", "indoor": "是", "address": "內湖區環山路1段25號", "manager": "葉蓁燕", "outdoor": "否", "capacity": "76", "district": "內湖區", "manager_phone": "27971267#151", "disaster_types": "水災,震災", "vulnerable_friendly": "否"}}, {"type": "Feature", "geometry": {"type": "Point", "coordinates": [121.5779, 25.0841]}, "properties": {"city": "taipei", "name": "麗山高中", "indoor": "是", "address": "臺北市內湖區環山路2段100號", "manager": "林永發", "outdoor": "否", "capacity": "60", "district": "內湖區", "manager_phone": "26570435#400", "disaster_types": "水災,震災", "vulnerable_friendly": "是"}}, {"type": "Feature", "geometry": {"type": "Point", "coordinates": [121.5911, 25.0853]}, "properties": {"city": "taipei", "name": "碧湖國小", "indoor": "是", "address": "臺北市內湖區金龍路100號", "manager": "陳詩添", "outdoor": "否", "capacity": "134", "district": "內湖區", "manager_phone": "27907161#151", "disaster_types": "水災,震災,土石流", "vulnerable_friendly": "否"}}, {"type": "Feature", "geometry": {"type": "Point", "coordinates": [121.5601, 25.0858]}, "properties": {"city": "taipei", "name": "文湖國小", "indoor": "是", "address": "內湖區文湖街15號", "manager": "盧俊吉", "outdoor": "否", "capacity": "30", "district": "內湖區", "manager_phone": "26583515#1071", "disaster_types": "水災,震災", "vulnerable_friendly": "是"}}, {"type": "Feature", "geometry": {"type": "Point", "coordinates": [121.5657, 25.0858]}, "properties": {"city": "taipei", "name": "西湖國中", "indoor": "是", "address": "內湖區環山路1段27號", "manager": "藍瑋煥", "outdoor": "否", "capacity": "106", "district": "內湖區", "manager_phone": "27991817#310", "disaster_types": "水災,震災", "vulnerable_friendly": "是"}}, {"type": "Feature", "geometry": {"type": "Point", "coordinates": [121.5178, 25.0862]}, "properties": {"city": "taipei", "name": "百齡國小", "indoor": "是", "address": "士林區福港街205號", "manager": "王正通", "outdoor": "否", "capacity": "137", "district": "士林區", "manager_phone": "02-28817683#850", "disaster_types": "水災,震災", "vulnerable_friendly": "否"}}, {"type": "Feature", "geometry": {"type": "Point", "coordinates": [121.523, 25.087]}, "properties": {"city": "taipei", "name": "百齡高中", "indoor": "是", "address": "士林區承德路4段177號", "manager": "邱彩君", "outdoor": "否", "capacity": "300", "district": "士林區", "manager_phone": "28831568#307", "disaster_types": "水災,震災", "vulnerable_friendly": "否"}}, {"type": "Feature", "geometry": {"type": "Point", "coordinates": [121.6003, 25.0881]}, "properties": {"city": "taipei", "name": "大湖國小", "indoor": "是", "address": "內湖區大湖山莊街170號", "manager": "余文玲", "outdoor": "否", "capacity": "175", "district": "內湖區", "manager_phone": "27915870#51", "disaster_types": "水災,震災", "vulnerable_friendly": "是"}}, {"type": "Feature", "geometry": {"type": "Point", "coordinates": [121.5029, 25.0898]}, "properties": {"city": "taipei", "name": "天母棒球場", "indoor": "是", "address": "忠誠路二段77號", "manager": "盧春安", "outdoor": "否", "capacity": "150", "district": "士林區", "manager_phone": "02-25702330#6534", "disaster_types": "震災", "vulnerable_friendly": "否"}}, {"type": "Feature", "geometry": {"type": "Point", "coordinates": [121.5029, 25.0898]}, "properties": {"city": "taipei", "name": "臺北市士林運動中心", "indoor": "是", "address": "士商路1號", "manager": "田佳泓", "outdoor": "否", "capacity": "171", "district": "士林區", "manager_phone": "2570-2330轉6428", "disaster_types": "震災", "vulnerable_friendly": "否"}}, {"type": "Feature", "geometry": {"type": "Point", "coordinates": [121.5029, 25.0898]}, "properties": {"city": "taipei", "name": "社子國小", "indoor": "是", "address": "臺北市士林區延平北路6段308號", "manager": "羅泰興", "outdoor": "否", "capacity": "192", "district": "士林區", "manager_phone": "28126195#830", "disaster_types": "水災,震災", "vulnerable_friendly": "否"}}, {"type": "Feature", "geometry": {"type": "Point", "coordinates": [121.5172, 25.0918]}, "properties": {"city": "taipei", "name": "陽明高中", "indoor": "是", "address": "士林區中正路510號", "manager": "陳佑昌", "outdoor": "否", "capacity": "110", "district": "士林區", "manager_phone": "02-28316675#140", "disaster_types": "水災,震災", "vulnerable_friendly": "否"}}, {"type": "Feature", "geometry": {"type": "Point", "coordinates": [121.5251, 25.0928]}, "properties": {"city": "taipei", "name": "士林國小", "indoor": "是", "address": "臺北市士林區大東路165號", "manager": "何志宏", "outdoor": "否", "capacity": "225", "district": "士林區", "manager_phone": "02-28812231#231", "disaster_types": "水災,震災", "vulnerable_friendly": "否"}}, {"type": "Feature", "geometry": {"type": "Point", "coordinates": [121.5226, 25.0943]}, "properties": {"city": "taipei", "name": "士林國中", "indoor": "是", "address": "士林區中正路345號", "manager": "姚興南", "outdoor": "否", "capacity": "39", "district": "士林區", "manager_phone": "02-88613411#500", "disaster_types": "水災,震災", "vulnerable_friendly": "否"}}, {"type": "Feature", "geometry": {"type": "Point", "coordinates": [121.5163, 25.095]}, "properties": {"city": "taipei", "name": "士林高商", "indoor": "是", "address": "士林區士商路150號", "manager": "何杉友", "outdoor": "否", "capacity": "54", "district": "士林區", "manager_phone": "02-28313114#401", "disaster_types": "水災,震災", "vulnerable_friendly": "否"}}, {"type": "Feature", "geometry": {"type": "Point", "coordinates": [121.5303, 25.0951]}, "properties": {"city": "taipei", "name": "士林官邸公園", "indoor": "否", "address": "臺北市士林區福林路60號", "manager": "陳昆陽", "outdoor": "是", "capacity": "1362", "district": "士林區", "manager_phone": "28812512#21", "disaster_types": "震災", "vulnerable_friendly": "是"}}, {"type": "Feature", "geometry": {"type": "Point", "coordinates": [121.5297, 25.0987]}, "properties": {"city": "taipei", "name": "福林國小", "indoor": "是", "address": "士林區福志路75號", "manager": "劉順海", "outdoor": "否", "capacity": "142", "district": "士林區", "manager_phone": "02-28316293#204", "disaster_types": "水災,震災", "vulnerable_friendly": "否"}}, {"type": "Feature", "geometry": {"type": "Point", "coordinates": [121.5209, 25.0996]}, "properties": {"city": "taipei", "name": "文昌國小", "indoor": "是", "address": "士林區文林路615巷20號", "manager": "陳佩雯", "outdoor": "否", "capacity": "75", "district": "士林區", "manager_phone": "02-28365411#130", "disaster_types": "水災,震災", "vulnerable_friendly": "否"}}, {"type": "Feature", "geometry": {"type": "Point", "coordinates": [121.491108, 25.099607]}, "properties": {"city": "taipei", "name": "地藏禪寺", "indoor": "是", "address": "延平北路7段189號", "manager": "釋覺光師父", "outdoor": "否", "capacity": "100", "district": "士林區", "manager_phone": "02-28100237", "disaster_types": "", "vulnerable_friendly": "否"}}, {"type": "Feature", "geometry": {"type": "Point", "coordinates": [121.5352, 25.1027]}, "properties": {"city": "taipei", "name": "雨聲國小", "indoor": "是", "address": "士林區至誠路1段62巷70號", "manager": "徐慧娟", "outdoor": "否", "capacity": "46", "district": "士林區", "manager_phone": "28311004轉231", "disaster_types": "水災,震災", "vulnerable_friendly": "否"}}, {"type": "Feature", "geometry": {"type": "Point", "coordinates": [121.4874, 25.1033]}, "properties": {"city": "taipei", "name": "福安國中", "indoor": "是", "address": "士林區延平北路7段250號", "manager": "胡智為", "outdoor": "否", "capacity": "30", "district": "士林區", "manager_phone": "02-28108766#140", "disaster_types": "水災,震災", "vulnerable_friendly": "否"}}, {"type": "Feature", "geometry": {"type": "Point", "coordinates": [121.5555, 25.1035]}, "properties": {"city": "taipei", "name": "至善國中", "indoor": "是", "address": "臺北市士林區至善路2段360號", "manager": "林威鎮", "outdoor": "否", "capacity": "170", "district": "士林區", "manager_phone": "02-2841#1350#40", "disaster_types": "水災,震災", "vulnerable_friendly": "否"}}, {"type": "Feature", "geometry": {"type": "Point", "coordinates": [121.5165, 25.1045]}, "properties": {"city": "taipei", "name": "中正高中", "indoor": "是", "address": "北投區文林北路77號", "manager": "杜慶進", "outdoor": "否", "capacity": "109", "district": "北投區", "manager_phone": "02-28234811#500", "disaster_types": "水災,震災", "vulnerable_friendly": "否"}}, {"type": "Feature", "geometry": {"type": "Point", "coordinates": [121.5299, 25.1053]}, "properties": {"city": "taipei", "name": "雨農國小", "indoor": "是", "address": "士林區忠義街1號", "manager": "鄭銘毅", "outdoor": "否", "capacity": "124", "district": "士林區", "manager_phone": "2832-9700#101", "disaster_types": "水災,震災", "vulnerable_friendly": "否"}}, {"type": "Feature", "geometry": {"type": "Point", "coordinates": [121.4824, 25.1058]}, "properties": {"city": "taipei", "name": "富安國小", "indoor": "是", "address": "臺北市士林區延平北路8段135號", "manager": "張凱惠", "outdoor": "否", "capacity": "50", "district": "士林區", "manager_phone": "02-28103192#631", "disaster_types": "水災,震災", "vulnerable_friendly": "否"}}, {"type": "Feature", "geometry": {"type": "Point", "coordinates": [121.5147, 25.1059]}, "properties": {"city": "taipei", "name": "文林國小", "indoor": "是", "address": "北投區文林北路155號", "manager": "范揚紹", "outdoor": "否", "capacity": "300", "district": "北投區", "manager_phone": "02-28234212#400", "disaster_types": "水災,震災", "vulnerable_friendly": "否"}}, {"type": "Feature", "geometry": {"type": "Point", "coordinates": [121.5638, 25.1061]}, "properties": {"city": "taipei", "name": "雙溪國小", "indoor": "是", "address": "士林區中社路2段66號", "manager": "陳淑惠", "outdoor": "否", "capacity": "30", "district": "士林區", "manager_phone": "02-28411038#25", "disaster_types": "水災,震災", "vulnerable_friendly": "否"}}, {"type": "Feature", "geometry": {"type": "Point", "coordinates": [121.5183, 25.1075]}, "properties": {"city": "taipei", "name": "明德國中", "indoor": "是", "address": "北投區明德路50號", "manager": "林麗枝", "outdoor": "否", "capacity": "88", "district": "北投區", "manager_phone": "28232539-601", "disaster_types": "水災,震災", "vulnerable_friendly": "否"}}, {"type": "Feature", "geometry": {"type": "Point", "coordinates": [121.5231, 25.1084]}, "properties": {"city": "taipei", "name": "蘭雅國小", "indoor": "是", "address": "士林區磺溪57號", "manager": "邱建華", "outdoor": "否", "capacity": "30", "district": "士林區", "manager_phone": "02-28366052#206", "disaster_types": "水災,震災", "vulnerable_friendly": "否"}}, {"type": "Feature", "geometry": {"type": "Point", "coordinates": [121.5364, 25.1104]}, "properties": {"city": "taipei", "name": "芝山國小", "indoor": "是", "address": "臺北市士林區德行東路285號", "manager": "董建成", "outdoor": "否", "capacity": "40", "district": "士林區", "manager_phone": "02-28316115#240", "disaster_types": "水災,震災", "vulnerable_friendly": "否"}}, {"type": "Feature", "geometry": {"type": "Point", "coordinates": [121.531, 25.1106]}, "properties": {"city": "taipei", "name": "蘭雅國中", "indoor": "是", "address": "士林區忠誠路2段51號", "manager": "徐安國", "outdoor": "否", "capacity": "130", "district": "士林區", "manager_phone": "02-28329377#500", "disaster_types": "水災,震災", "vulnerable_friendly": "否"}}, {"type": "Feature", "geometry": {"type": "Point", "coordinates": [121.5218, 25.1121]}, "properties": {"city": "taipei", "name": "明德國小", "indoor": "是", "address": "北投區明德路190號", "manager": "陳勝福", "outdoor": "否", "capacity": "109", "district": "北投區", "manager_phone": "02-28229651#1122", "disaster_types": "水災,震災", "vulnerable_friendly": "否"}}, {"type": "Feature", "geometry": {"type": "Point", "coordinates": [121.5142, 25.1149]}, "properties": {"city": "taipei", "name": "石牌國中", "indoor": "是", "address": "臺北市北投區石牌路1段139號", "manager": "林豐戊", "outdoor": "否", "capacity": "100", "district": "北投區", "manager_phone": "02-28224682#250", "disaster_types": "水災,震災", "vulnerable_friendly": "否"}}, {"type": "Feature", "geometry": {"type": "Point", "coordinates": [121.5117, 25.1157]}, "properties": {"city": "taipei", "name": "石牌國小", "indoor": "是", "address": "北投區致遠2路80號", "manager": "高禎禧", "outdoor": "否", "capacity": "112", "district": "北投區", "manager_phone": "02-28227484#331", "disaster_types": "水災,震災", "vulnerable_friendly": "否"}}, {"type": "Feature", "geometry": {"type": "Point", "coordinates": [121.5373, 25.118]}, "properties": {"city": "taipei", "name": "三玉國小", "indoor": "是", "address": "士林區天母東路116號", "manager": "黃瑟雅", "outdoor": "否", "capacity": "30", "district": "士林區", "manager_phone": "02-28751369#717", "disaster_types": "水災,震災", "vulnerable_friendly": "否"}}, {"type": "Feature", "geometry": {"type": "Point", "coordinates": [121.5381, 25.118]}, "properties": {"city": "taipei", "name": "天母國中", "indoor": "是", "address": "士林區天母東路120號", "manager": "顏靜虹", "outdoor": "否", "capacity": "99", "district": "士林區", "manager_phone": "02-28754864#243", "disaster_types": "水災,震災", "vulnerable_friendly": "否"}}, {"type": "Feature", "geometry": {"type": "Point", "coordinates": [121.5053, 25.1195]}, "properties": {"city": "taipei", "name": "立農國小", "indoor": "是", "address": "北投區立農街1段250號", "manager": "楊紹齊", "outdoor": "否", "capacity": "30", "district": "北投區", "manager_phone": "02-28210702#300", "disaster_types": "水災,震災", "vulnerable_friendly": "否"}}, {"type": "Feature", "geometry": {"type": "Point", "coordinates": [121.5274, 25.1197]}, "properties": {"city": "taipei", "name": "天母國小", "indoor": "是", "address": "士林區天玉街12號", "manager": "黃偉國", "outdoor": "否", "capacity": "100", "district": "士林區", "manager_phone": "02-28740889", "disaster_types": "水災,震災", "vulnerable_friendly": "否"}}, {"type": "Feature", "geometry": {"type": "Point", "coordinates": [121.5529, 25.1198]}, "properties": {"city": "taipei", "name": "陽明山國小", "indoor": "是", "address": "臺北市士林區新安里仰德大道3段 61 號", "manager": "吳正男", "outdoor": "否", "capacity": "50", "district": "士林區", "manager_phone": "28614832#131", "disaster_types": "水災,震災,土石流", "vulnerable_friendly": "否"}}, {"type": "Feature", "geometry": {"type": "Point", "coordinates": [121.5796, 25.1198]}, "properties": {"city": "taipei", "name": "溪山國小", "indoor": "是", "address": "臺北市士林區至善路三段199號", "manager": "李世中", "outdoor": "否", "capacity": "50", "district": "士林區", "manager_phone": "02-28411010#17", "disaster_types": "水災,震災,土石流", "vulnerable_friendly": "否"}}, {"type": "Feature", "geometry": {"type": "Point", "coordinates": [121.4673, 25.1199]}, "properties": {"city": "taipei", "name": "關渡國中", "indoor": "是", "address": "北投區知行路212號", "manager": "楊孝偉", "outdoor": "否", "capacity": "30", "district": "北投區", "manager_phone": "02-28581770#50", "disaster_types": "水災,震災", "vulnerable_friendly": "否"}}, {"type": "Feature", "geometry": {"type": "Point", "coordinates": [121.5773, 25.1214]}, "properties": {"city": "taipei", "name": "普宜苑", "indoor": "是", "address": "溪山里至善路3段181巷5弄7號", "manager": "釋照印師父", "outdoor": "否", "capacity": "0", "district": "士林區", "manager_phone": "2841-3393", "disaster_types": "水災,震災", "vulnerable_friendly": "是"}}, {"type": "Feature", "geometry": {"type": "Point", "coordinates": [121.553582, 25.124093]}, "properties": {"city": "taipei", "name": "新安里臨時聚會場所", "indoor": "是", "address": "新安路85號", "manager": "何明欽里長", "outdoor": "否", "capacity": "45", "district": "士林區", "manager_phone": "02-28623615", "disaster_types": "土石流", "vulnerable_friendly": "否"}}, {"type": "Feature", "geometry": {"type": "Point", "coordinates": [121.4668, 25.1268]}, "properties": {"city": "taipei", "name": "關渡國小", "indoor": "是", "address": "北投區中央北路4段581號", "manager": "林莉珊", "outdoor": "否", "capacity": "110", "district": "北投區", "manager_phone": "02-28912847#241", "disaster_types": "水災,震災", "vulnerable_friendly": "否"}}, {"type": "Feature", "geometry": {"type": "Point", "coordinates": [121.5076, 25.1269]}, "properties": {"city": "taipei", "name": "清江國小", "indoor": "是", "address": "北投區公?路220號", "manager": "高美莉", "outdoor": "否", "capacity": "30", "district": "北投區", "manager_phone": "02-28912764#300", "disaster_types": "水災,震災", "vulnerable_friendly": "否"}}, {"type": "Feature", "geometry": {"type": "Point", "coordinates": [121.5763, 25.1291]}, "properties": {"city": "taipei", "name": "平等國小", "indoor": "是", "address": "士林區平等里平菁街101號", "manager": "李公元", "outdoor": "否", "capacity": "20", "district": "士林區", "manager_phone": "02-28610503#12", "disaster_types": "水災,震災", "vulnerable_friendly": "否"}}, {"type": "Feature", "geometry": {"type": "Point", "coordinates": [121.5468, 25.1311]}, "properties": {"city": "taipei", "name": "格致國中", "indoor": "是", "address": "士林區仰德大道4段75號", "manager": "高毓璇", "outdoor": "否", "capacity": "47", "district": "士林區", "manager_phone": "02-28610079#107", "disaster_types": "水災,震災", "vulnerable_friendly": "否"}}, {"type": "Feature", "geometry": {"type": "Point", "coordinates": [121.5024, 25.1325]}, "properties": {"city": "taipei", "name": "北投區區民活動中心", "indoor": "是", "address": "臺北市新市街30號6樓", "manager": "尤湘禎", "outdoor": "否", "capacity": "90", "district": "北投區", "manager_phone": "2891-2105#221", "disaster_types": "水災,震災", "vulnerable_friendly": "否"}}, {"type": "Feature", "geometry": {"type": "Point", "coordinates": [121.5003, 25.1342]}, "properties": {"city": "taipei", "name": "北投國小", "indoor": "是", "address": "臺北市北投區中央北路1段173號", "manager": "沈俊志", "outdoor": "否", "capacity": "195", "district": "北投區", "manager_phone": "02-28912052#131", "disaster_types": "水災,震災", "vulnerable_friendly": "否"}}, {"type": "Feature", "geometry": {"type": "Point", "coordinates": [121.5042, 25.1345]}, "properties": {"city": "taipei", "name": "北投國中", "indoor": "是", "address": "北投區溫泉路62號", "manager": "張淑美", "outdoor": "否", "capacity": "30", "district": "北投區", "manager_phone": "02-28912091#400", "disaster_types": "水災,震災", "vulnerable_friendly": "否"}}, {"type": "Feature", "geometry": {"type": "Point", "coordinates": [121.4773, 25.1347]}, "properties": {"city": "taipei", "name": "桃源國中", "indoor": "是", "address": "北投區中央北路4段48號", "manager": "鄒優楊", "outdoor": "否", "capacity": "55", "district": "北投區", "manager_phone": "02-28929633#241", "disaster_types": "水災,震災", "vulnerable_friendly": "否"}}, {"type": "Feature", "geometry": {"type": "Point", "coordinates": [121.4967, 25.1371]}, "properties": {"city": "taipei", "name": "文化國小", "indoor": "是", "address": "北投區文化3路1號", "manager": "蔡雅芬", "outdoor": "否", "capacity": "30", "district": "北投區", "manager_phone": "02-28933828#131", "disaster_types": "水災,震災", "vulnerable_friendly": "否"}}, {"type": "Feature", "geometry": {"type": "Point", "coordinates": [121.4929, 25.1381]}, "properties": {"city": "taipei", "name": "復興崗營區", "indoor": "是", "address": "中央北路二段70號", "manager": "李裕欽少校", "outdoor": "否", "capacity": "200", "district": "北投區", "manager_phone": "02-28925125", "disaster_types": "水災,震災", "vulnerable_friendly": "否"}}, {"type": "Feature", "geometry": {"type": "Point", "coordinates": [121.5052, 25.1383]}, "properties": {"city": "taipei", "name": "逸仙國小", "indoor": "是", "address": "臺北市北投區新民路2號", "manager": "林功寅", "outdoor": "否", "capacity": "164", "district": "北投區", "manager_phone": "02-28914537#34", "disaster_types": "水災,震災,土石流", "vulnerable_friendly": "是"}}, {"type": "Feature", "geometry": {"type": "Point", "coordinates": [121.5065, 25.1389]}, "properties": {"city": "taipei", "name": "新民國中", "indoor": "是", "address": "臺北市北投區新民路10號", "manager": "吳佳鴻", "outdoor": "否", "capacity": "207", "district": "北投區", "manager_phone": "02-28979001#500", "disaster_types": "水災,震災,土石流", "vulnerable_friendly": "否"}}, {"type": "Feature", "geometry": {"type": "Point", "coordinates": [121.5065, 25.1389]}, "properties": {"city": "taipei", "name": "臺北市北投運動中心", "indoor": "是", "address": "石牌路一段39巷100號", "manager": "田佳泓", "outdoor": "否", "capacity": "384", "district": "北投區", "manager_phone": "2570-2330轉6428", "disaster_types": "震災", "vulnerable_friendly": "否"}}, {"type": "Feature", "geometry": {"type": "Point", "coordinates": [121.5024, 25.139]}, "properties": {"city": "taipei", "name": "復興公園", "indoor": "否", "address": "臺北市北投區中和街200號", "manager": "楊進興", "outdoor": "是", "capacity": "3623", "district": "北投區", "manager_phone": "28832130#111", "disaster_types": "震災", "vulnerable_friendly": "是"}}, {"type": "Feature", "geometry": {"type": "Point", "coordinates": [121.4845, 25.1396]}, "properties": {"city": "taipei", "name": "桃源國小", "indoor": "是", "address": "北投區中央北路3段40巷45號", "manager": "潘同泰", "outdoor": "否", "capacity": "30", "district": "北投區", "manager_phone": "02-28941208#108", "disaster_types": "水災,震災", "vulnerable_friendly": "是"}}, {"type": "Feature", "geometry": {"type": "Point", "coordinates": [121.5093, 25.142]}, "properties": {"city": "taipei", "name": "義方國小", "indoor": "是", "address": "北投區珠海路155號", "manager": "魏早成", "outdoor": "否", "capacity": "120", "district": "北投區", "manager_phone": "28917433#131", "disaster_types": "水災,震災", "vulnerable_friendly": "否"}}, {"type": "Feature", "geometry": {"type": "Point", "coordinates": [121.5018, 25.1437]}, "properties": {"city": "taipei", "name": "復興高中", "indoor": "是", "address": "北投區復興四路70號", "manager": "趙乃興", "outdoor": "否", "capacity": "300", "district": "北投區", "manager_phone": "02-28914131", "disaster_types": "水災,震災", "vulnerable_friendly": "否"}}, {"type": "Feature", "geometry": {"type": "Point", "coordinates": [121.5243, 25.1492]}, "properties": {"city": "taipei", "name": "泉源國小", "indoor": "是", "address": "臺北市北投區東昇路34號", "manager": "劉得劦", "outdoor": "否", "capacity": "30", "district": "北投區", "manager_phone": "28951258#141", "disaster_types": "水災,震災", "vulnerable_friendly": "否"}}, {"type": "Feature", "geometry": {"type": "Point", "coordinates": [121.5355, 25.15]}, "properties": {"city": "taipei", "name": "湖山國小", "indoor": "是", "address": "臺北市北投區湖底路11號", "manager": "陳立偉", "outdoor": "否", "capacity": "20", "district": "北投區", "manager_phone": "28610148#130", "disaster_types": "水災,震災", "vulnerable_friendly": "否"}}, {"type": "Feature", "geometry": {"type": "Point", "coordinates": [121.5043, 25.1547]}, "properties": {"city": "taipei", "name": "大屯國小", "indoor": "是", "address": "北投區復興三路312號", "manager": "黃騏堯", "outdoor": "否", "capacity": "20", "district": "北投區", "manager_phone": "02-28914353#13", "disaster_types": "水災,震災", "vulnerable_friendly": "否"}}, {"type": "Feature", "geometry": {"type": "Point", "coordinates": [121.5387, 25.1684]}, "properties": {"city": "taipei", "name": "湖田國小", "indoor": "是", "address": "北投區竹子湖路17-2號", "manager": "張正宇", "outdoor": "否", "capacity": "20", "district": "北投區", "manager_phone": "28616963#10", "disaster_types": "水災,震災", "vulnerable_friendly": "否"}}]}
