{"type": "FeatureCollection", "metadata": {"type": "monthly_flat", "available_months": ["2026-05", "2026-04"], "month_stats": {"2026-04": {"合格": 370, "不合格": 32}, "2026-05": {"合格": 82, "不合格": 8}}}, "features": [{"type": "Feature", "geometry": {"type": "Point", "coordinates": [121.4946, 25.0697]}, "properties": {"market": "三重", "result": "合格", "product_name": "油麥菜", "pesticides": null, "month": "2026-04"}}, {"type": "Feature", "geometry": {"type": "Point", "coordinates": [121.4946, 25.0697]}, "properties": {"market": "三重", "result": "合格", "product_name": "芭樂", "pesticides": null, "month": "2026-04"}}, {"type": "Feature", "geometry": {"type": "Point", "coordinates": [121.4946, 25.0697]}, "properties": {"market": "三重", "result": "合格", "product_name": "桶柑", "pesticides": null, "month": "2026-04"}}, {"type": "Feature", "geometry": {"type": "Point", "coordinates": [121.4946, 25.0697]}, "properties": {"market": "三重", "result": "合格", "product_name": "龍鬚菜", "pesticides": null, "month": "2026-04"}}, {"type": "Feature", "geometry": {"type": "Point", "coordinates": [121.4946, 25.0697]}, "properties": {"market": "三重", "result": "合格", "product_name": "綠蘆筍", "pesticides": null, "month": "2026-04"}}, {"type": "Feature", "geometry": {"type": "Point", "coordinates": [121.4946, 25.0697]}, "properties": {"market": "三重", "result": "合格", "product_name": "鳳梨", "pesticides": null, "month": "2026-04"}}, {"type": "Feature", "geometry": {"type": "Point", "coordinates": [121.4946, 25.0697]}, "properties": {"market": "三重", "result": "合格", "product_name": "包心白菜", "pesticides": null, "month": "2026-04"}}, {"type": "Feature", "geometry": {"type": "Point", "coordinates": [121.4946, 25.0697]}, "properties": {"market": "三重", "result": "合格", "product_name": "甘藷", "pesticides": null, "month": "2026-04"}}, {"type": "Feature", "geometry": {"type": "Point", "coordinates": [121.4946, 25.0697]}, "properties": {"market": "三重", "result": "合格", "product_name": "南瓜", "pesticides": null, "month": "2026-04"}}, {"type": "Feature", "geometry": {"type": "Point", "coordinates": [121.4946, 25.0697]}, "properties": {"market": "三重", "result": "合格", "product_name": "甘藍", "pesticides": null, "month": "2026-04"}}, {"type": "Feature", "geometry": {"type": "Point", "coordinates": [121.4946, 25.0697]}, "properties": {"market": "三重", "result": "合格", "product_name": "馬鈴薯", "pesticides": null, "month": "2026-04"}}, {"type": "Feature", "geometry": {"type": "Point", "coordinates": [121.4946, 25.0697]}, "properties": {"market": "三重", "result": "合格", "product_name": "牛番茄", "pesticides": null, "month": "2026-04"}}, {"type": "Feature", "geometry": {"type": "Point", "coordinates": [121.4946, 25.0697]}, "properties": {"market": "三重", "result": "合格", "product_name": "小黃瓜", "pesticides": null, "month": "2026-04"}}, {"type": "Feature", "geometry": {"type": "Point", "coordinates": [121.4946, 25.0697]}, "properties": {"market": "三重", "result": "合格", "product_name": "絲瓜", "pesticides": null, "month": "2026-04"}}, {"type": "Feature", "geometry": {"type": "Point", "coordinates": [121.4946, 25.0697]}, "properties": {"market": "三重", "result": "合格", "product_name": "竹筍", "pesticides": null, "month": "2026-04"}}, {"type": "Feature", "geometry": {"type": "Point", "coordinates": [121.4946, 25.0697]}, "properties": {"market": "三重", "result": "合格", "product_name": "小番茄", "pesticides": null, "month": "2026-04"}}, {"type": "Feature", "geometry": {"type": "Point", "coordinates": [121.4946, 25.0697]}, "properties": {"market": "三重", "result": "合格", "product_name": "青花菜", "pesticides": null, "month": "2026-04"}}, {"type": "Feature", "geometry": {"type": "Point", "coordinates": [121.4946, 25.0697]}, "properties": {"market": "三重", "result": "合格", "product_name": "茄子", "pesticides": null, "month": "2026-04"}}, {"type": "Feature", "geometry": {"type": "Point", "coordinates": [121.4946, 25.0697]}, "properties": {"market": "三重", "result": "合格", "product_name": "苦瓜", "pesticides": null, "month": "2026-04"}}, {"type": "Feature", "geometry": {"type": "Point", "coordinates": [121.4946, 25.0697]}, "properties": {"market": "三重", "result": "合格", "product_name": "青花菜", "pesticides": null, "month": "2026-04"}}, {"type": "Feature", "geometry": {"type": "Point", "coordinates": [121.4946, 25.0697]}, "properties": {"market": "三重", "result": "合格", "product_name": "楊桃", "pesticides": null, "month": "2026-04"}}, {"type": "Feature", "geometry": {"type": "Point", "coordinates": [121.4946, 25.0697]}, "properties": {"market": "三重", "result": "合格", "product_name": "金針菇", "pesticides": null, "month": "2026-04"}}, {"type": "Feature", "geometry": {"type": "Point", "coordinates": [121.4946, 25.0697]}, "properties": {"market": "三重", "result": "合格", "product_name": "韭菜", "pesticides": null, "month": "2026-04"}}, {"type": "Feature", "geometry": {"type": "Point", "coordinates": [121.4946, 25.0697]}, "properties": {"market": "三重", "result": "合格", "product_name": "青蔥", "pesticides": null, "month": "2026-04"}}, {"type": "Feature", "geometry": {"type": "Point", "coordinates": [121.4946, 25.0697]}, "properties": {"market": "三重", "result": "合格", "product_name": "彩椒", "pesticides": null, "month": "2026-04"}}, {"type": "Feature", "geometry": {"type": "Point", "coordinates": [121.4946, 25.0697]}, "properties": {"market": "三重", "result": "合格", "product_name": "芭樂", "pesticides": null, "month": "2026-04"}}, {"type": "Feature", "geometry": {"type": "Point", "coordinates": [121.4946, 25.0697]}, "properties": {"market": "三重", "result": "合格", "product_name": "蒜頭", "pesticides": null, "month": "2026-04"}}, {"type": "Feature", "geometry": {"type": "Point", "coordinates": [121.4946, 25.0697]}, "properties": {"market": "三重", "result": "合格", "product_name": "香蕉", "pesticides": null, "month": "2026-04"}}, {"type": "Feature", "geometry": {"type": "Point", "coordinates": [121.4946, 25.0697]}, "properties": {"market": "三重", "result": "合格", "product_name": "楊桃", "pesticides": null, "month": "2026-04"}}, {"type": "Feature", "geometry": {"type": "Point", "coordinates": [121.4946, 25.0697]}, "properties": {"market": "三重", "result": "合格", "product_name": "檸檬", "pesticides": null, "month": "2026-04"}}, {"type": "Feature", "geometry": {"type": "Point", "coordinates": [121.4946, 25.0697]}, "properties": {"market": "三重", "result": "合格", "product_name": "甘藍", "pesticides": null, "month": "2026-04"}}, {"type": "Feature", "geometry": {"type": "Point", "coordinates": [121.4946, 25.0697]}, "properties": {"market": "三重", "result": "合格", "product_name": "小番茄", "pesticides": null, "month": "2026-04"}}, {"type": "Feature", "geometry": {"type": "Point", "coordinates": [121.4946, 25.0697]}, "properties": {"market": "三重", "result": "合格", "product_name": "南瓜", "pesticides": null, "month": "2026-04"}}, {"type": "Feature", "geometry": {"type": "Point", "coordinates": [121.4946, 25.0697]}, "properties": {"market": "三重", "result": "合格", "product_name": "山藥", "pesticides": null, "month": "2026-04"}}, {"type": "Feature", "geometry": {"type": "Point", "coordinates": [121.4946, 25.0697]}, "properties": {"market": "三重", "result": "合格", "product_name": "胡蘿蔔", "pesticides": null, "month": "2026-04"}}, {"type": "Feature", "geometry": {"type": "Point", "coordinates": [121.4946, 25.0697]}, "properties": {"market": "三重", "result": "合格", "product_name": "胡瓜", "pesticides": null, "month": "2026-04"}}, {"type": "Feature", "geometry": {"type": "Point", "coordinates": [121.4946, 25.0697]}, "properties": {"market": "三重", "result": "合格", "product_name": "西瓜", "pesticides": null, "month": "2026-04"}}, {"type": "Feature", "geometry": {"type": "Point", "coordinates": [121.4946, 25.0697]}, "properties": {"market": "三重", "result": "合格", "product_name": "桂竹筍", "pesticides": null, "month": "2026-04"}}, {"type": "Feature", "geometry": {"type": "Point", "coordinates": [121.4946, 25.0697]}, "properties": {"market": "三重", "result": "合格", "product_name": "絲瓜", "pesticides": null, "month": "2026-04"}}, {"type": "Feature", "geometry": {"type": "Point", "coordinates": [121.4946, 25.0697]}, "properties": {"market": "三重", "result": "合格", "product_name": "小黃瓜", "pesticides": null, "month": "2026-04"}}, {"type": "Feature", "geometry": {"type": "Point", "coordinates": [121.4946, 25.0697]}, "properties": {"market": "三重", "result": "合格", "product_name": "哈密瓜", "pesticides": null, "month": "2026-04"}}, {"type": "Feature", "geometry": {"type": "Point", "coordinates": [121.4946, 25.0697]}, "properties": {"market": "三重", "result": "合格", "product_name": "花椰菜", "pesticides": null, "month": "2026-04"}}, {"type": "Feature", "geometry": {"type": "Point", "coordinates": [121.4946, 25.0697]}, "properties": {"market": "三重", "result": "合格", "product_name": "青苦瓜", "pesticides": null, "month": "2026-04"}}, {"type": "Feature", "geometry": {"type": "Point", "coordinates": [121.4946, 25.0697]}, "properties": {"market": "三重", "result": "合格", "product_name": "扁蒲", "pesticides": null, "month": "2026-04"}}, {"type": "Feature", "geometry": {"type": "Point", "coordinates": [121.4946, 25.0697]}, "properties": {"market": "三重", "result": "合格", "product_name": "豇豆", "pesticides": null, "month": "2026-04"}}, {"type": "Feature", "geometry": {"type": "Point", "coordinates": [121.4946, 25.0697]}, "properties": {"market": "三重", "result": "合格", "product_name": "敏豆", "pesticides": null, "month": "2026-04"}}, {"type": "Feature", "geometry": {"type": "Point", "coordinates": [121.4946, 25.0697]}, "properties": {"market": "三重", "result": "合格", "product_name": "油菜", "pesticides": null, "month": "2026-04"}}, {"type": "Feature", "geometry": {"type": "Point", "coordinates": [121.4946, 25.0697]}, "properties": {"market": "三重", "result": "合格", "product_name": "芥藍芽", "pesticides": null, "month": "2026-04"}}, {"type": "Feature", "geometry": {"type": "Point", "coordinates": [121.4946, 25.0697]}, "properties": {"market": "三重", "result": "合格", "product_name": "美生菜", "pesticides": null, "month": "2026-04"}}, {"type": "Feature", "geometry": {"type": "Point", "coordinates": [121.4946, 25.0697]}, "properties": {"market": "三重", "result": "合格", "product_name": "芹菜", "pesticides": null, "month": "2026-04"}}, {"type": "Feature", "geometry": {"type": "Point", "coordinates": [121.4946, 25.0697]}, "properties": {"market": "三重", "result": "合格", "product_name": "百香果", "pesticides": null, "month": "2026-04"}}, {"type": "Feature", "geometry": {"type": "Point", "coordinates": [121.4946, 25.0697]}, "properties": {"market": "三重", "result": "合格", "product_name": "芭樂", "pesticides": null, "month": "2026-04"}}, {"type": "Feature", "geometry": {"type": "Point", "coordinates": [121.4946, 25.0697]}, "properties": {"market": "三重", "result": "合格", "product_name": "桶柑", "pesticides": null, "month": "2026-04"}}, {"type": "Feature", "geometry": {"type": "Point", "coordinates": [121.4946, 25.0697]}, "properties": {"market": "三重", "result": "合格", "product_name": "蒜頭", "pesticides": null, "month": "2026-04"}}, {"type": "Feature", "geometry": {"type": "Point", "coordinates": [121.4946, 25.0697]}, "properties": {"market": "三重", "result": "合格", "product_name": "夏南瓜", "pesticides": null, "month": "2026-04"}}, {"type": "Feature", "geometry": {"type": "Point", "coordinates": [121.4946, 25.0697]}, "properties": {"market": "三重", "result": "合格", "product_name": "哈密瓜", "pesticides": null, "month": "2026-04"}}, {"type": "Feature", "geometry": {"type": "Point", "coordinates": [121.4946, 25.0697]}, "properties": {"market": "三重", "result": "合格", "product_name": "扁蒲", "pesticides": null, "month": "2026-04"}}, {"type": "Feature", "geometry": {"type": "Point", "coordinates": [121.4946, 25.0697]}, "properties": {"market": "三重", "result": "合格", "product_name": "苦瓜", "pesticides": null, "month": "2026-04"}}, {"type": "Feature", "geometry": {"type": "Point", "coordinates": [121.4946, 25.0697]}, "properties": {"market": "三重", "result": "合格", "product_name": "秋葵", "pesticides": null, "month": "2026-04"}}, {"type": "Feature", "geometry": {"type": "Point", "coordinates": [121.4946, 25.0697]}, "properties": {"market": "三重", "result": "合格", "product_name": "青椒", "pesticides": null, "month": "2026-04"}}, {"type": "Feature", "geometry": {"type": "Point", "coordinates": [121.4946, 25.0697]}, "properties": {"market": "三重", "result": "合格", "product_name": "豇豆", "pesticides": null, "month": "2026-04"}}, {"type": "Feature", "geometry": {"type": "Point", "coordinates": [121.4946, 25.0697]}, "properties": {"market": "三重", "result": "合格", "product_name": "敏豆", "pesticides": null, "month": "2026-04"}}, {"type": "Feature", "geometry": {"type": "Point", "coordinates": [121.4946, 25.0697]}, "properties": {"market": "三重", "result": "合格", "product_name": "紅甜椒", "pesticides": null, "month": "2026-04"}}, {"type": "Feature", "geometry": {"type": "Point", "coordinates": [121.4946, 25.0697]}, "properties": {"market": "三重", "result": "合格", "product_name": "茄子", "pesticides": null, "month": "2026-04"}}, {"type": "Feature", "geometry": {"type": "Point", "coordinates": [121.4946, 25.0697]}, "properties": {"market": "三重", "result": "合格", "product_name": "牛番茄", "pesticides": null, "month": "2026-04"}}, {"type": "Feature", "geometry": {"type": "Point", "coordinates": [121.4946, 25.0697]}, "properties": {"market": "三重", "result": "合格", "product_name": "小番茄", "pesticides": null, "month": "2026-04"}}, {"type": "Feature", "geometry": {"type": "Point", "coordinates": [121.4946, 25.0697]}, "properties": {"market": "三重", "result": "合格", "product_name": "小黃瓜", "pesticides": null, "month": "2026-04"}}, {"type": "Feature", "geometry": {"type": "Point", "coordinates": [121.4946, 25.0697]}, "properties": {"market": "三重", "result": "合格", "product_name": "絲瓜", "pesticides": null, "month": "2026-04"}}, {"type": "Feature", "geometry": {"type": "Point", "coordinates": [121.4946, 25.0697]}, "properties": {"market": "三重", "result": "不合格", "product_name": "糯米椒", "pesticides": "☆Pymetrozine派滅淨0.05(0.01)", "month": "2026-04"}}, {"type": "Feature", "geometry": {"type": "Point", "coordinates": [121.4946, 25.0697]}, "properties": {"market": "三重", "result": "合格", "product_name": "辣椒", "pesticides": null, "month": "2026-04"}}, {"type": "Feature", "geometry": {"type": "Point", "coordinates": [121.4946, 25.0697]}, "properties": {"market": "三重", "result": "合格", "product_name": "青蔥", "pesticides": null, "month": "2026-04"}}, {"type": "Feature", "geometry": {"type": "Point", "coordinates": [121.4946, 25.0697]}, "properties": {"market": "三重", "result": "合格", "product_name": "白莧菜", "pesticides": null, "month": "2026-04"}}, {"type": "Feature", "geometry": {"type": "Point", "coordinates": [121.4946, 25.0697]}, "properties": {"market": "三重", "result": "合格", "product_name": "地瓜葉", "pesticides": null, "month": "2026-04"}}, {"type": "Feature", "geometry": {"type": "Point", "coordinates": [121.4946, 25.0697]}, "properties": {"market": "三重", "result": "合格", "product_name": "小芥菜", "pesticides": null, "month": "2026-04"}}, {"type": "Feature", "geometry": {"type": "Point", "coordinates": [121.4946, 25.0697]}, "properties": {"market": "三重", "result": "合格", "product_name": "青蔥", "pesticides": null, "month": "2026-04"}}, {"type": "Feature", "geometry": {"type": "Point", "coordinates": [121.4946, 25.0697]}, "properties": {"market": "三重", "result": "合格", "product_name": "芭樂", "pesticides": null, "month": "2026-04"}}, {"type": "Feature", "geometry": {"type": "Point", "coordinates": [121.4946, 25.0697]}, "properties": {"market": "三重", "result": "合格", "product_name": "薑", "pesticides": null, "month": "2026-04"}}, {"type": "Feature", "geometry": {"type": "Point", "coordinates": [121.4946, 25.0697]}, "properties": {"market": "三重", "result": "合格", "product_name": "扁蒲", "pesticides": null, "month": "2026-04"}}, {"type": "Feature", "geometry": {"type": "Point", "coordinates": [121.4946, 25.0697]}, "properties": {"market": "三重", "result": "合格", "product_name": "甘藍", "pesticides": null, "month": "2026-04"}}, {"type": "Feature", "geometry": {"type": "Point", "coordinates": [121.4946, 25.0697]}, "properties": {"market": "三重", "result": "合格", "product_name": "南瓜", "pesticides": null, "month": "2026-04"}}, {"type": "Feature", "geometry": {"type": "Point", "coordinates": [121.4946, 25.0697]}, "properties": {"market": "三重", "result": "合格", "product_name": "絲瓜", "pesticides": null, "month": "2026-04"}}, {"type": "Feature", "geometry": {"type": "Point", "coordinates": [121.4946, 25.0697]}, "properties": {"market": "三重", "result": "合格", "product_name": "小黃瓜", "pesticides": null, "month": "2026-04"}}, {"type": "Feature", "geometry": {"type": "Point", "coordinates": [121.4946, 25.0697]}, "properties": {"market": "三重", "result": "合格", "product_name": "花椰菜", "pesticides": null, "month": "2026-04"}}, {"type": "Feature", "geometry": {"type": "Point", "coordinates": [121.4946, 25.0697]}, "properties": {"market": "三重", "result": "合格", "product_name": "夏南瓜", "pesticides": null, "month": "2026-04"}}, {"type": "Feature", "geometry": {"type": "Point", "coordinates": [121.4946, 25.0697]}, "properties": {"market": "三重", "result": "合格", "product_name": "茄子", "pesticides": null, "month": "2026-04"}}, {"type": "Feature", "geometry": {"type": "Point", "coordinates": [121.4946, 25.0697]}, "properties": {"market": "三重", "result": "合格", "product_name": "彩椒", "pesticides": null, "month": "2026-04"}}, {"type": "Feature", "geometry": {"type": "Point", "coordinates": [121.4946, 25.0697]}, "properties": {"market": "三重", "result": "合格", "product_name": "醜豆", "pesticides": null, "month": "2026-04"}}, {"type": "Feature", "geometry": {"type": "Point", "coordinates": [121.4946, 25.0697]}, "properties": {"market": "三重", "result": "合格", "product_name": "黃秋葵", "pesticides": null, "month": "2026-04"}}, {"type": "Feature", "geometry": {"type": "Point", "coordinates": [121.4946, 25.0697]}, "properties": {"market": "三重", "result": "合格", "product_name": "苦瓜", "pesticides": null, "month": "2026-04"}}, {"type": "Feature", "geometry": {"type": "Point", "coordinates": [121.4946, 25.0697]}, "properties": {"market": "三重", "result": "合格", "product_name": "青椒", "pesticides": null, "month": "2026-04"}}, {"type": "Feature", "geometry": {"type": "Point", "coordinates": [121.4946, 25.0697]}, "properties": {"market": "三重", "result": "合格", "product_name": "哈密瓜", "pesticides": null, "month": "2026-04"}}, {"type": "Feature", "geometry": {"type": "Point", "coordinates": [121.4946, 25.0697]}, "properties": {"market": "三重", "result": "不合格", "product_name": "敏豆", "pesticides": "☆Fenpyroximate芬普蟎0.02(0.01)", "month": "2026-04"}}, {"type": "Feature", "geometry": {"type": "Point", "coordinates": [121.4946, 25.0697]}, "properties": {"market": "三重", "result": "不合格", "product_name": "豇豆", "pesticides": "☆Tricyclazole三賽唑0.04(0.01)", "month": "2026-04"}}, {"type": "Feature", "geometry": {"type": "Point", "coordinates": [121.4946, 25.0697]}, "properties": {"market": "三重", "result": "合格", "product_name": "小番茄", "pesticides": null, "month": "2026-04"}}, {"type": "Feature", "geometry": {"type": "Point", "coordinates": [121.4946, 25.0697]}, "properties": {"market": "三重", "result": "合格", "product_name": "糯米椒", "pesticides": null, "month": "2026-04"}}, {"type": "Feature", "geometry": {"type": "Point", "coordinates": [121.4946, 25.0697]}, "properties": {"market": "三重", "result": "合格", "product_name": "檸檬", "pesticides": null, "month": "2026-04"}}, {"type": "Feature", "geometry": {"type": "Point", "coordinates": [121.4946, 25.0697]}, "properties": {"market": "三重", "result": "合格", "product_name": "圓葉萵苣", "pesticides": null, "month": "2026-04"}}, {"type": "Feature", "geometry": {"type": "Point", "coordinates": [121.4946, 25.0697]}, "properties": {"market": "三重", "result": "合格", "product_name": "芹菜", "pesticides": null, "month": "2026-04"}}, {"type": "Feature", "geometry": {"type": "Point", "coordinates": [121.4946, 25.0697]}, "properties": {"market": "三重", "result": "合格", "product_name": "芥藍芽", "pesticides": null, "month": "2026-04"}}, {"type": "Feature", "geometry": {"type": "Point", "coordinates": [121.4946, 25.0697]}, "properties": {"market": "三重", "result": "合格", "product_name": "油麥菜", "pesticides": null, "month": "2026-04"}}, {"type": "Feature", "geometry": {"type": "Point", "coordinates": [121.4946, 25.0697]}, "properties": {"market": "三重", "result": "合格", "product_name": "辣椒", "pesticides": null, "month": "2026-04"}}, {"type": "Feature", "geometry": {"type": "Point", "coordinates": [121.4946, 25.0697]}, "properties": {"market": "三重", "result": "合格", "product_name": "白蘿蔔", "pesticides": null, "month": "2026-04"}}, {"type": "Feature", "geometry": {"type": "Point", "coordinates": [121.4946, 25.0697]}, "properties": {"market": "三重", "result": "合格", "product_name": "胡蘿蔔", "pesticides": null, "month": "2026-04"}}, {"type": "Feature", "geometry": {"type": "Point", "coordinates": [121.4946, 25.0697]}, "properties": {"market": "三重", "result": "合格", "product_name": "敏豆", "pesticides": null, "month": "2026-04"}}, {"type": "Feature", "geometry": {"type": "Point", "coordinates": [121.4946, 25.0697]}, "properties": {"market": "三重", "result": "合格", "product_name": "葡萄", "pesticides": null, "month": "2026-04"}}, {"type": "Feature", "geometry": {"type": "Point", "coordinates": [121.4946, 25.0697]}, "properties": {"market": "三重", "result": "合格", "product_name": "桶柑", "pesticides": null, "month": "2026-04"}}, {"type": "Feature", "geometry": {"type": "Point", "coordinates": [121.4946, 25.0697]}, "properties": {"market": "三重", "result": "合格", "product_name": "夏南瓜", "pesticides": null, "month": "2026-04"}}, {"type": "Feature", "geometry": {"type": "Point", "coordinates": [121.4946, 25.0697]}, "properties": {"market": "三重", "result": "合格", "product_name": "芭樂", "pesticides": null, "month": "2026-04"}}, {"type": "Feature", "geometry": {"type": "Point", "coordinates": [121.4946, 25.0697]}, "properties": {"market": "三重", "result": "合格", "product_name": "扁蒲", "pesticides": null, "month": "2026-04"}}, {"type": "Feature", "geometry": {"type": "Point", "coordinates": [121.4946, 25.0697]}, "properties": {"market": "三重", "result": "合格", "product_name": "茄子", "pesticides": null, "month": "2026-04"}}, {"type": "Feature", "geometry": {"type": "Point", "coordinates": [121.4946, 25.0697]}, "properties": {"market": "三重", "result": "合格", "product_name": "苦瓜", "pesticides": null, "month": "2026-04"}}, {"type": "Feature", "geometry": {"type": "Point", "coordinates": [121.4946, 25.0697]}, "properties": {"market": "三重", "result": "合格", "product_name": "花椰菜", "pesticides": null, "month": "2026-04"}}, {"type": "Feature", "geometry": {"type": "Point", "coordinates": [121.4946, 25.0697]}, "properties": {"market": "三重", "result": "合格", "product_name": "哈密瓜", "pesticides": null, "month": "2026-04"}}, {"type": "Feature", "geometry": {"type": "Point", "coordinates": [121.4946, 25.0697]}, "properties": {"market": "三重", "result": "合格", "product_name": "黃秋葵", "pesticides": null, "month": "2026-04"}}, {"type": "Feature", "geometry": {"type": "Point", "coordinates": [121.4946, 25.0697]}, "properties": {"market": "三重", "result": "合格", "product_name": "小番茄", "pesticides": null, "month": "2026-04"}}, {"type": "Feature", "geometry": {"type": "Point", "coordinates": [121.4946, 25.0697]}, "properties": {"market": "三重", "result": "合格", "product_name": "豇豆", "pesticides": null, "month": "2026-04"}}, {"type": "Feature", "geometry": {"type": "Point", "coordinates": [121.4946, 25.0697]}, "properties": {"market": "三重", "result": "合格", "product_name": "青椒", "pesticides": null, "month": "2026-04"}}, {"type": "Feature", "geometry": {"type": "Point", "coordinates": [121.4946, 25.0697]}, "properties": {"market": "三重", "result": "合格", "product_name": "小黃瓜", "pesticides": null, "month": "2026-04"}}, {"type": "Feature", "geometry": {"type": "Point", "coordinates": [121.4946, 25.0697]}, "properties": {"market": "三重", "result": "合格", "product_name": "絲瓜", "pesticides": null, "month": "2026-04"}}, {"type": "Feature", "geometry": {"type": "Point", "coordinates": [121.4946, 25.0697]}, "properties": {"market": "三重", "result": "合格", "product_name": "彩椒", "pesticides": null, "month": "2026-04"}}, {"type": "Feature", "geometry": {"type": "Point", "coordinates": [121.4946, 25.0697]}, "properties": {"market": "三重", "result": "合格", "product_name": "甘藷", "pesticides": null, "month": "2026-04"}}, {"type": "Feature", "geometry": {"type": "Point", "coordinates": [121.4946, 25.0697]}, "properties": {"market": "三重", "result": "合格", "product_name": "牛蕃茄", "pesticides": null, "month": "2026-04"}}, {"type": "Feature", "geometry": {"type": "Point", "coordinates": [121.4946, 25.0697]}, "properties": {"market": "三重", "result": "合格", "product_name": "白蘿蔔", "pesticides": null, "month": "2026-04"}}, {"type": "Feature", "geometry": {"type": "Point", "coordinates": [121.4946, 25.0697]}, "properties": {"market": "三重", "result": "合格", "product_name": "辣椒", "pesticides": null, "month": "2026-04"}}, {"type": "Feature", "geometry": {"type": "Point", "coordinates": [121.4946, 25.0697]}, "properties": {"market": "三重", "result": "合格", "product_name": "青蔥", "pesticides": null, "month": "2026-04"}}, {"type": "Feature", "geometry": {"type": "Point", "coordinates": [121.4946, 25.0697]}, "properties": {"market": "三重", "result": "合格", "product_name": "芥菜", "pesticides": null, "month": "2026-04"}}, {"type": "Feature", "geometry": {"type": "Point", "coordinates": [121.4946, 25.0697]}, "properties": {"market": "三重", "result": "合格", "product_name": "芫荽", "pesticides": null, "month": "2026-04"}}, {"type": "Feature", "geometry": {"type": "Point", "coordinates": [121.4946, 25.0697]}, "properties": {"market": "三重", "result": "合格", "product_name": "皇宮菜", "pesticides": null, "month": "2026-04"}}, {"type": "Feature", "geometry": {"type": "Point", "coordinates": [121.4946, 25.0697]}, "properties": {"market": "三重", "result": "合格", "product_name": "白莧菜", "pesticides": null, "month": "2026-04"}}, {"type": "Feature", "geometry": {"type": "Point", "coordinates": [121.4946, 25.0697]}, "properties": {"market": "三重", "result": "合格", "product_name": "芥藍芽", "pesticides": null, "month": "2026-04"}}, {"type": "Feature", "geometry": {"type": "Point", "coordinates": [121.4946, 25.0697]}, "properties": {"market": "三重", "result": "合格", "product_name": "小番茄", "pesticides": null, "month": "2026-04"}}, {"type": "Feature", "geometry": {"type": "Point", "coordinates": [121.4946, 25.0697]}, "properties": {"market": "三重", "result": "合格", "product_name": "鳳梨", "pesticides": null, "month": "2026-04"}}, {"type": "Feature", "geometry": {"type": "Point", "coordinates": [121.4946, 25.0697]}, "properties": {"market": "三重", "result": "合格", "product_name": "芭樂", "pesticides": null, "month": "2026-04"}}, {"type": "Feature", "geometry": {"type": "Point", "coordinates": [121.4946, 25.0697]}, "properties": {"market": "三重", "result": "合格", "product_name": "小番茄", "pesticides": null, "month": "2026-04"}}, {"type": "Feature", "geometry": {"type": "Point", "coordinates": [121.4946, 25.0697]}, "properties": {"market": "三重", "result": "合格", "product_name": "佛手瓜", "pesticides": null, "month": "2026-04"}}, {"type": "Feature", "geometry": {"type": "Point", "coordinates": [121.4946, 25.0697]}, "properties": {"market": "三重", "result": "合格", "product_name": "扁蒲", "pesticides": null, "month": "2026-04"}}, {"type": "Feature", "geometry": {"type": "Point", "coordinates": [121.4946, 25.0697]}, "properties": {"market": "三重", "result": "合格", "product_name": "苦瓜", "pesticides": null, "month": "2026-04"}}, {"type": "Feature", "geometry": {"type": "Point", "coordinates": [121.4946, 25.0697]}, "properties": {"market": "三重", "result": "合格", "product_name": "青花菜", "pesticides": null, "month": "2026-04"}}, {"type": "Feature", "geometry": {"type": "Point", "coordinates": [121.4946, 25.0697]}, "properties": {"market": "三重", "result": "合格", "product_name": "茄子", "pesticides": null, "month": "2026-04"}}, {"type": "Feature", "geometry": {"type": "Point", "coordinates": [121.4946, 25.0697]}, "properties": {"market": "三重", "result": "合格", "product_name": "青椒", "pesticides": null, "month": "2026-04"}}, {"type": "Feature", "geometry": {"type": "Point", "coordinates": [121.4946, 25.0697]}, "properties": {"market": "三重", "result": "合格", "product_name": "黃秋葵", "pesticides": null, "month": "2026-04"}}, {"type": "Feature", "geometry": {"type": "Point", "coordinates": [121.4946, 25.0697]}, "properties": {"market": "三重", "result": "合格", "product_name": "蚵白菜", "pesticides": null, "month": "2026-04"}}, {"type": "Feature", "geometry": {"type": "Point", "coordinates": [121.4946, 25.0697]}, "properties": {"market": "三重", "result": "合格", "product_name": "哈密瓜", "pesticides": null, "month": "2026-04"}}, {"type": "Feature", "geometry": {"type": "Point", "coordinates": [121.4946, 25.0697]}, "properties": {"market": "三重", "result": "合格", "product_name": "豇豆", "pesticides": null, "month": "2026-04"}}, {"type": "Feature", "geometry": {"type": "Point", "coordinates": [121.4946, 25.0697]}, "properties": {"market": "三重", "result": "合格", "product_name": "敏豆", "pesticides": null, "month": "2026-04"}}, {"type": "Feature", "geometry": {"type": "Point", "coordinates": [121.4946, 25.0697]}, "properties": {"market": "三重", "result": "合格", "product_name": "彩椒", "pesticides": null, "month": "2026-04"}}, {"type": "Feature", "geometry": {"type": "Point", "coordinates": [121.4946, 25.0697]}, "properties": {"market": "三重", "result": "合格", "product_name": "辣椒", "pesticides": null, "month": "2026-04"}}, {"type": "Feature", "geometry": {"type": "Point", "coordinates": [121.4946, 25.0697]}, "properties": {"market": "三重", "result": "合格", "product_name": "糯米椒", "pesticides": null, "month": "2026-04"}}, {"type": "Feature", "geometry": {"type": "Point", "coordinates": [121.4946, 25.0697]}, "properties": {"market": "三重", "result": "合格", "product_name": "青蔥", "pesticides": null, "month": "2026-04"}}, {"type": "Feature", "geometry": {"type": "Point", "coordinates": [121.4946, 25.0697]}, "properties": {"market": "三重", "result": "合格", "product_name": "白莧菜", "pesticides": null, "month": "2026-04"}}, {"type": "Feature", "geometry": {"type": "Point", "coordinates": [121.4946, 25.0697]}, "properties": {"market": "三重", "result": "合格", "product_name": "油麥菜", "pesticides": null, "month": "2026-04"}}, {"type": "Feature", "geometry": {"type": "Point", "coordinates": [121.4946, 25.0697]}, "properties": {"market": "三重", "result": "合格", "product_name": "包心白菜", "pesticides": null, "month": "2026-04"}}, {"type": "Feature", "geometry": {"type": "Point", "coordinates": [121.4946, 25.0697]}, "properties": {"market": "三重", "result": "不合格", "product_name": "菠菜", "pesticides": "☆Ametryn草殺淨0.05(0.01); Propamocarb hydrochloride普拔克14.16(10.0)", "month": "2026-04"}}, {"type": "Feature", "geometry": {"type": "Point", "coordinates": [121.4946, 25.0697]}, "properties": {"market": "三重", "result": "合格", "product_name": "蕹菜", "pesticides": null, "month": "2026-04"}}, {"type": "Feature", "geometry": {"type": "Point", "coordinates": [121.4946, 25.0697]}, "properties": {"market": "三重", "result": "合格", "product_name": "九層塔", "pesticides": null, "month": "2026-04"}}, {"type": "Feature", "geometry": {"type": "Point", "coordinates": [121.4946, 25.0697]}, "properties": {"market": "三重", "result": "合格", "product_name": "檸檬", "pesticides": null, "month": "2026-04"}}, {"type": "Feature", "geometry": {"type": "Point", "coordinates": [121.4946, 25.0697]}, "properties": {"market": "三重", "result": "合格", "product_name": "白莧菜", "pesticides": null, "month": "2026-04"}}, {"type": "Feature", "geometry": {"type": "Point", "coordinates": [121.4946, 25.0697]}, "properties": {"market": "三重", "result": "合格", "product_name": "油麥菜", "pesticides": null, "month": "2026-04"}}, {"type": "Feature", "geometry": {"type": "Point", "coordinates": [121.4946, 25.0697]}, "properties": {"market": "三重", "result": "合格", "product_name": "絲瓜", "pesticides": null, "month": "2026-04"}}, {"type": "Feature", "geometry": {"type": "Point", "coordinates": [121.4946, 25.0697]}, "properties": {"market": "三重", "result": "合格", "product_name": "芥藍芽", "pesticides": null, "month": "2026-04"}}, {"type": "Feature", "geometry": {"type": "Point", "coordinates": [121.4946, 25.0697]}, "properties": {"market": "三重", "result": "合格", "product_name": "九層塔", "pesticides": null, "month": "2026-04"}}, {"type": "Feature", "geometry": {"type": "Point", "coordinates": [121.4946, 25.0697]}, "properties": {"market": "三重", "result": "合格", "product_name": "圓葉萵苣", "pesticides": null, "month": "2026-04"}}, {"type": "Feature", "geometry": {"type": "Point", "coordinates": [121.4946, 25.0697]}, "properties": {"market": "三重", "result": "合格", "product_name": "蚵白菜", "pesticides": null, "month": "2026-04"}}, {"type": "Feature", "geometry": {"type": "Point", "coordinates": [121.4946, 25.0697]}, "properties": {"market": "三重", "result": "合格", "product_name": "青蔥", "pesticides": null, "month": "2026-04"}}, {"type": "Feature", "geometry": {"type": "Point", "coordinates": [121.4946, 25.0697]}, "properties": {"market": "三重", "result": "合格", "product_name": "辣椒", "pesticides": null, "month": "2026-04"}}, {"type": "Feature", "geometry": {"type": "Point", "coordinates": [121.4946, 25.0697]}, "properties": {"market": "三重", "result": "合格", "product_name": "糯米椒", "pesticides": null, "month": "2026-04"}}, {"type": "Feature", "geometry": {"type": "Point", "coordinates": [121.4946, 25.0697]}, "properties": {"market": "三重", "result": "合格", "product_name": "黃甜椒", "pesticides": null, "month": "2026-04"}}, {"type": "Feature", "geometry": {"type": "Point", "coordinates": [121.4946, 25.0697]}, "properties": {"market": "三重", "result": "合格", "product_name": "茄子", "pesticides": null, "month": "2026-04"}}, {"type": "Feature", "geometry": {"type": "Point", "coordinates": [121.4946, 25.0697]}, "properties": {"market": "三重", "result": "合格", "product_name": "球莖甘藍", "pesticides": null, "month": "2026-04"}}, {"type": "Feature", "geometry": {"type": "Point", "coordinates": [121.4946, 25.0697]}, "properties": {"market": "三重", "result": "合格", "product_name": "小番茄", "pesticides": null, "month": "2026-04"}}, {"type": "Feature", "geometry": {"type": "Point", "coordinates": [121.4946, 25.0697]}, "properties": {"market": "三重", "result": "合格", "product_name": "敏豆", "pesticides": null, "month": "2026-04"}}, {"type": "Feature", "geometry": {"type": "Point", "coordinates": [121.4946, 25.0697]}, "properties": {"market": "三重", "result": "合格", "product_name": "青椒", "pesticides": null, "month": "2026-04"}}, {"type": "Feature", "geometry": {"type": "Point", "coordinates": [121.4946, 25.0697]}, "properties": {"market": "三重", "result": "合格", "product_name": "哈密瓜", "pesticides": null, "month": "2026-04"}}, {"type": "Feature", "geometry": {"type": "Point", "coordinates": [121.4946, 25.0697]}, "properties": {"market": "三重", "result": "合格", "product_name": "秋葵", "pesticides": null, "month": "2026-04"}}, {"type": "Feature", "geometry": {"type": "Point", "coordinates": [121.4946, 25.0697]}, "properties": {"market": "三重", "result": "合格", "product_name": "夏南瓜", "pesticides": null, "month": "2026-04"}}, {"type": "Feature", "geometry": {"type": "Point", "coordinates": [121.4946, 25.0697]}, "properties": {"market": "三重", "result": "合格", "product_name": "桶柑", "pesticides": null, "month": "2026-04"}}, {"type": "Feature", "geometry": {"type": "Point", "coordinates": [121.4946, 25.0697]}, "properties": {"market": "三重", "result": "合格", "product_name": "苦瓜", "pesticides": null, "month": "2026-04"}}, {"type": "Feature", "geometry": {"type": "Point", "coordinates": [121.4946, 25.0697]}, "properties": {"market": "三重", "result": "合格", "product_name": "芭樂", "pesticides": null, "month": "2026-04"}}, {"type": "Feature", "geometry": {"type": "Point", "coordinates": [121.4946, 25.0697]}, "properties": {"market": "三重", "result": "合格", "product_name": "芹菜", "pesticides": null, "month": "2026-04"}}, {"type": "Feature", "geometry": {"type": "Point", "coordinates": [121.4946, 25.0697]}, "properties": {"market": "三重", "result": "合格", "product_name": "木瓜", "pesticides": null, "month": "2026-04"}}, {"type": "Feature", "geometry": {"type": "Point", "coordinates": [121.4946, 25.0697]}, "properties": {"market": "三重", "result": "合格", "product_name": "芭樂", "pesticides": null, "month": "2026-04"}}, {"type": "Feature", "geometry": {"type": "Point", "coordinates": [121.4946, 25.0697]}, "properties": {"market": "三重", "result": "合格", "product_name": "扁蒲", "pesticides": null, "month": "2026-04"}}, {"type": "Feature", "geometry": {"type": "Point", "coordinates": [121.4946, 25.0697]}, "properties": {"market": "三重", "result": "合格", "product_name": "桶柑", "pesticides": null, "month": "2026-04"}}, {"type": "Feature", "geometry": {"type": "Point", "coordinates": [121.4946, 25.0697]}, "properties": {"market": "三重", "result": "合格", "product_name": "馬鈴薯", "pesticides": null, "month": "2026-04"}}, {"type": "Feature", "geometry": {"type": "Point", "coordinates": [121.4946, 25.0697]}, "properties": {"market": "三重", "result": "合格", "product_name": "芭樂", "pesticides": null, "month": "2026-04"}}, {"type": "Feature", "geometry": {"type": "Point", "coordinates": [121.4946, 25.0697]}, "properties": {"market": "三重", "result": "合格", "product_name": "鳳梨", "pesticides": null, "month": "2026-04"}}, {"type": "Feature", "geometry": {"type": "Point", "coordinates": [121.4946, 25.0697]}, "properties": {"market": "三重", "result": "合格", "product_name": "小番茄", "pesticides": null, "month": "2026-04"}}, {"type": "Feature", "geometry": {"type": "Point", "coordinates": [121.4946, 25.0697]}, "properties": {"market": "三重", "result": "不合格", "product_name": "青蔥", "pesticides": "Deltamethrin第滅寧0.68(0.2)", "month": "2026-04"}}, {"type": "Feature", "geometry": {"type": "Point", "coordinates": [121.4946, 25.0697]}, "properties": {"market": "三重", "result": "不合格", "product_name": "油菜", "pesticides": "☆Propiconazole普克利0.02(0.01); ☆Fipronil芬普尼0.081(0.001)", "month": "2026-04"}}, {"type": "Feature", "geometry": {"type": "Point", "coordinates": [121.4946, 25.0697]}, "properties": {"market": "三重", "result": "合格", "product_name": "小芥菜", "pesticides": null, "month": "2026-04"}}, {"type": "Feature", "geometry": {"type": "Point", "coordinates": [121.4946, 25.0697]}, "properties": {"market": "三重", "result": "合格", "product_name": "檸檬", "pesticides": null, "month": "2026-04"}}, {"type": "Feature", "geometry": {"type": "Point", "coordinates": [121.4946, 25.0697]}, "properties": {"market": "三重", "result": "不合格", "product_name": "青江菜", "pesticides": "Chlorfenapyr克凡派3.62(1.0); Pyraclostrobin百克敏2.76(2.0); Tolfenpyrad脫芬瑞3.55(0.5); Difenoconazole待克利1.3(1.0)", "month": "2026-04"}}, {"type": "Feature", "geometry": {"type": "Point", "coordinates": [121.4946, 25.0697]}, "properties": {"market": "三重", "result": "合格", "product_name": "小白菜", "pesticides": null, "month": "2026-04"}}, {"type": "Feature", "geometry": {"type": "Point", "coordinates": [121.4946, 25.0697]}, "properties": {"market": "三重", "result": "合格", "product_name": "甜椒", "pesticides": null, "month": "2026-04"}}, {"type": "Feature", "geometry": {"type": "Point", "coordinates": [121.4946, 25.0697]}, "properties": {"market": "三重", "result": "合格", "product_name": "豇豆", "pesticides": null, "month": "2026-04"}}, {"type": "Feature", "geometry": {"type": "Point", "coordinates": [121.4946, 25.0697]}, "properties": {"market": "三重", "result": "合格", "product_name": "青椒", "pesticides": null, "month": "2026-04"}}, {"type": "Feature", "geometry": {"type": "Point", "coordinates": [121.4946, 25.0697]}, "properties": {"market": "三重", "result": "合格", "product_name": "敏豆", "pesticides": null, "month": "2026-04"}}, {"type": "Feature", "geometry": {"type": "Point", "coordinates": [121.4946, 25.0697]}, "properties": {"market": "三重", "result": "合格", "product_name": "茄子", "pesticides": null, "month": "2026-04"}}, {"type": "Feature", "geometry": {"type": "Point", "coordinates": [121.4946, 25.0697]}, "properties": {"market": "三重", "result": "合格", "product_name": "苦瓜", "pesticides": null, "month": "2026-04"}}, {"type": "Feature", "geometry": {"type": "Point", "coordinates": [121.4946, 25.0697]}, "properties": {"market": "三重", "result": "合格", "product_name": "小番茄", "pesticides": null, "month": "2026-04"}}, {"type": "Feature", "geometry": {"type": "Point", "coordinates": [121.4946, 25.0697]}, "properties": {"market": "三重", "result": "合格", "product_name": "茄子", "pesticides": null, "month": "2026-04"}}, {"type": "Feature", "geometry": {"type": "Point", "coordinates": [121.4946, 25.0697]}, "properties": {"market": "三重", "result": "合格", "product_name": "胡蘿蔔", "pesticides": null, "month": "2026-04"}}, {"type": "Feature", "geometry": {"type": "Point", "coordinates": [121.4946, 25.0697]}, "properties": {"market": "三重", "result": "合格", "product_name": "白蘿蔔", "pesticides": null, "month": "2026-04"}}, {"type": "Feature", "geometry": {"type": "Point", "coordinates": [121.4946, 25.0697]}, "properties": {"market": "三重", "result": "合格", "product_name": "辣椒", "pesticides": null, "month": "2026-04"}}, {"type": "Feature", "geometry": {"type": "Point", "coordinates": [121.4946, 25.0697]}, "properties": {"market": "三重", "result": "合格", "product_name": "青辣椒", "pesticides": null, "month": "2026-04"}}, {"type": "Feature", "geometry": {"type": "Point", "coordinates": [121.4946, 25.0697]}, "properties": {"market": "三重", "result": "合格", "product_name": "韭菜", "pesticides": null, "month": "2026-04"}}, {"type": "Feature", "geometry": {"type": "Point", "coordinates": [121.4946, 25.0697]}, "properties": {"market": "三重", "result": "合格", "product_name": "絲瓜", "pesticides": null, "month": "2026-04"}}, {"type": "Feature", "geometry": {"type": "Point", "coordinates": [121.4946, 25.0697]}, "properties": {"market": "三重", "result": "合格", "product_name": "夏南瓜", "pesticides": null, "month": "2026-04"}}, {"type": "Feature", "geometry": {"type": "Point", "coordinates": [121.4946, 25.0697]}, "properties": {"market": "三重", "result": "合格", "product_name": "小黃瓜", "pesticides": null, "month": "2026-04"}}, {"type": "Feature", "geometry": {"type": "Point", "coordinates": [121.4946, 25.0697]}, "properties": {"market": "三重", "result": "合格", "product_name": "地瓜", "pesticides": null, "month": "2026-04"}}, {"type": "Feature", "geometry": {"type": "Point", "coordinates": [121.4946, 25.0697]}, "properties": {"market": "三重", "result": "合格", "product_name": "甘藍", "pesticides": null, "month": "2026-04"}}, {"type": "Feature", "geometry": {"type": "Point", "coordinates": [121.4946, 25.0697]}, "properties": {"market": "三重", "result": "不合格", "product_name": "牛番茄", "pesticides": "☆Dimethoate大滅松0.19(0.01)", "month": "2026-04"}}, {"type": "Feature", "geometry": {"type": "Point", "coordinates": [121.4823, 25.0146]}, "properties": {"market": "板橋", "result": "不合格", "product_name": "菠菜", "pesticides": "Propamocarb hydrochloride普拔克16.89(10.0)", "month": "2026-04"}}, {"type": "Feature", "geometry": {"type": "Point", "coordinates": [121.4823, 25.0146]}, "properties": {"market": "板橋", "result": "合格", "product_name": "胡瓜", "pesticides": null, "month": "2026-04"}}, {"type": "Feature", "geometry": {"type": "Point", "coordinates": [121.4823, 25.0146]}, "properties": {"market": "板橋", "result": "合格", "product_name": "南瓜", "pesticides": null, "month": "2026-04"}}, {"type": "Feature", "geometry": {"type": "Point", "coordinates": [121.4823, 25.0146]}, "properties": {"market": "板橋", "result": "合格", "product_name": "花椰菜", "pesticides": null, "month": "2026-04"}}, {"type": "Feature", "geometry": {"type": "Point", "coordinates": [121.4823, 25.0146]}, "properties": {"market": "板橋", "result": "合格", "product_name": "絲瓜", "pesticides": null, "month": "2026-04"}}, {"type": "Feature", "geometry": {"type": "Point", "coordinates": [121.4823, 25.0146]}, "properties": {"market": "板橋", "result": "合格", "product_name": "佛手瓜", "pesticides": null, "month": "2026-04"}}, {"type": "Feature", "geometry": {"type": "Point", "coordinates": [121.4823, 25.0146]}, "properties": {"market": "板橋", "result": "合格", "product_name": "辣椒", "pesticides": null, "month": "2026-04"}}, {"type": "Feature", "geometry": {"type": "Point", "coordinates": [121.4823, 25.0146]}, "properties": {"market": "板橋", "result": "合格", "product_name": "豇豆", "pesticides": null, "month": "2026-04"}}, {"type": "Feature", "geometry": {"type": "Point", "coordinates": [121.4823, 25.0146]}, "properties": {"market": "板橋", "result": "合格", "product_name": "敏豆", "pesticides": null, "month": "2026-04"}}, {"type": "Feature", "geometry": {"type": "Point", "coordinates": [121.4823, 25.0146]}, "properties": {"market": "板橋", "result": "合格", "product_name": "茄子", "pesticides": null, "month": "2026-04"}}, {"type": "Feature", "geometry": {"type": "Point", "coordinates": [121.4823, 25.0146]}, "properties": {"market": "板橋", "result": "合格", "product_name": "苦瓜", "pesticides": null, "month": "2026-04"}}, {"type": "Feature", "geometry": {"type": "Point", "coordinates": [121.4823, 25.0146]}, "properties": {"market": "板橋", "result": "合格", "product_name": "山藥", "pesticides": null, "month": "2026-04"}}, {"type": "Feature", "geometry": {"type": "Point", "coordinates": [121.4823, 25.0146]}, "properties": {"market": "板橋", "result": "合格", "product_name": "蚵白菜", "pesticides": null, "month": "2026-04"}}, {"type": "Feature", "geometry": {"type": "Point", "coordinates": [121.4823, 25.0146]}, "properties": {"market": "板橋", "result": "合格", "product_name": "包心芥菜", "pesticides": null, "month": "2026-04"}}, {"type": "Feature", "geometry": {"type": "Point", "coordinates": [121.4823, 25.0146]}, "properties": {"market": "板橋", "result": "合格", "product_name": "芥藍菜", "pesticides": null, "month": "2026-04"}}, {"type": "Feature", "geometry": {"type": "Point", "coordinates": [121.4823, 25.0146]}, "properties": {"market": "板橋", "result": "合格", "product_name": "敏豆", "pesticides": null, "month": "2026-04"}}, {"type": "Feature", "geometry": {"type": "Point", "coordinates": [121.4823, 25.0146]}, "properties": {"market": "板橋", "result": "合格", "product_name": "青椒", "pesticides": null, "month": "2026-04"}}, {"type": "Feature", "geometry": {"type": "Point", "coordinates": [121.4823, 25.0146]}, "properties": {"market": "板橋", "result": "合格", "product_name": "芭樂", "pesticides": null, "month": "2026-04"}}, {"type": "Feature", "geometry": {"type": "Point", "coordinates": [121.4823, 25.0146]}, "properties": {"market": "板橋", "result": "合格", "product_name": "西瓜", "pesticides": null, "month": "2026-04"}}, {"type": "Feature", "geometry": {"type": "Point", "coordinates": [121.4823, 25.0146]}, "properties": {"market": "板橋", "result": "合格", "product_name": "芭樂", "pesticides": null, "month": "2026-04"}}, {"type": "Feature", "geometry": {"type": "Point", "coordinates": [121.4823, 25.0146]}, "properties": {"market": "板橋", "result": "合格", "product_name": "蕹菜", "pesticides": null, "month": "2026-04"}}, {"type": "Feature", "geometry": {"type": "Point", "coordinates": [121.4823, 25.0146]}, "properties": {"market": "板橋", "result": "合格", "product_name": "青椒", "pesticides": null, "month": "2026-04"}}, {"type": "Feature", "geometry": {"type": "Point", "coordinates": [121.4823, 25.0146]}, "properties": {"market": "板橋", "result": "合格", "product_name": "萵苣", "pesticides": null, "month": "2026-04"}}, {"type": "Feature", "geometry": {"type": "Point", "coordinates": [121.4823, 25.0146]}, "properties": {"market": "板橋", "result": "合格", "product_name": "皇宮菜", "pesticides": null, "month": "2026-04"}}, {"type": "Feature", "geometry": {"type": "Point", "coordinates": [121.4823, 25.0146]}, "properties": {"market": "板橋", "result": "合格", "product_name": "芹菜", "pesticides": null, "month": "2026-04"}}, {"type": "Feature", "geometry": {"type": "Point", "coordinates": [121.4823, 25.0146]}, "properties": {"market": "板橋", "result": "合格", "product_name": "青江菜", "pesticides": null, "month": "2026-04"}}, {"type": "Feature", "geometry": {"type": "Point", "coordinates": [121.4823, 25.0146]}, "properties": {"market": "板橋", "result": "合格", "product_name": "九層塔", "pesticides": null, "month": "2026-04"}}, {"type": "Feature", "geometry": {"type": "Point", "coordinates": [121.4823, 25.0146]}, "properties": {"market": "板橋", "result": "合格", "product_name": "牛蕃茄", "pesticides": null, "month": "2026-04"}}, {"type": "Feature", "geometry": {"type": "Point", "coordinates": [121.4823, 25.0146]}, "properties": {"market": "板橋", "result": "合格", "product_name": "芹菜", "pesticides": null, "month": "2026-04"}}, {"type": "Feature", "geometry": {"type": "Point", "coordinates": [121.4823, 25.0146]}, "properties": {"market": "板橋", "result": "合格", "product_name": "牛蕃茄", "pesticides": null, "month": "2026-04"}}, {"type": "Feature", "geometry": {"type": "Point", "coordinates": [121.4823, 25.0146]}, "properties": {"market": "板橋", "result": "合格", "product_name": "青江菜", "pesticides": null, "month": "2026-04"}}, {"type": "Feature", "geometry": {"type": "Point", "coordinates": [121.4823, 25.0146]}, "properties": {"market": "板橋", "result": "合格", "product_name": "油菜", "pesticides": null, "month": "2026-04"}}, {"type": "Feature", "geometry": {"type": "Point", "coordinates": [121.4823, 25.0146]}, "properties": {"market": "板橋", "result": "合格", "product_name": "蕹菜", "pesticides": null, "month": "2026-04"}}, {"type": "Feature", "geometry": {"type": "Point", "coordinates": [121.4823, 25.0146]}, "properties": {"market": "板橋", "result": "合格", "product_name": "萵苣", "pesticides": null, "month": "2026-04"}}, {"type": "Feature", "geometry": {"type": "Point", "coordinates": [121.4823, 25.0146]}, "properties": {"market": "板橋", "result": "合格", "product_name": "紅鳳菜", "pesticides": null, "month": "2026-04"}}, {"type": "Feature", "geometry": {"type": "Point", "coordinates": [121.4823, 25.0146]}, "properties": {"market": "板橋", "result": "不合格", "product_name": "辣椒", "pesticides": "☆Hexaconazole菲克利0.03(0.01)", "month": "2026-04"}}, {"type": "Feature", "geometry": {"type": "Point", "coordinates": [121.4823, 25.0146]}, "properties": {"market": "板橋", "result": "合格", "product_name": "敏豆", "pesticides": null, "month": "2026-04"}}, {"type": "Feature", "geometry": {"type": "Point", "coordinates": [121.4823, 25.0146]}, "properties": {"market": "板橋", "result": "合格", "product_name": "豇豆", "pesticides": null, "month": "2026-04"}}, {"type": "Feature", "geometry": {"type": "Point", "coordinates": [121.4823, 25.0146]}, "properties": {"market": "板橋", "result": "合格", "product_name": "佛手瓜", "pesticides": null, "month": "2026-04"}}, {"type": "Feature", "geometry": {"type": "Point", "coordinates": [121.4823, 25.0146]}, "properties": {"market": "板橋", "result": "合格", "product_name": "茄子", "pesticides": null, "month": "2026-04"}}, {"type": "Feature", "geometry": {"type": "Point", "coordinates": [121.4823, 25.0146]}, "properties": {"market": "板橋", "result": "合格", "product_name": "青蔥", "pesticides": null, "month": "2026-04"}}, {"type": "Feature", "geometry": {"type": "Point", "coordinates": [121.4823, 25.0146]}, "properties": {"market": "板橋", "result": "合格", "product_name": "青椒", "pesticides": null, "month": "2026-04"}}, {"type": "Feature", "geometry": {"type": "Point", "coordinates": [121.4823, 25.0146]}, "properties": {"market": "板橋", "result": "合格", "product_name": "花豆", "pesticides": null, "month": "2026-04"}}, {"type": "Feature", "geometry": {"type": "Point", "coordinates": [121.4823, 25.0146]}, "properties": {"market": "板橋", "result": "合格", "product_name": "奶油白菜", "pesticides": null, "month": "2026-04"}}, {"type": "Feature", "geometry": {"type": "Point", "coordinates": [121.4823, 25.0146]}, "properties": {"market": "板橋", "result": "不合格", "product_name": "菠菜", "pesticides": "☆Fipronil芬普尼0.002(0.001)", "month": "2026-04"}}, {"type": "Feature", "geometry": {"type": "Point", "coordinates": [121.4823, 25.0146]}, "properties": {"market": "板橋", "result": "合格", "product_name": "芥藍菜", "pesticides": null, "month": "2026-04"}}, {"type": "Feature", "geometry": {"type": "Point", "coordinates": [121.4823, 25.0146]}, "properties": {"market": "板橋", "result": "合格", "product_name": "木耳", "pesticides": null, "month": "2026-04"}}, {"type": "Feature", "geometry": {"type": "Point", "coordinates": [121.4823, 25.0146]}, "properties": {"market": "板橋", "result": "合格", "product_name": "苦瓜", "pesticides": null, "month": "2026-04"}}, {"type": "Feature", "geometry": {"type": "Point", "coordinates": [121.4823, 25.0146]}, "properties": {"market": "板橋", "result": "合格", "product_name": "柑橘", "pesticides": null, "month": "2026-04"}}, {"type": "Feature", "geometry": {"type": "Point", "coordinates": [121.4823, 25.0146]}, "properties": {"market": "板橋", "result": "合格", "product_name": "芭樂", "pesticides": null, "month": "2026-04"}}, {"type": "Feature", "geometry": {"type": "Point", "coordinates": [121.4823, 25.0146]}, "properties": {"market": "板橋", "result": "合格", "product_name": "甜瓜", "pesticides": null, "month": "2026-04"}}, {"type": "Feature", "geometry": {"type": "Point", "coordinates": [121.4823, 25.0146]}, "properties": {"market": "板橋", "result": "合格", "product_name": "地瓜", "pesticides": null, "month": "2026-04"}}, {"type": "Feature", "geometry": {"type": "Point", "coordinates": [121.4823, 25.0146]}, "properties": {"market": "板橋", "result": "合格", "product_name": "紅蘿蔔", "pesticides": null, "month": "2026-04"}}, {"type": "Feature", "geometry": {"type": "Point", "coordinates": [121.4823, 25.0146]}, "properties": {"market": "板橋", "result": "合格", "product_name": "絲瓜", "pesticides": null, "month": "2026-04"}}, {"type": "Feature", "geometry": {"type": "Point", "coordinates": [121.4823, 25.0146]}, "properties": {"market": "板橋", "result": "合格", "product_name": "小黃瓜", "pesticides": null, "month": "2026-04"}}, {"type": "Feature", "geometry": {"type": "Point", "coordinates": [121.4823, 25.0146]}, "properties": {"market": "板橋", "result": "合格", "product_name": "馬鈴薯", "pesticides": null, "month": "2026-04"}}, {"type": "Feature", "geometry": {"type": "Point", "coordinates": [121.4823, 25.0146]}, "properties": {"market": "板橋", "result": "合格", "product_name": "青江菜", "pesticides": null, "month": "2026-04"}}, {"type": "Feature", "geometry": {"type": "Point", "coordinates": [121.4823, 25.0146]}, "properties": {"market": "板橋", "result": "不合格", "product_name": "蚵白菜", "pesticides": "☆Pyriproxyfen百利普芬0.39(0.01); ☆Trichlorfon三氯松0.03(0.01); ☆Fipronil芬普尼0.06(0.001)", "month": "2026-04"}}, {"type": "Feature", "geometry": {"type": "Point", "coordinates": [121.4823, 25.0146]}, "properties": {"market": "板橋", "result": "合格", "product_name": "萵苣", "pesticides": null, "month": "2026-04"}}, {"type": "Feature", "geometry": {"type": "Point", "coordinates": [121.4823, 25.0146]}, "properties": {"market": "板橋", "result": "合格", "product_name": "南瓜", "pesticides": null, "month": "2026-04"}}, {"type": "Feature", "geometry": {"type": "Point", "coordinates": [121.4823, 25.0146]}, "properties": {"market": "板橋", "result": "合格", "product_name": "苦瓜", "pesticides": null, "month": "2026-04"}}, {"type": "Feature", "geometry": {"type": "Point", "coordinates": [121.4823, 25.0146]}, "properties": {"market": "板橋", "result": "合格", "product_name": "扁蒲", "pesticides": null, "month": "2026-04"}}, {"type": "Feature", "geometry": {"type": "Point", "coordinates": [121.4823, 25.0146]}, "properties": {"market": "板橋", "result": "合格", "product_name": "敏豆", "pesticides": null, "month": "2026-04"}}, {"type": "Feature", "geometry": {"type": "Point", "coordinates": [121.4823, 25.0146]}, "properties": {"market": "板橋", "result": "合格", "product_name": "青花菜", "pesticides": null, "month": "2026-04"}}, {"type": "Feature", "geometry": {"type": "Point", "coordinates": [121.4823, 25.0146]}, "properties": {"market": "板橋", "result": "不合格", "product_name": "絲瓜", "pesticides": "Cyromazine賽滅淨0.63(0.5)", "month": "2026-04"}}, {"type": "Feature", "geometry": {"type": "Point", "coordinates": [121.4823, 25.0146]}, "properties": {"market": "板橋", "result": "合格", "product_name": "蕹菜", "pesticides": null, "month": "2026-04"}}, {"type": "Feature", "geometry": {"type": "Point", "coordinates": [121.4823, 25.0146]}, "properties": {"market": "板橋", "result": "合格", "product_name": "地瓜", "pesticides": null, "month": "2026-04"}}, {"type": "Feature", "geometry": {"type": "Point", "coordinates": [121.4823, 25.0146]}, "properties": {"market": "板橋", "result": "合格", "product_name": "白精靈菇", "pesticides": null, "month": "2026-04"}}, {"type": "Feature", "geometry": {"type": "Point", "coordinates": [121.4823, 25.0146]}, "properties": {"market": "板橋", "result": "不合格", "product_name": "敏豆", "pesticides": "Cyromazine賽滅淨1.33(1.0)", "month": "2026-04"}}, {"type": "Feature", "geometry": {"type": "Point", "coordinates": [121.4823, 25.0146]}, "properties": {"market": "板橋", "result": "合格", "product_name": "醜豆", "pesticides": null, "month": "2026-04"}}, {"type": "Feature", "geometry": {"type": "Point", "coordinates": [121.4823, 25.0146]}, "properties": {"market": "板橋", "result": "合格", "product_name": "扁蒲", "pesticides": null, "month": "2026-04"}}, {"type": "Feature", "geometry": {"type": "Point", "coordinates": [121.4823, 25.0146]}, "properties": {"market": "板橋", "result": "合格", "product_name": "辣椒", "pesticides": null, "month": "2026-04"}}, {"type": "Feature", "geometry": {"type": "Point", "coordinates": [121.4823, 25.0146]}, "properties": {"market": "板橋", "result": "合格", "product_name": "青蔥", "pesticides": null, "month": "2026-04"}}, {"type": "Feature", "geometry": {"type": "Point", "coordinates": [121.4823, 25.0146]}, "properties": {"market": "板橋", "result": "合格", "product_name": "茄子", "pesticides": null, "month": "2026-04"}}, {"type": "Feature", "geometry": {"type": "Point", "coordinates": [121.4823, 25.0146]}, "properties": {"market": "板橋", "result": "合格", "product_name": "苦瓜", "pesticides": null, "month": "2026-04"}}, {"type": "Feature", "geometry": {"type": "Point", "coordinates": [121.4823, 25.0146]}, "properties": {"market": "板橋", "result": "合格", "product_name": "青椒", "pesticides": null, "month": "2026-04"}}, {"type": "Feature", "geometry": {"type": "Point", "coordinates": [121.4823, 25.0146]}, "properties": {"market": "板橋", "result": "不合格", "product_name": "蘆筍", "pesticides": "☆Methoxyfenozide滅芬諾0.12(0.01)", "month": "2026-04"}}, {"type": "Feature", "geometry": {"type": "Point", "coordinates": [121.4823, 25.0146]}, "properties": {"market": "板橋", "result": "合格", "product_name": "山東大白菜", "pesticides": null, "month": "2026-04"}}, {"type": "Feature", "geometry": {"type": "Point", "coordinates": [121.4823, 25.0146]}, "properties": {"market": "板橋", "result": "合格", "product_name": "水蓮", "pesticides": null, "month": "2026-04"}}, {"type": "Feature", "geometry": {"type": "Point", "coordinates": [121.4823, 25.0146]}, "properties": {"market": "板橋", "result": "不合格", "product_name": "紅鳳菜", "pesticides": "Cyromazine賽滅淨2.79(1.0); Imidacloprid益達胺2.31(1.0)", "month": "2026-04"}}, {"type": "Feature", "geometry": {"type": "Point", "coordinates": [121.4823, 25.0146]}, "properties": {"market": "板橋", "result": "合格", "product_name": "南瓜", "pesticides": null, "month": "2026-04"}}, {"type": "Feature", "geometry": {"type": "Point", "coordinates": [121.4823, 25.0146]}, "properties": {"market": "板橋", "result": "合格", "product_name": "馬鈴薯", "pesticides": null, "month": "2026-04"}}, {"type": "Feature", "geometry": {"type": "Point", "coordinates": [121.4823, 25.0146]}, "properties": {"market": "板橋", "result": "合格", "product_name": "牛蕃茄", "pesticides": null, "month": "2026-04"}}, {"type": "Feature", "geometry": {"type": "Point", "coordinates": [121.4823, 25.0146]}, "properties": {"market": "板橋", "result": "合格", "product_name": "小黃瓜", "pesticides": null, "month": "2026-04"}}, {"type": "Feature", "geometry": {"type": "Point", "coordinates": [121.4823, 25.0146]}, "properties": {"market": "板橋", "result": "合格", "product_name": "梅", "pesticides": null, "month": "2026-04"}}, {"type": "Feature", "geometry": {"type": "Point", "coordinates": [121.4823, 25.0146]}, "properties": {"market": "板橋", "result": "合格", "product_name": "柑橘", "pesticides": null, "month": "2026-04"}}, {"type": "Feature", "geometry": {"type": "Point", "coordinates": [121.4823, 25.0146]}, "properties": {"market": "板橋", "result": "合格", "product_name": "香蕉", "pesticides": null, "month": "2026-04"}}, {"type": "Feature", "geometry": {"type": "Point", "coordinates": [121.4823, 25.0146]}, "properties": {"market": "板橋", "result": "合格", "product_name": "扁蒲", "pesticides": null, "month": "2026-04"}}, {"type": "Feature", "geometry": {"type": "Point", "coordinates": [121.4823, 25.0146]}, "properties": {"market": "板橋", "result": "合格", "product_name": "小黃瓜", "pesticides": null, "month": "2026-04"}}, {"type": "Feature", "geometry": {"type": "Point", "coordinates": [121.4823, 25.0146]}, "properties": {"market": "板橋", "result": "合格", "product_name": "胡瓜", "pesticides": null, "month": "2026-04"}}, {"type": "Feature", "geometry": {"type": "Point", "coordinates": [121.4823, 25.0146]}, "properties": {"market": "板橋", "result": "合格", "product_name": "牛蕃茄", "pesticides": null, "month": "2026-04"}}, {"type": "Feature", "geometry": {"type": "Point", "coordinates": [121.4823, 25.0146]}, "properties": {"market": "板橋", "result": "合格", "product_name": "結球萵苣", "pesticides": null, "month": "2026-04"}}, {"type": "Feature", "geometry": {"type": "Point", "coordinates": [121.4823, 25.0146]}, "properties": {"market": "板橋", "result": "合格", "product_name": "油菜", "pesticides": null, "month": "2026-04"}}, {"type": "Feature", "geometry": {"type": "Point", "coordinates": [121.4823, 25.0146]}, "properties": {"market": "板橋", "result": "合格", "product_name": "蚵白菜", "pesticides": null, "month": "2026-04"}}, {"type": "Feature", "geometry": {"type": "Point", "coordinates": [121.4823, 25.0146]}, "properties": {"market": "板橋", "result": "合格", "product_name": "甘藍", "pesticides": null, "month": "2026-04"}}, {"type": "Feature", "geometry": {"type": "Point", "coordinates": [121.4823, 25.0146]}, "properties": {"market": "板橋", "result": "合格", "product_name": "醜豆", "pesticides": null, "month": "2026-04"}}, {"type": "Feature", "geometry": {"type": "Point", "coordinates": [121.4823, 25.0146]}, "properties": {"market": "板橋", "result": "合格", "product_name": "青椒", "pesticides": null, "month": "2026-04"}}, {"type": "Feature", "geometry": {"type": "Point", "coordinates": [121.4823, 25.0146]}, "properties": {"market": "板橋", "result": "合格", "product_name": "芥藍菜", "pesticides": null, "month": "2026-04"}}, {"type": "Feature", "geometry": {"type": "Point", "coordinates": [121.4823, 25.0146]}, "properties": {"market": "板橋", "result": "合格", "product_name": "蕹菜", "pesticides": null, "month": "2026-04"}}, {"type": "Feature", "geometry": {"type": "Point", "coordinates": [121.4823, 25.0146]}, "properties": {"market": "板橋", "result": "合格", "product_name": "青椒", "pesticides": null, "month": "2026-04"}}, {"type": "Feature", "geometry": {"type": "Point", "coordinates": [121.4823, 25.0146]}, "properties": {"market": "板橋", "result": "合格", "product_name": "木耳", "pesticides": null, "month": "2026-04"}}, {"type": "Feature", "geometry": {"type": "Point", "coordinates": [121.4823, 25.0146]}, "properties": {"market": "板橋", "result": "合格", "product_name": "白精靈菇", "pesticides": null, "month": "2026-04"}}, {"type": "Feature", "geometry": {"type": "Point", "coordinates": [121.4823, 25.0146]}, "properties": {"market": "板橋", "result": "合格", "product_name": "夏南瓜", "pesticides": null, "month": "2026-04"}}, {"type": "Feature", "geometry": {"type": "Point", "coordinates": [121.4823, 25.0146]}, "properties": {"market": "板橋", "result": "合格", "product_name": "辣椒", "pesticides": null, "month": "2026-04"}}, {"type": "Feature", "geometry": {"type": "Point", "coordinates": [121.4823, 25.0146]}, "properties": {"market": "板橋", "result": "合格", "product_name": "茂谷", "pesticides": null, "month": "2026-04"}}, {"type": "Feature", "geometry": {"type": "Point", "coordinates": [121.4823, 25.0146]}, "properties": {"market": "板橋", "result": "合格", "product_name": "小蕃茄", "pesticides": null, "month": "2026-04"}}, {"type": "Feature", "geometry": {"type": "Point", "coordinates": [121.4823, 25.0146]}, "properties": {"market": "板橋", "result": "合格", "product_name": "敏豆", "pesticides": null, "month": "2026-04"}}, {"type": "Feature", "geometry": {"type": "Point", "coordinates": [121.4823, 25.0146]}, "properties": {"market": "板橋", "result": "合格", "product_name": "油菜", "pesticides": null, "month": "2026-04"}}, {"type": "Feature", "geometry": {"type": "Point", "coordinates": [121.4823, 25.0146]}, "properties": {"market": "板橋", "result": "合格", "product_name": "青蔥", "pesticides": null, "month": "2026-04"}}, {"type": "Feature", "geometry": {"type": "Point", "coordinates": [121.4823, 25.0146]}, "properties": {"market": "板橋", "result": "合格", "product_name": "絲瓜", "pesticides": null, "month": "2026-04"}}, {"type": "Feature", "geometry": {"type": "Point", "coordinates": [121.4823, 25.0146]}, "properties": {"market": "板橋", "result": "合格", "product_name": "花椰菜", "pesticides": null, "month": "2026-04"}}, {"type": "Feature", "geometry": {"type": "Point", "coordinates": [121.4823, 25.0146]}, "properties": {"market": "板橋", "result": "合格", "product_name": "地瓜", "pesticides": null, "month": "2026-04"}}, {"type": "Feature", "geometry": {"type": "Point", "coordinates": [121.4823, 25.0146]}, "properties": {"market": "板橋", "result": "合格", "product_name": "紅蘿蔔", "pesticides": null, "month": "2026-04"}}, {"type": "Feature", "geometry": {"type": "Point", "coordinates": [121.4823, 25.0146]}, "properties": {"market": "板橋", "result": "合格", "product_name": "南瓜", "pesticides": null, "month": "2026-04"}}, {"type": "Feature", "geometry": {"type": "Point", "coordinates": [121.4823, 25.0146]}, "properties": {"market": "板橋", "result": "合格", "product_name": "木耳", "pesticides": null, "month": "2026-04"}}, {"type": "Feature", "geometry": {"type": "Point", "coordinates": [121.4823, 25.0146]}, "properties": {"market": "板橋", "result": "合格", "product_name": "芭樂", "pesticides": null, "month": "2026-04"}}, {"type": "Feature", "geometry": {"type": "Point", "coordinates": [121.4823, 25.0146]}, "properties": {"market": "板橋", "result": "合格", "product_name": "小蕃茄", "pesticides": null, "month": "2026-04"}}, {"type": "Feature", "geometry": {"type": "Point", "coordinates": [121.4823, 25.0146]}, "properties": {"market": "板橋", "result": "合格", "product_name": "木瓜", "pesticides": null, "month": "2026-04"}}, {"type": "Feature", "geometry": {"type": "Point", "coordinates": [121.4823, 25.0146]}, "properties": {"market": "板橋", "result": "合格", "product_name": "牛蕃茄", "pesticides": null, "month": "2026-04"}}, {"type": "Feature", "geometry": {"type": "Point", "coordinates": [121.4823, 25.0146]}, "properties": {"market": "板橋", "result": "合格", "product_name": "山東大白菜", "pesticides": null, "month": "2026-04"}}, {"type": "Feature", "geometry": {"type": "Point", "coordinates": [121.4823, 25.0146]}, "properties": {"market": "板橋", "result": "合格", "product_name": "白蘿蔔", "pesticides": null, "month": "2026-04"}}, {"type": "Feature", "geometry": {"type": "Point", "coordinates": [121.4823, 25.0146]}, "properties": {"market": "板橋", "result": "不合格", "product_name": "芫荽", "pesticides": "☆Propamocarb hydrochloride普拔克0.03(0.01); ☆Propiconazole普克利0.1(0.01); ☆Difenoconazole待克利0.05(0.01)", "month": "2026-04"}}, {"type": "Feature", "geometry": {"type": "Point", "coordinates": [121.4823, 25.0146]}, "properties": {"market": "板橋", "result": "合格", "product_name": "青江菜", "pesticides": null, "month": "2026-04"}}, {"type": "Feature", "geometry": {"type": "Point", "coordinates": [121.4823, 25.0146]}, "properties": {"market": "板橋", "result": "合格", "product_name": "芥藍芽", "pesticides": null, "month": "2026-04"}}, {"type": "Feature", "geometry": {"type": "Point", "coordinates": [121.4823, 25.0146]}, "properties": {"market": "板橋", "result": "合格", "product_name": "萵苣", "pesticides": null, "month": "2026-04"}}, {"type": "Feature", "geometry": {"type": "Point", "coordinates": [121.4823, 25.0146]}, "properties": {"market": "板橋", "result": "合格", "product_name": "皇宮菜", "pesticides": null, "month": "2026-04"}}, {"type": "Feature", "geometry": {"type": "Point", "coordinates": [121.4823, 25.0146]}, "properties": {"market": "板橋", "result": "合格", "product_name": "甘藍", "pesticides": null, "month": "2026-04"}}, {"type": "Feature", "geometry": {"type": "Point", "coordinates": [121.4823, 25.0146]}, "properties": {"market": "板橋", "result": "合格", "product_name": "青椒", "pesticides": null, "month": "2026-04"}}, {"type": "Feature", "geometry": {"type": "Point", "coordinates": [121.4823, 25.0146]}, "properties": {"market": "板橋", "result": "合格", "product_name": "辣椒", "pesticides": null, "month": "2026-04"}}, {"type": "Feature", "geometry": {"type": "Point", "coordinates": [121.4823, 25.0146]}, "properties": {"market": "板橋", "result": "合格", "product_name": "彩椒", "pesticides": null, "month": "2026-04"}}, {"type": "Feature", "geometry": {"type": "Point", "coordinates": [121.4823, 25.0146]}, "properties": {"market": "板橋", "result": "合格", "product_name": "豇豆", "pesticides": null, "month": "2026-04"}}, {"type": "Feature", "geometry": {"type": "Point", "coordinates": [121.4823, 25.0146]}, "properties": {"market": "板橋", "result": "合格", "product_name": "豌豆", "pesticides": null, "month": "2026-04"}}, {"type": "Feature", "geometry": {"type": "Point", "coordinates": [121.4823, 25.0146]}, "properties": {"market": "板橋", "result": "合格", "product_name": "茄子", "pesticides": null, "month": "2026-04"}}, {"type": "Feature", "geometry": {"type": "Point", "coordinates": [121.4823, 25.0146]}, "properties": {"market": "板橋", "result": "合格", "product_name": "絲瓜", "pesticides": null, "month": "2026-04"}}, {"type": "Feature", "geometry": {"type": "Point", "coordinates": [121.4823, 25.0146]}, "properties": {"market": "板橋", "result": "合格", "product_name": "芋頭", "pesticides": null, "month": "2026-04"}}, {"type": "Feature", "geometry": {"type": "Point", "coordinates": [121.4823, 25.0146]}, "properties": {"market": "板橋", "result": "合格", "product_name": "油麥菜", "pesticides": null, "month": "2026-04"}}, {"type": "Feature", "geometry": {"type": "Point", "coordinates": [121.4823, 25.0146]}, "properties": {"market": "板橋", "result": "合格", "product_name": "芭樂", "pesticides": null, "month": "2026-04"}}, {"type": "Feature", "geometry": {"type": "Point", "coordinates": [121.4823, 25.0146]}, "properties": {"market": "板橋", "result": "不合格", "product_name": "哈密瓜", "pesticides": "☆Methomyl納乃得0.24(0.01)", "month": "2026-04"}}, {"type": "Feature", "geometry": {"type": "Point", "coordinates": [121.4823, 25.0146]}, "properties": {"market": "板橋", "result": "合格", "product_name": "桃", "pesticides": null, "month": "2026-04"}}, {"type": "Feature", "geometry": {"type": "Point", "coordinates": [121.4823, 25.0146]}, "properties": {"market": "板橋", "result": "合格", "product_name": "夏南瓜", "pesticides": null, "month": "2026-04"}}, {"type": "Feature", "geometry": {"type": "Point", "coordinates": [121.4823, 25.0146]}, "properties": {"market": "板橋", "result": "合格", "product_name": "糯米椒", "pesticides": null, "month": "2026-04"}}, {"type": "Feature", "geometry": {"type": "Point", "coordinates": [121.4823, 25.0146]}, "properties": {"market": "板橋", "result": "合格", "product_name": "油菜", "pesticides": null, "month": "2026-04"}}, {"type": "Feature", "geometry": {"type": "Point", "coordinates": [121.4823, 25.0146]}, "properties": {"market": "板橋", "result": "合格", "product_name": "洋蔥", "pesticides": null, "month": "2026-04"}}, {"type": "Feature", "geometry": {"type": "Point", "coordinates": [121.4823, 25.0146]}, "properties": {"market": "板橋", "result": "合格", "product_name": "芥藍芽", "pesticides": null, "month": "2026-04"}}, {"type": "Feature", "geometry": {"type": "Point", "coordinates": [121.4823, 25.0146]}, "properties": {"market": "板橋", "result": "不合格", "product_name": "菠菜", "pesticides": "Pyraclostrobin百克敏2.41(2.0); ☆Tolfenpyrad脫芬瑞0.21(0.01)", "month": "2026-04"}}, {"type": "Feature", "geometry": {"type": "Point", "coordinates": [121.4823, 25.0146]}, "properties": {"market": "板橋", "result": "合格", "product_name": "辣椒", "pesticides": null, "month": "2026-04"}}, {"type": "Feature", "geometry": {"type": "Point", "coordinates": [121.4823, 25.0146]}, "properties": {"market": "板橋", "result": "合格", "product_name": "絲瓜", "pesticides": null, "month": "2026-04"}}, {"type": "Feature", "geometry": {"type": "Point", "coordinates": [121.4823, 25.0146]}, "properties": {"market": "板橋", "result": "合格", "product_name": "南瓜", "pesticides": null, "month": "2026-04"}}, {"type": "Feature", "geometry": {"type": "Point", "coordinates": [121.4823, 25.0146]}, "properties": {"market": "板橋", "result": "合格", "product_name": "紅蘿蔔", "pesticides": null, "month": "2026-04"}}, {"type": "Feature", "geometry": {"type": "Point", "coordinates": [121.4823, 25.0146]}, "properties": {"market": "板橋", "result": "合格", "product_name": "青蔥", "pesticides": null, "month": "2026-04"}}, {"type": "Feature", "geometry": {"type": "Point", "coordinates": [121.4823, 25.0146]}, "properties": {"market": "板橋", "result": "合格", "product_name": "茄子", "pesticides": null, "month": "2026-04"}}, {"type": "Feature", "geometry": {"type": "Point", "coordinates": [121.4823, 25.0146]}, "properties": {"market": "板橋", "result": "合格", "product_name": "苦瓜", "pesticides": null, "month": "2026-04"}}, {"type": "Feature", "geometry": {"type": "Point", "coordinates": [121.4823, 25.0146]}, "properties": {"market": "板橋", "result": "合格", "product_name": "敏豆", "pesticides": null, "month": "2026-04"}}, {"type": "Feature", "geometry": {"type": "Point", "coordinates": [121.4823, 25.0146]}, "properties": {"market": "板橋", "result": "合格", "product_name": "扁蒲", "pesticides": null, "month": "2026-04"}}, {"type": "Feature", "geometry": {"type": "Point", "coordinates": [121.4823, 25.0146]}, "properties": {"market": "板橋", "result": "合格", "product_name": "青椒", "pesticides": null, "month": "2026-04"}}, {"type": "Feature", "geometry": {"type": "Point", "coordinates": [121.4823, 25.0146]}, "properties": {"market": "板橋", "result": "合格", "product_name": "包心白菜", "pesticides": null, "month": "2026-04"}}, {"type": "Feature", "geometry": {"type": "Point", "coordinates": [121.4823, 25.0146]}, "properties": {"market": "板橋", "result": "合格", "product_name": "紅鳳菜", "pesticides": null, "month": "2026-04"}}, {"type": "Feature", "geometry": {"type": "Point", "coordinates": [121.4823, 25.0146]}, "properties": {"market": "板橋", "result": "合格", "product_name": "水蓮", "pesticides": null, "month": "2026-04"}}, {"type": "Feature", "geometry": {"type": "Point", "coordinates": [121.4823, 25.0146]}, "properties": {"market": "板橋", "result": "合格", "product_name": "山藥", "pesticides": null, "month": "2026-04"}}, {"type": "Feature", "geometry": {"type": "Point", "coordinates": [121.4823, 25.0146]}, "properties": {"market": "板橋", "result": "合格", "product_name": "牛蕃茄", "pesticides": null, "month": "2026-04"}}, {"type": "Feature", "geometry": {"type": "Point", "coordinates": [121.4823, 25.0146]}, "properties": {"market": "板橋", "result": "合格", "product_name": "甘藍", "pesticides": null, "month": "2026-04"}}, {"type": "Feature", "geometry": {"type": "Point", "coordinates": [121.4823, 25.0146]}, "properties": {"market": "板橋", "result": "不合格", "product_name": "小白菜", "pesticides": "Chlorfenapyr克凡派2.47(1.0); ☆Fipronil芬普尼0.099(0.001)", "month": "2026-04"}}, {"type": "Feature", "geometry": {"type": "Point", "coordinates": [121.4823, 25.0146]}, "properties": {"market": "板橋", "result": "合格", "product_name": "芹菜", "pesticides": null, "month": "2026-04"}}, {"type": "Feature", "geometry": {"type": "Point", "coordinates": [121.4823, 25.0146]}, "properties": {"market": "板橋", "result": "合格", "product_name": "九層塔", "pesticides": null, "month": "2026-04"}}, {"type": "Feature", "geometry": {"type": "Point", "coordinates": [121.4823, 25.0146]}, "properties": {"market": "板橋", "result": "合格", "product_name": "青椒", "pesticides": null, "month": "2026-04"}}, {"type": "Feature", "geometry": {"type": "Point", "coordinates": [121.4823, 25.0146]}, "properties": {"market": "板橋", "result": "合格", "product_name": "空心菜", "pesticides": null, "month": "2026-04"}}, {"type": "Feature", "geometry": {"type": "Point", "coordinates": [121.4823, 25.0146]}, "properties": {"market": "板橋", "result": "合格", "product_name": "胡瓜", "pesticides": null, "month": "2026-04"}}, {"type": "Feature", "geometry": {"type": "Point", "coordinates": [121.4823, 25.0146]}, "properties": {"market": "板橋", "result": "合格", "product_name": "小黃瓜", "pesticides": null, "month": "2026-04"}}, {"type": "Feature", "geometry": {"type": "Point", "coordinates": [121.4823, 25.0146]}, "properties": {"market": "板橋", "result": "合格", "product_name": "皇宮菜", "pesticides": null, "month": "2026-04"}}, {"type": "Feature", "geometry": {"type": "Point", "coordinates": [121.4823, 25.0146]}, "properties": {"market": "板橋", "result": "合格", "product_name": "馬鈴薯", "pesticides": null, "month": "2026-04"}}, {"type": "Feature", "geometry": {"type": "Point", "coordinates": [121.4823, 25.0146]}, "properties": {"market": "板橋", "result": "合格", "product_name": "夏南瓜", "pesticides": null, "month": "2026-04"}}, {"type": "Feature", "geometry": {"type": "Point", "coordinates": [121.4823, 25.0146]}, "properties": {"market": "板橋", "result": "合格", "product_name": "扁蒲", "pesticides": null, "month": "2026-04"}}, {"type": "Feature", "geometry": {"type": "Point", "coordinates": [121.4823, 25.0146]}, "properties": {"market": "板橋", "result": "合格", "product_name": "絲瓜", "pesticides": null, "month": "2026-04"}}, {"type": "Feature", "geometry": {"type": "Point", "coordinates": [121.4823, 25.0146]}, "properties": {"market": "板橋", "result": "合格", "product_name": "小白菜", "pesticides": null, "month": "2026-04"}}, {"type": "Feature", "geometry": {"type": "Point", "coordinates": [121.4823, 25.0146]}, "properties": {"market": "板橋", "result": "不合格", "product_name": "牛蕃茄", "pesticides": "Imidacloprid益達胺0.77(0.5)", "month": "2026-04"}}, {"type": "Feature", "geometry": {"type": "Point", "coordinates": [121.4823, 25.0146]}, "properties": {"market": "板橋", "result": "合格", "product_name": "青江菜", "pesticides": null, "month": "2026-04"}}, {"type": "Feature", "geometry": {"type": "Point", "coordinates": [121.4823, 25.0146]}, "properties": {"market": "板橋", "result": "合格", "product_name": "茄子", "pesticides": null, "month": "2026-04"}}, {"type": "Feature", "geometry": {"type": "Point", "coordinates": [121.4823, 25.0146]}, "properties": {"market": "板橋", "result": "合格", "product_name": "苦瓜", "pesticides": null, "month": "2026-04"}}, {"type": "Feature", "geometry": {"type": "Point", "coordinates": [121.4823, 25.0146]}, "properties": {"market": "板橋", "result": "合格", "product_name": "敏豆", "pesticides": null, "month": "2026-04"}}, {"type": "Feature", "geometry": {"type": "Point", "coordinates": [121.5023, 25.0245]}, "properties": {"market": "第一批發市場", "result": "不合格", "product_name": "辣椒", "pesticides": "☆氟尼胺Flonicamid;0.02(0.01); ☆腐絕Thiabendazole;0.09(0.01)", "month": "2026-04"}}, {"type": "Feature", "geometry": {"type": "Point", "coordinates": [121.5023, 25.0245]}, "properties": {"market": "第一批發市場", "result": "不合格", "product_name": "芹菜", "pesticides": "☆因得克Indoxacarb;0.2(0.01)", "month": "2026-04"}}, {"type": "Feature", "geometry": {"type": "Point", "coordinates": [121.5023, 25.0245]}, "properties": {"market": "第一批發市場", "result": "不合格", "product_name": "甘藷葉", "pesticides": "☆派滅淨Pymetrozine;0.07(0.01); ☆賜滅芬Spiromesifen;0.15(0.01)", "month": "2026-04"}}, {"type": "Feature", "geometry": {"type": "Point", "coordinates": [121.5023, 25.0245]}, "properties": {"market": "第一批發市場", "result": "不合格", "product_name": "辣椒", "pesticides": "賓克隆Pencycuron;0.14(0.05)", "month": "2026-04"}}, {"type": "Feature", "geometry": {"type": "Point", "coordinates": [121.5023, 25.0245]}, "properties": {"market": "第一批發市場", "result": "不合格", "product_name": "豌豆", "pesticides": "可尼丁Clothianidin;0.15(0.02)", "month": "2026-04"}}, {"type": "Feature", "geometry": {"type": "Point", "coordinates": [121.5023, 25.0245]}, "properties": {"market": "第一批發市場", "result": "不合格", "product_name": "辣椒", "pesticides": "達特南Dinotefuran;0.56(0.5); 益達胺Imidacloprid;0.65(0.5)", "month": "2026-04"}}, {"type": "Feature", "geometry": {"type": "Point", "coordinates": [121.5394, 25.0683]}, "properties": {"market": "第二批發市場", "result": "不合格", "product_name": "芹菜", "pesticides": "☆亞賜圃Isoprothiolane;0.02(0.01); ☆三賽唑Tricyclazole;0.03(0.01)", "month": "2026-04"}}, {"type": "Feature", "geometry": {"type": "Point", "coordinates": [121.5394, 25.0683]}, "properties": {"market": "第二批發市場", "result": "不合格", "product_name": "雜柑", "pesticides": "☆得克利Tebuconazole;0.04(0.01)", "month": "2026-04"}}, {"type": "Feature", "geometry": {"type": "Point", "coordinates": [121.5394, 25.0683]}, "properties": {"market": "第二批發市場", "result": "不合格", "product_name": "黃秋葵", "pesticides": "☆得克利Tebuconazole;0.02(0.01)", "month": "2026-04"}}, {"type": "Feature", "geometry": {"type": "Point", "coordinates": [121.5394, 25.0683]}, "properties": {"market": "第二批發市場", "result": "不合格", "product_name": "芫荽", "pesticides": "☆賽達松Phenthoate;0.02(0.01)", "month": "2026-04"}}, {"type": "Feature", "geometry": {"type": "Point", "coordinates": [121.5394, 25.0683]}, "properties": {"market": "第二批發市場", "result": "不合格", "product_name": "芹菜", "pesticides": "☆因得克Indoxacarb;0.03(0.01); ☆亞賜圃Isoprothiolane;0.02(0.01)", "month": "2026-04"}}, {"type": "Feature", "geometry": {"type": "Point", "coordinates": [121.4946, 25.0697]}, "properties": {"market": "三重", "result": "合格", "product_name": "夏南瓜", "pesticides": null, "month": "2026-05"}}, {"type": "Feature", "geometry": {"type": "Point", "coordinates": [121.4946, 25.0697]}, "properties": {"market": "三重", "result": "合格", "product_name": "葡萄", "pesticides": null, "month": "2026-05"}}, {"type": "Feature", "geometry": {"type": "Point", "coordinates": [121.4946, 25.0697]}, "properties": {"market": "三重", "result": "合格", "product_name": "芭樂", "pesticides": null, "month": "2026-05"}}, {"type": "Feature", "geometry": {"type": "Point", "coordinates": [121.4946, 25.0697]}, "properties": {"market": "三重", "result": "合格", "product_name": "小番茄", "pesticides": null, "month": "2026-05"}}, {"type": "Feature", "geometry": {"type": "Point", "coordinates": [121.4946, 25.0697]}, "properties": {"market": "三重", "result": "合格", "product_name": "鳳梨", "pesticides": null, "month": "2026-05"}}, {"type": "Feature", "geometry": {"type": "Point", "coordinates": [121.4946, 25.0697]}, "properties": {"market": "三重", "result": "合格", "product_name": "花椰菜", "pesticides": null, "month": "2026-05"}}, {"type": "Feature", "geometry": {"type": "Point", "coordinates": [121.4946, 25.0697]}, "properties": {"market": "三重", "result": "合格", "product_name": "竹筍", "pesticides": null, "month": "2026-05"}}, {"type": "Feature", "geometry": {"type": "Point", "coordinates": [121.4946, 25.0697]}, "properties": {"market": "三重", "result": "合格", "product_name": "茄子", "pesticides": null, "month": "2026-05"}}, {"type": "Feature", "geometry": {"type": "Point", "coordinates": [121.4946, 25.0697]}, "properties": {"market": "三重", "result": "合格", "product_name": "扁蒲", "pesticides": null, "month": "2026-05"}}, {"type": "Feature", "geometry": {"type": "Point", "coordinates": [121.4946, 25.0697]}, "properties": {"market": "三重", "result": "合格", "product_name": "西瓜", "pesticides": null, "month": "2026-05"}}, {"type": "Feature", "geometry": {"type": "Point", "coordinates": [121.4946, 25.0697]}, "properties": {"market": "三重", "result": "合格", "product_name": "山苦瓜", "pesticides": null, "month": "2026-05"}}, {"type": "Feature", "geometry": {"type": "Point", "coordinates": [121.4946, 25.0697]}, "properties": {"market": "三重", "result": "合格", "product_name": "香瓜", "pesticides": null, "month": "2026-05"}}, {"type": "Feature", "geometry": {"type": "Point", "coordinates": [121.4946, 25.0697]}, "properties": {"market": "三重", "result": "合格", "product_name": "蒜頭", "pesticides": null, "month": "2026-05"}}, {"type": "Feature", "geometry": {"type": "Point", "coordinates": [121.4946, 25.0697]}, "properties": {"market": "三重", "result": "合格", "product_name": "青椒", "pesticides": null, "month": "2026-05"}}, {"type": "Feature", "geometry": {"type": "Point", "coordinates": [121.4946, 25.0697]}, "properties": {"market": "三重", "result": "不合格", "product_name": "糯米椒", "pesticides": "佈飛松Profenofos 1.62(1.0)", "month": "2026-05"}}, {"type": "Feature", "geometry": {"type": "Point", "coordinates": [121.4946, 25.0697]}, "properties": {"market": "三重", "result": "合格", "product_name": "哈密瓜", "pesticides": null, "month": "2026-05"}}, {"type": "Feature", "geometry": {"type": "Point", "coordinates": [121.4946, 25.0697]}, "properties": {"market": "三重", "result": "合格", "product_name": "紅甜椒", "pesticides": null, "month": "2026-05"}}, {"type": "Feature", "geometry": {"type": "Point", "coordinates": [121.4946, 25.0697]}, "properties": {"market": "三重", "result": "合格", "product_name": "薑", "pesticides": null, "month": "2026-05"}}, {"type": "Feature", "geometry": {"type": "Point", "coordinates": [121.4946, 25.0697]}, "properties": {"market": "三重", "result": "不合格", "product_name": "青蔥", "pesticides": "賽氟滅Thifluzamide 0.45(0.03)", "month": "2026-05"}}, {"type": "Feature", "geometry": {"type": "Point", "coordinates": [121.4946, 25.0697]}, "properties": {"market": "三重", "result": "不合格", "product_name": "皇宮菜", "pesticides": "因滅汀Emamectin benzoate 0.345(0.05); 芬普蟎Fenpyroximate 0.03(0.01); 氟比來Fluopicolide 0.05(0.01); 福多寧Flutolanil 2.29(2.0); 亞賜圃Isoprothiolane 0.02(0.01); 普拔克Propamocarb hydrochloride 0.31(0.01); 百克敏Pyraclostrobin 0.11(0.01); 白克列Boscalid 0.2(0.01); 克凡派Chlorfenapyr 2.8(1.0)", "month": "2026-05"}}, {"type": "Feature", "geometry": {"type": "Point", "coordinates": [121.4946, 25.0697]}, "properties": {"market": "三重", "result": "合格", "product_name": "九層塔", "pesticides": null, "month": "2026-05"}}, {"type": "Feature", "geometry": {"type": "Point", "coordinates": [121.4946, 25.0697]}, "properties": {"market": "三重", "result": "合格", "product_name": "小白菜", "pesticides": null, "month": "2026-05"}}, {"type": "Feature", "geometry": {"type": "Point", "coordinates": [121.4946, 25.0697]}, "properties": {"market": "三重", "result": "合格", "product_name": "芥藍芽", "pesticides": null, "month": "2026-05"}}, {"type": "Feature", "geometry": {"type": "Point", "coordinates": [121.4946, 25.0697]}, "properties": {"market": "三重", "result": "不合格", "product_name": "蚵白菜", "pesticides": "毆殺滅Oxamyl 0.57(0.5); 普克利Propiconazole 0.16(0.01)", "month": "2026-05"}}, {"type": "Feature", "geometry": {"type": "Point", "coordinates": [121.4946, 25.0697]}, "properties": {"market": "三重", "result": "合格", "product_name": "小芥菜", "pesticides": null, "month": "2026-05"}}, {"type": "Feature", "geometry": {"type": "Point", "coordinates": [121.4946, 25.0697]}, "properties": {"market": "三重", "result": "合格", "product_name": "佛手瓜", "pesticides": null, "month": "2026-05"}}, {"type": "Feature", "geometry": {"type": "Point", "coordinates": [121.4946, 25.0697]}, "properties": {"market": "三重", "result": "不合格", "product_name": "彩椒", "pesticides": "Tebuconazole得克利1.62(1.0)", "month": "2026-05"}}, {"type": "Feature", "geometry": {"type": "Point", "coordinates": [121.4946, 25.0697]}, "properties": {"market": "三重", "result": "合格", "product_name": "醜豆", "pesticides": null, "month": "2026-05"}}, {"type": "Feature", "geometry": {"type": "Point", "coordinates": [121.4946, 25.0697]}, "properties": {"market": "三重", "result": "合格", "product_name": "辣椒", "pesticides": null, "month": "2026-05"}}, {"type": "Feature", "geometry": {"type": "Point", "coordinates": [121.4946, 25.0697]}, "properties": {"market": "三重", "result": "合格", "product_name": "皇宮菜", "pesticides": null, "month": "2026-05"}}, {"type": "Feature", "geometry": {"type": "Point", "coordinates": [121.4946, 25.0697]}, "properties": {"market": "三重", "result": "合格", "product_name": "蚵白菜", "pesticides": null, "month": "2026-05"}}, {"type": "Feature", "geometry": {"type": "Point", "coordinates": [121.4946, 25.0697]}, "properties": {"market": "三重", "result": "合格", "product_name": "油麥菜", "pesticides": null, "month": "2026-05"}}, {"type": "Feature", "geometry": {"type": "Point", "coordinates": [121.4946, 25.0697]}, "properties": {"market": "三重", "result": "合格", "product_name": "芥菜", "pesticides": null, "month": "2026-05"}}, {"type": "Feature", "geometry": {"type": "Point", "coordinates": [121.4946, 25.0697]}, "properties": {"market": "三重", "result": "合格", "product_name": "青蔥", "pesticides": null, "month": "2026-05"}}, {"type": "Feature", "geometry": {"type": "Point", "coordinates": [121.4946, 25.0697]}, "properties": {"market": "三重", "result": "合格", "product_name": "胡蘿蔔", "pesticides": null, "month": "2026-05"}}, {"type": "Feature", "geometry": {"type": "Point", "coordinates": [121.4946, 25.0697]}, "properties": {"market": "三重", "result": "合格", "product_name": "豇豆", "pesticides": null, "month": "2026-05"}}, {"type": "Feature", "geometry": {"type": "Point", "coordinates": [121.4946, 25.0697]}, "properties": {"market": "三重", "result": "合格", "product_name": "苦瓜", "pesticides": null, "month": "2026-05"}}, {"type": "Feature", "geometry": {"type": "Point", "coordinates": [121.4946, 25.0697]}, "properties": {"market": "三重", "result": "合格", "product_name": "夏南瓜", "pesticides": null, "month": "2026-05"}}, {"type": "Feature", "geometry": {"type": "Point", "coordinates": [121.4946, 25.0697]}, "properties": {"market": "三重", "result": "合格", "product_name": "茄子", "pesticides": null, "month": "2026-05"}}, {"type": "Feature", "geometry": {"type": "Point", "coordinates": [121.4946, 25.0697]}, "properties": {"market": "三重", "result": "合格", "product_name": "檸檬", "pesticides": null, "month": "2026-05"}}, {"type": "Feature", "geometry": {"type": "Point", "coordinates": [121.4946, 25.0697]}, "properties": {"market": "三重", "result": "合格", "product_name": "花椰菜", "pesticides": null, "month": "2026-05"}}, {"type": "Feature", "geometry": {"type": "Point", "coordinates": [121.4946, 25.0697]}, "properties": {"market": "三重", "result": "合格", "product_name": "扁蒲", "pesticides": null, "month": "2026-05"}}, {"type": "Feature", "geometry": {"type": "Point", "coordinates": [121.4946, 25.0697]}, "properties": {"market": "三重", "result": "合格", "product_name": "胡瓜", "pesticides": null, "month": "2026-05"}}, {"type": "Feature", "geometry": {"type": "Point", "coordinates": [121.4946, 25.0697]}, "properties": {"market": "三重", "result": "合格", "product_name": "小黃瓜", "pesticides": null, "month": "2026-05"}}, {"type": "Feature", "geometry": {"type": "Point", "coordinates": [121.4946, 25.0697]}, "properties": {"market": "三重", "result": "合格", "product_name": "絲瓜", "pesticides": null, "month": "2026-05"}}, {"type": "Feature", "geometry": {"type": "Point", "coordinates": [121.4946, 25.0697]}, "properties": {"market": "三重", "result": "合格", "product_name": "甘藷", "pesticides": null, "month": "2026-05"}}, {"type": "Feature", "geometry": {"type": "Point", "coordinates": [121.4946, 25.0697]}, "properties": {"market": "三重", "result": "合格", "product_name": "馬鈴薯", "pesticides": null, "month": "2026-05"}}, {"type": "Feature", "geometry": {"type": "Point", "coordinates": [121.4946, 25.0697]}, "properties": {"market": "三重", "result": "合格", "product_name": "牛番茄", "pesticides": null, "month": "2026-05"}}, {"type": "Feature", "geometry": {"type": "Point", "coordinates": [121.4946, 25.0697]}, "properties": {"market": "三重", "result": "合格", "product_name": "包心白菜", "pesticides": null, "month": "2026-05"}}, {"type": "Feature", "geometry": {"type": "Point", "coordinates": [121.4946, 25.0697]}, "properties": {"market": "三重", "result": "合格", "product_name": "桶柑", "pesticides": null, "month": "2026-05"}}, {"type": "Feature", "geometry": {"type": "Point", "coordinates": [121.4946, 25.0697]}, "properties": {"market": "三重", "result": "合格", "product_name": "鳳梨", "pesticides": null, "month": "2026-05"}}, {"type": "Feature", "geometry": {"type": "Point", "coordinates": [121.4946, 25.0697]}, "properties": {"market": "三重", "result": "合格", "product_name": "小番茄", "pesticides": null, "month": "2026-05"}}, {"type": "Feature", "geometry": {"type": "Point", "coordinates": [121.4946, 25.0697]}, "properties": {"market": "三重", "result": "合格", "product_name": "甘藍", "pesticides": null, "month": "2026-05"}}, {"type": "Feature", "geometry": {"type": "Point", "coordinates": [121.4946, 25.0697]}, "properties": {"market": "三重", "result": "合格", "product_name": "香蕉", "pesticides": null, "month": "2026-05"}}, {"type": "Feature", "geometry": {"type": "Point", "coordinates": [121.4946, 25.0697]}, "properties": {"market": "三重", "result": "合格", "product_name": "木瓜", "pesticides": null, "month": "2026-05"}}, {"type": "Feature", "geometry": {"type": "Point", "coordinates": [121.4946, 25.0697]}, "properties": {"market": "三重", "result": "合格", "product_name": "百香果", "pesticides": null, "month": "2026-05"}}, {"type": "Feature", "geometry": {"type": "Point", "coordinates": [121.4823, 25.0146]}, "properties": {"market": "板橋", "result": "合格", "product_name": "玉米", "pesticides": null, "month": "2026-05"}}, {"type": "Feature", "geometry": {"type": "Point", "coordinates": [121.4823, 25.0146]}, "properties": {"market": "板橋", "result": "合格", "product_name": "芭樂", "pesticides": null, "month": "2026-05"}}, {"type": "Feature", "geometry": {"type": "Point", "coordinates": [121.4823, 25.0146]}, "properties": {"market": "板橋", "result": "合格", "product_name": "香瓜", "pesticides": null, "month": "2026-05"}}, {"type": "Feature", "geometry": {"type": "Point", "coordinates": [121.4823, 25.0146]}, "properties": {"market": "板橋", "result": "合格", "product_name": "桃", "pesticides": null, "month": "2026-05"}}, {"type": "Feature", "geometry": {"type": "Point", "coordinates": [121.4823, 25.0146]}, "properties": {"market": "板橋", "result": "合格", "product_name": "青花菜", "pesticides": null, "month": "2026-05"}}, {"type": "Feature", "geometry": {"type": "Point", "coordinates": [121.4823, 25.0146]}, "properties": {"market": "板橋", "result": "合格", "product_name": "地瓜葉", "pesticides": null, "month": "2026-05"}}, {"type": "Feature", "geometry": {"type": "Point", "coordinates": [121.4823, 25.0146]}, "properties": {"market": "板橋", "result": "合格", "product_name": "萵苣", "pesticides": null, "month": "2026-05"}}, {"type": "Feature", "geometry": {"type": "Point", "coordinates": [121.4823, 25.0146]}, "properties": {"market": "板橋", "result": "合格", "product_name": "蚵白菜", "pesticides": null, "month": "2026-05"}}, {"type": "Feature", "geometry": {"type": "Point", "coordinates": [121.4823, 25.0146]}, "properties": {"market": "板橋", "result": "不合格", "product_name": "豌豆", "pesticides": "達克利Diniconazole 0.97(0.01); 派滅芬Pydiflumetofen 0.29(0.03)", "month": "2026-05"}}, {"type": "Feature", "geometry": {"type": "Point", "coordinates": [121.4823, 25.0146]}, "properties": {"market": "板橋", "result": "合格", "product_name": "苦瓜", "pesticides": null, "month": "2026-05"}}, {"type": "Feature", "geometry": {"type": "Point", "coordinates": [121.4823, 25.0146]}, "properties": {"market": "板橋", "result": "合格", "product_name": "茄子", "pesticides": null, "month": "2026-05"}}, {"type": "Feature", "geometry": {"type": "Point", "coordinates": [121.4823, 25.0146]}, "properties": {"market": "板橋", "result": "合格", "product_name": "青蔥", "pesticides": null, "month": "2026-05"}}, {"type": "Feature", "geometry": {"type": "Point", "coordinates": [121.4823, 25.0146]}, "properties": {"market": "板橋", "result": "合格", "product_name": "奶油白菜", "pesticides": null, "month": "2026-05"}}, {"type": "Feature", "geometry": {"type": "Point", "coordinates": [121.4823, 25.0146]}, "properties": {"market": "板橋", "result": "合格", "product_name": "地瓜", "pesticides": null, "month": "2026-05"}}, {"type": "Feature", "geometry": {"type": "Point", "coordinates": [121.4823, 25.0146]}, "properties": {"market": "板橋", "result": "合格", "product_name": "牛蕃茄", "pesticides": null, "month": "2026-05"}}, {"type": "Feature", "geometry": {"type": "Point", "coordinates": [121.4823, 25.0146]}, "properties": {"market": "板橋", "result": "合格", "product_name": "蚵白菜", "pesticides": null, "month": "2026-05"}}, {"type": "Feature", "geometry": {"type": "Point", "coordinates": [121.4823, 25.0146]}, "properties": {"market": "板橋", "result": "不合格", "product_name": "芥菜", "pesticides": "待克利Difenoconazole 1.33(1.0)", "month": "2026-05"}}, {"type": "Feature", "geometry": {"type": "Point", "coordinates": [121.4823, 25.0146]}, "properties": {"market": "板橋", "result": "合格", "product_name": "彩椒", "pesticides": null, "month": "2026-05"}}, {"type": "Feature", "geometry": {"type": "Point", "coordinates": [121.4823, 25.0146]}, "properties": {"market": "板橋", "result": "合格", "product_name": "敏豆", "pesticides": null, "month": "2026-05"}}, {"type": "Feature", "geometry": {"type": "Point", "coordinates": [121.4823, 25.0146]}, "properties": {"market": "板橋", "result": "合格", "product_name": "青椒", "pesticides": null, "month": "2026-05"}}, {"type": "Feature", "geometry": {"type": "Point", "coordinates": [121.4823, 25.0146]}, "properties": {"market": "板橋", "result": "合格", "product_name": "柑橘", "pesticides": null, "month": "2026-05"}}, {"type": "Feature", "geometry": {"type": "Point", "coordinates": [121.4823, 25.0146]}, "properties": {"market": "板橋", "result": "合格", "product_name": "竹筍", "pesticides": null, "month": "2026-05"}}, {"type": "Feature", "geometry": {"type": "Point", "coordinates": [121.4823, 25.0146]}, "properties": {"market": "板橋", "result": "合格", "product_name": "青花菜", "pesticides": null, "month": "2026-05"}}, {"type": "Feature", "geometry": {"type": "Point", "coordinates": [121.4823, 25.0146]}, "properties": {"market": "板橋", "result": "合格", "product_name": "胡蘿蔔", "pesticides": null, "month": "2026-05"}}, {"type": "Feature", "geometry": {"type": "Point", "coordinates": [121.4823, 25.0146]}, "properties": {"market": "板橋", "result": "合格", "product_name": "青江菜", "pesticides": null, "month": "2026-05"}}, {"type": "Feature", "geometry": {"type": "Point", "coordinates": [121.4823, 25.0146]}, "properties": {"market": "板橋", "result": "合格", "product_name": "萵苣", "pesticides": null, "month": "2026-05"}}, {"type": "Feature", "geometry": {"type": "Point", "coordinates": [121.4823, 25.0146]}, "properties": {"market": "板橋", "result": "合格", "product_name": "美生菜", "pesticides": null, "month": "2026-05"}}, {"type": "Feature", "geometry": {"type": "Point", "coordinates": [121.4823, 25.0146]}, "properties": {"market": "板橋", "result": "不合格", "product_name": "韭菜", "pesticides": "Cyromazine賽滅淨1.46(1.0); Pyraclostrobin百克敏2.86(2.0)", "month": "2026-05"}}, {"type": "Feature", "geometry": {"type": "Point", "coordinates": [121.4823, 25.0146]}, "properties": {"market": "板橋", "result": "合格", "product_name": "苦瓜", "pesticides": null, "month": "2026-05"}}, {"type": "Feature", "geometry": {"type": "Point", "coordinates": [121.4823, 25.0146]}, "properties": {"market": "板橋", "result": "合格", "product_name": "絲瓜", "pesticides": null, "month": "2026-05"}}, {"type": "Feature", "geometry": {"type": "Point", "coordinates": [121.4823, 25.0146]}, "properties": {"market": "板橋", "result": "合格", "product_name": "小黃瓜", "pesticides": null, "month": "2026-05"}}, {"type": "Feature", "geometry": {"type": "Point", "coordinates": [121.4823, 25.0146]}, "properties": {"market": "板橋", "result": "合格", "product_name": "蕹菜", "pesticides": null, "month": "2026-05"}}, {"type": "Feature", "geometry": {"type": "Point", "coordinates": [121.4823, 25.0146]}, "properties": {"market": "板橋", "result": "合格", "product_name": "茄子", "pesticides": null, "month": "2026-05"}}, {"type": "Feature", "geometry": {"type": "Point", "coordinates": [121.4823, 25.0146]}, "properties": {"market": "板橋", "result": "合格", "product_name": "彩椒", "pesticides": null, "month": "2026-05"}}]}